{"type":"FeatureCollection","features":[{"type":"Feature","id":1,"geometry":{"type":"Point","coordinates":[-89.724011999999959,43.286933000000033]},"properties":{"OBJECTID":1,"id":1220816,"latitude":43.286932999999998,"longitude":-89.724012000000002,"species_guess":"American Robin"}},{"type":"Feature","id":2,"geometry":{"type":"Point","coordinates":[-91.224975585999971,43.744808889000069]},"properties":{"OBJECTID":2,"id":7058226,"latitude":43.7448088887,"longitude":-91.224975585899998,"species_guess":"American Robin"}},{"type":"Feature","id":3,"geometry":{"type":"Point","coordinates":[-90.721720316999949,42.417220274000044]},"properties":{"OBJECTID":3,"id":14771020,"latitude":42.4172202739,"longitude":-90.721720316499997,"species_guess":"Merle d'Amérique"}},{"type":"Feature","id":4,"geometry":{"type":"Point","coordinates":[-90.663726250999957,42.610063786000069]},"properties":{"OBJECTID":4,"id":16817926,"latitude":42.610063785599998,"longitude":-90.663726251,"species_guess":"American Robin"}},{"type":"Feature","id":5,"geometry":{"type":"Point","coordinates":[-92.039605499999936,44.386703333000071]},"properties":{"OBJECTID":5,"id":26159565,"latitude":44.386703333299998,"longitude":-92.039605499999993,"species_guess":"American Robin"}},{"type":"Feature","id":6,"geometry":{"type":"Point","coordinates":[-91.217057731999944,43.873045767000065]},"properties":{"OBJECTID":6,"id":30612198,"latitude":43.873045767100002,"longitude":-91.217057732100002,"species_guess":"American Robin"}},{"type":"Feature","id":7,"geometry":{"type":"Point","coordinates":[-91.183239557999968,43.838042519000055]},"properties":{"OBJECTID":7,"id":30614171,"latitude":43.838042518899996,"longitude":-91.183239557700006,"species_guess":"American Robin"}},{"type":"Feature","id":8,"geometry":{"type":"Point","coordinates":[-91.183239557999968,43.838042519000055]},"properties":{"OBJECTID":8,"id":30614205,"latitude":43.838042518899996,"longitude":-91.183239557700006,"species_guess":"American Robin"}},{"type":"Feature","id":9,"geometry":{"type":"Point","coordinates":[-91.033295449999969,43.712916085000074]},"properties":{"OBJECTID":9,"id":45644540,"latitude":43.712916085499998,"longitude":-91.033295450300002,"species_guess":"American Robin"}},{"type":"Feature","id":10,"geometry":{"type":"Point","coordinates":[-91.199158329999989,43.794108330000029]},"properties":{"OBJECTID":10,"id":48152472,"latitude":43.79410833,"longitude":-91.199158330000003,"species_guess":"American Robin"}},{"type":"Feature","id":11,"geometry":{"type":"Point","coordinates":[-90.723116173999983,43.561317403000032]},"properties":{"OBJECTID":11,"id":48232135,"latitude":43.561317403399997,"longitude":-90.723116174300003,"species_guess":"American Robin"}},{"type":"Feature","id":12,"geometry":{"type":"Point","coordinates":[-91.181746669999939,43.097163830000056]},"properties":{"OBJECTID":12,"id":48977419,"latitude":43.09716383,"longitude":-91.181746669999995,"species_guess":"American Robin"}},{"type":"Feature","id":13,"geometry":{"type":"Point","coordinates":[-89.994957581999984,43.44297238300004]},"properties":{"OBJECTID":13,"id":49519528,"latitude":43.442972382900003,"longitude":-89.994957582200001,"species_guess":"American Robin"}},{"type":"Feature","id":14,"geometry":{"type":"Point","coordinates":[-91.229455181999981,43.703949904000069]},"properties":{"OBJECTID":14,"id":49962047,"latitude":43.703949903900003,"longitude":-91.229455181999995,"species_guess":"American Robin"}},{"type":"Feature","id":15,"geometry":{"type":"Point","coordinates":[-91.394174598999939,43.797411176000026]},"properties":{"OBJECTID":15,"id":49962050,"latitude":43.797411175999997,"longitude":-91.394174598899994,"species_guess":"American Robin"}},{"type":"Feature","id":16,"geometry":{"type":"Point","coordinates":[-91.14633573399999,43.669303859000081]},"properties":{"OBJECTID":16,"id":50439024,"latitude":43.669303859099998,"longitude":-91.146335733699999,"species_guess":"American Robin"}},{"type":"Feature","id":17,"geometry":{"type":"Point","coordinates":[-91.544168879999972,43.693785105000075]},"properties":{"OBJECTID":17,"id":50875682,"latitude":43.6937851052,"longitude":-91.544168879599994,"species_guess":"American Robin"}},{"type":"Feature","id":18,"geometry":{"type":"Point","coordinates":[-91.244415216999982,43.629502159000026]},"properties":{"OBJECTID":18,"id":51008938,"latitude":43.629502158500003,"longitude":-91.244415217099998,"species_guess":"Merle d'Amérique"}},{"type":"Feature","id":19,"geometry":{"type":"Point","coordinates":[-91.272447049999982,43.796662325000057]},"properties":{"OBJECTID":19,"id":51009878,"latitude":43.796662325200003,"longitude":-91.272447049899995,"species_guess":"American Robin"}},{"type":"Feature","id":20,"geometry":{"type":"Point","coordinates":[-91.914474999999982,44.321328330000028]},"properties":{"OBJECTID":20,"id":51176874,"latitude":44.32132833,"longitude":-91.914474999999996,"species_guess":"American Robin"}},{"type":"Feature","id":21,"geometry":{"type":"Point","coordinates":[-89.564844999999991,42.998598972000025]},"properties":{"OBJECTID":21,"id":52993552,"latitude":42.9985989722,"longitude":-89.564845000000005,"species_guess":"American Robin"}},{"type":"Feature","id":22,"geometry":{"type":"Point","coordinates":[-91.228768116999959,43.739016034000031]},"properties":{"OBJECTID":22,"id":55508805,"latitude":43.739016034400002,"longitude":-91.2287681169,"species_guess":"Merle d'Amérique"}},{"type":"Feature","id":23,"geometry":{"type":"Point","coordinates":[-91.911690262999969,43.173353515000031]},"properties":{"OBJECTID":23,"id":55932529,"latitude":43.173353514600002,"longitude":-91.911690262999997,"species_guess":"American Robin"}},{"type":"Feature","id":24,"geometry":{"type":"Point","coordinates":[-90.094885021999971,42.30050590500008]},"properties":{"OBJECTID":24,"id":56380514,"latitude":42.300505904700003,"longitude":-90.094885022100001,"species_guess":"American Robin"}},{"type":"Feature","id":25,"geometry":{"type":"Point","coordinates":[-90.117705894999972,42.029580425000063]},"properties":{"OBJECTID":25,"id":56384407,"latitude":42.029580424899997,"longitude":-90.117705895200004,"species_guess":"American Robin"}},{"type":"Feature","id":26,"geometry":{"type":"Point","coordinates":[-91.80642249999994,43.384164200000043]},"properties":{"OBJECTID":26,"id":56516729,"latitude":43.384164200000001,"longitude":-91.806422499700005,"species_guess":"American Robin"}},{"type":"Feature","id":27,"geometry":{"type":"Point","coordinates":[-91.230843017999973,43.666733837000038]},"properties":{"OBJECTID":27,"id":56639936,"latitude":43.666733836799999,"longitude":-91.230843018399995,"species_guess":"American Robin"}},{"type":"Feature","id":28,"geometry":{"type":"Point","coordinates":[-90.106380860999991,42.303012670000044]},"properties":{"OBJECTID":28,"id":56876110,"latitude":42.303012670500003,"longitude":-90.106380860499996,"species_guess":"American Robin"}},{"type":"Feature","id":29,"geometry":{"type":"Point","coordinates":[-90.256325371999935,42.181121961000031]},"properties":{"OBJECTID":29,"id":58162136,"latitude":42.181121961000002,"longitude":-90.256325372199996,"species_guess":"American Robin"}},{"type":"Feature","id":30,"geometry":{"type":"Point","coordinates":[-90.153547426999978,42.11498871100008]},"properties":{"OBJECTID":30,"id":58438818,"latitude":42.114988710699997,"longitude":-90.153547427199996,"species_guess":"American Robin"}},{"type":"Feature","id":31,"geometry":{"type":"Point","coordinates":[-91.250490853999963,43.80989707100008]},"properties":{"OBJECTID":31,"id":82179929,"latitude":43.809897070799998,"longitude":-91.250490853599999,"species_guess":"American Robin"}},{"type":"Feature","id":32,"geometry":{"type":"Point","coordinates":[-91.254115900999977,43.730447192000042]},"properties":{"OBJECTID":32,"id":82224173,"latitude":43.730447191800003,"longitude":-91.254115900599999,"species_guess":"American Robin"}},{"type":"Feature","id":33,"geometry":{"type":"Point","coordinates":[-91.210975646999941,43.812519073000033]},"properties":{"OBJECTID":33,"id":85420937,"latitude":43.812519073499999,"longitude":-91.210975646999998,"species_guess":"American Robin"}},{"type":"Feature","id":34,"geometry":{"type":"Point","coordinates":[-91.204526232999967,43.775363483000035]},"properties":{"OBJECTID":34,"id":85533401,"latitude":43.7753634826,"longitude":-91.204526232700005,"species_guess":"American Robin"}},{"type":"Feature","id":35,"geometry":{"type":"Point","coordinates":[-91.338469977999978,43.712699090000058]},"properties":{"OBJECTID":35,"id":86044500,"latitude":43.712699089700003,"longitude":-91.338469978099994,"species_guess":"American Robin"}},{"type":"Feature","id":36,"geometry":{"type":"Point","coordinates":[-90.681885268999963,42.182961981000062]},"properties":{"OBJECTID":36,"id":86210561,"latitude":42.182961980899996,"longitude":-90.681885268800002,"species_guess":"American Robin"}},{"type":"Feature","id":37,"geometry":{"type":"Point","coordinates":[-90.716857909999987,42.532833099000072]},"properties":{"OBJECTID":37,"id":86585696,"latitude":42.532833099400001,"longitude":-90.716857910200005,"species_guess":"American Robin"}},{"type":"Feature","id":38,"geometry":{"type":"Point","coordinates":[-90.754241942999954,42.467918396000073]},"properties":{"OBJECTID":38,"id":87212619,"latitude":42.467918396000002,"longitude":-90.754241943400004,"species_guess":"American Robin"}},{"type":"Feature","id":39,"geometry":{"type":"Point","coordinates":[-90.107046612999966,42.051266178000049]},"properties":{"OBJECTID":39,"id":87367880,"latitude":42.051266178299997,"longitude":-90.107046613400001,"species_guess":"American Robin"}},{"type":"Feature","id":40,"geometry":{"type":"Point","coordinates":[-90.868728332999979,44.242486667000037]},"properties":{"OBJECTID":40,"id":88610804,"latitude":44.242486666700003,"longitude":-90.868728333299998,"species_guess":"American Robin"}},{"type":"Feature","id":41,"geometry":{"type":"Point","coordinates":[-90.653435599999966,42.499513100000058]},"properties":{"OBJECTID":41,"id":90104787,"latitude":42.499513100000001,"longitude":-90.653435599700003,"species_guess":"American Robin"}},{"type":"Feature","id":42,"geometry":{"type":"Point","coordinates":[-90.107588022999948,42.305464637000057]},"properties":{"OBJECTID":42,"id":95103762,"latitude":42.305464637299998,"longitude":-90.107588023000005,"species_guess":"American Robin"}},{"type":"Feature","id":43,"geometry":{"type":"Point","coordinates":[-90.055832820999967,42.449249261000034]},"properties":{"OBJECTID":43,"id":95104429,"latitude":42.449249261399999,"longitude":-90.055832820999996,"species_guess":"American Robin"}},{"type":"Feature","id":44,"geometry":{"type":"Point","coordinates":[-90.091133645999946,43.031536948000053]},"properties":{"OBJECTID":44,"id":95458643,"latitude":43.031536948499998,"longitude":-90.091133646299994,"species_guess":"American Robin"}},{"type":"Feature","id":45,"geometry":{"type":"Point","coordinates":[-89.591099721999967,43.039095000000032]},"properties":{"OBJECTID":45,"id":98581442,"latitude":43.039095000000003,"longitude":-89.591099721700004,"species_guess":"American Robin"}},{"type":"Feature","id":46,"geometry":{"type":"Point","coordinates":[-90.173990824999976,42.055694120000055]},"properties":{"OBJECTID":46,"id":99645298,"latitude":42.0556941201,"longitude":-90.173990825299995,"species_guess":"American Robin"}},{"type":"Feature","id":47,"geometry":{"type":"Point","coordinates":[-89.948975430999951,43.337895404000051]},"properties":{"OBJECTID":47,"id":104243409,"latitude":43.337895403899999,"longitude":-89.948975430900006,"species_guess":"American Robin"}},{"type":"Feature","id":48,"geometry":{"type":"Point","coordinates":[-89.73665185599998,43.001780057000076]},"properties":{"OBJECTID":48,"id":120265647,"latitude":43.001780056800001,"longitude":-89.736651855900007,"species_guess":"American Robin"}},{"type":"Feature","id":49,"geometry":{"type":"Point","coordinates":[-90.426973141999952,42.413201266000044]},"properties":{"OBJECTID":49,"id":121335317,"latitude":42.413201265799998,"longitude":-90.426973141700003,"species_guess":"American Robin"}},{"type":"Feature","id":50,"geometry":{"type":"Point","coordinates":[-90.124519499999963,42.954661667000039]},"properties":{"OBJECTID":50,"id":121841900,"latitude":42.954661666699998,"longitude":-90.124519500000005,"species_guess":"American Robin"}},{"type":"Feature","id":51,"geometry":{"type":"Point","coordinates":[-91.076758391999988,43.898657612000079]},"properties":{"OBJECTID":51,"id":122886997,"latitude":43.898657611600001,"longitude":-91.076758392200006,"species_guess":"American Robin"}},{"type":"Feature","id":52,"geometry":{"type":"Point","coordinates":[-91.910461177999991,44.323928869000042]},"properties":{"OBJECTID":52,"id":122958531,"latitude":44.3239288694,"longitude":-91.910461178199995,"species_guess":"American Robin"}},{"type":"Feature","id":53,"geometry":{"type":"Point","coordinates":[-91.271107904999951,43.858145191000062]},"properties":{"OBJECTID":53,"id":122991153,"latitude":43.858145191399998,"longitude":-91.271107904700003,"species_guess":"American Robin"}},{"type":"Feature","id":54,"geometry":{"type":"Point","coordinates":[-91.179985109999961,43.098041790000025]},"properties":{"OBJECTID":54,"id":123633587,"latitude":43.098041790000003,"longitude":-91.179985110000004,"species_guess":"Mirlo primavera"}},{"type":"Feature","id":55,"geometry":{"type":"Point","coordinates":[-90.683587512999964,42.572356973000069]},"properties":{"OBJECTID":55,"id":123752538,"latitude":42.5723569727,"longitude":-90.683587512700001,"species_guess":"American Robin"}},{"type":"Feature","id":56,"geometry":{"type":"Point","coordinates":[-90.879790817999947,44.348430635000057]},"properties":{"OBJECTID":56,"id":123994303,"latitude":44.3484306354,"longitude":-90.879790817599996,"species_guess":"American Robin"}},{"type":"Feature","id":57,"geometry":{"type":"Point","coordinates":[-90.532360619999963,44.131756700000039]},"properties":{"OBJECTID":57,"id":124277754,"latitude":44.131756699999997,"longitude":-90.532360620000006,"species_guess":"American Robin"}},{"type":"Feature","id":58,"geometry":{"type":"Point","coordinates":[-91.076817363999965,43.898776975000033]},"properties":{"OBJECTID":58,"id":124413412,"latitude":43.898776975099999,"longitude":-91.076817364099995,"species_guess":"American Robin"}},{"type":"Feature","id":59,"geometry":{"type":"Point","coordinates":[-91.076944534999939,43.898864386000071]},"properties":{"OBJECTID":59,"id":124660495,"latitude":43.898864386,"longitude":-91.076944535199999,"species_guess":"American Robin"}},{"type":"Feature","id":60,"geometry":{"type":"Point","coordinates":[-91.649696666999944,43.132808333000071]},"properties":{"OBJECTID":60,"id":125402273,"latitude":43.132808333299998,"longitude":-91.649696666699995,"species_guess":"American Robin"}},{"type":"Feature","id":61,"geometry":{"type":"Point","coordinates":[-89.985682703999942,42.770830149000062]},"properties":{"OBJECTID":61,"id":125661333,"latitude":42.7708301491,"longitude":-89.985682703600006,"species_guess":"American Robin"}},{"type":"Feature","id":62,"geometry":{"type":"Point","coordinates":[-91.543748072999961,44.048587245000078]},"properties":{"OBJECTID":62,"id":126001109,"latitude":44.048587245199997,"longitude":-91.543748073000003,"species_guess":"American Robin"}},{"type":"Feature","id":63,"geometry":{"type":"Point","coordinates":[-91.524865928999986,44.040996012000051]},"properties":{"OBJECTID":63,"id":126003216,"latitude":44.040996011799997,"longitude":-91.524865929100002,"species_guess":"American Robin"}},{"type":"Feature","id":64,"geometry":{"type":"Point","coordinates":[-90.017468065999935,43.159420782000041]},"properties":{"OBJECTID":64,"id":127633207,"latitude":43.1594207821,"longitude":-90.017468065800003,"species_guess":"American Robin"}},{"type":"Feature","id":65,"geometry":{"type":"Point","coordinates":[-91.07684330099994,43.898816993000025]},"properties":{"OBJECTID":65,"id":128509450,"latitude":43.898816993499999,"longitude":-91.076843300899995,"species_guess":"American Robin"}},{"type":"Feature","id":66,"geometry":{"type":"Point","coordinates":[-90.634245899999939,42.542362300000036]},"properties":{"OBJECTID":66,"id":128687638,"latitude":42.542362300000001,"longitude":-90.634245899999996,"species_guess":"American Robin"}},{"type":"Feature","id":67,"geometry":{"type":"Point","coordinates":[-91.195512340999983,43.093297041000028]},"properties":{"OBJECTID":67,"id":130330200,"latitude":43.093297041299998,"longitude":-91.195512341300002,"species_guess":"American Robin"}},{"type":"Feature","id":68,"geometry":{"type":"Point","coordinates":[-90.359920011999975,42.312940839000078]},"properties":{"OBJECTID":68,"id":132335117,"latitude":42.312940838800003,"longitude":-90.359920011900002,"species_guess":"American Robin"}},{"type":"Feature","id":69,"geometry":{"type":"Point","coordinates":[-91.32082838499997,44.373005224000053]},"properties":{"OBJECTID":69,"id":135458389,"latitude":44.373005223600003,"longitude":-91.3208283851,"species_guess":"American Robin"}},{"type":"Feature","id":70,"geometry":{"type":"Point","coordinates":[-91.531594973999972,44.042676031000042]},"properties":{"OBJECTID":70,"id":144279323,"latitude":44.042676031399999,"longitude":-91.531594974399994,"species_guess":"American Robin"}},{"type":"Feature","id":71,"geometry":{"type":"Point","coordinates":[-91.21348947499996,43.811927578000052]},"properties":{"OBJECTID":71,"id":146738581,"latitude":43.811927578099997,"longitude":-91.213489475000003,"species_guess":"Merle d'Amérique"}},{"type":"Feature","id":72,"geometry":{"type":"Point","coordinates":[-89.84611989199999,43.178784435000068]},"properties":{"OBJECTID":72,"id":150767516,"latitude":43.178784434999997,"longitude":-89.846119891699999,"species_guess":"American Robin"}},{"type":"Feature","id":73,"geometry":{"type":"Point","coordinates":[-90.313304999999957,42.404334000000063]},"properties":{"OBJECTID":73,"id":165464226,"latitude":42.404333999999999,"longitude":-90.313305,"species_guess":"American Robin"}},{"type":"Feature","id":74,"geometry":{"type":"Point","coordinates":[-90.50438988999997,42.731087694000053]},"properties":{"OBJECTID":74,"id":165922364,"latitude":42.731087694499998,"longitude":-90.504389890200002,"species_guess":"American Robin"}},{"type":"Feature","id":75,"geometry":{"type":"Point","coordinates":[-90.694113332999962,42.18214666700004]},"properties":{"OBJECTID":75,"id":167598720,"latitude":42.1821466667,"longitude":-90.694113333299995,"species_guess":"American Robin"}},{"type":"Feature","id":76,"geometry":{"type":"Point","coordinates":[-90.128747373999943,43.024101097000027]},"properties":{"OBJECTID":76,"id":168798657,"latitude":43.024101097299997,"longitude":-90.128747373799996,"species_guess":"American Robin"}},{"type":"Feature","id":77,"geometry":{"type":"Point","coordinates":[-91.283474762999958,44.058655778000059]},"properties":{"OBJECTID":77,"id":168827074,"latitude":44.058655778499997,"longitude":-91.283474763300006,"species_guess":"American Robin"}},{"type":"Feature","id":78,"geometry":{"type":"Point","coordinates":[-90.946872130999964,44.213438114000041]},"properties":{"OBJECTID":78,"id":170848201,"latitude":44.213438113899997,"longitude":-90.946872131399999,"species_guess":"American Robin"}},{"type":"Feature","id":79,"geometry":{"type":"Point","coordinates":[-91.597900971999991,44.144143972000052]},"properties":{"OBJECTID":79,"id":171129442,"latitude":44.144143972199998,"longitude":-91.597900972199994,"species_guess":"American Robin"}},{"type":"Feature","id":80,"geometry":{"type":"Point","coordinates":[-90.477380555999957,42.73662777800007]},"properties":{"OBJECTID":80,"id":171432082,"latitude":42.736627777800003,"longitude":-90.477380555600007,"species_guess":"American Robin"}},{"type":"Feature","id":81,"geometry":{"type":"Point","coordinates":[-90.776695250999978,43.652637482000046]},"properties":{"OBJECTID":81,"id":171621164,"latitude":43.652637481699998,"longitude":-90.776695251500001,"species_guess":"American Robin"}},{"type":"Feature","id":82,"geometry":{"type":"Point","coordinates":[-90.777361110999948,43.65314722200003]},"properties":{"OBJECTID":82,"id":171944039,"latitude":43.653147222199998,"longitude":-90.777361111100006,"species_guess":"American Robin"}},{"type":"Feature","id":83,"geometry":{"type":"Point","coordinates":[-90.667734927999959,42.506335125000078]},"properties":{"OBJECTID":83,"id":172153230,"latitude":42.506335124700001,"longitude":-90.667734928399994,"species_guess":"American Robin"}},{"type":"Feature","id":84,"geometry":{"type":"Point","coordinates":[-91.85273669999998,43.931289700000036]},"properties":{"OBJECTID":84,"id":172367080,"latitude":43.931289700000001,"longitude":-91.852736699700003,"species_guess":"American Robin"}},{"type":"Feature","id":85,"geometry":{"type":"Point","coordinates":[-89.861705302999951,42.741121501000066]},"properties":{"OBJECTID":85,"id":172605872,"latitude":42.7411215013,"longitude":-89.861705303199997,"species_guess":"American Robin"}},{"type":"Feature","id":86,"geometry":{"type":"Point","coordinates":[-91.192238332999978,43.753738333000058]},"properties":{"OBJECTID":86,"id":172843020,"latitude":43.753738333299999,"longitude":-91.192238333299997,"species_guess":"American Robin"}},{"type":"Feature","id":87,"geometry":{"type":"Point","coordinates":[-90.176986902999943,41.901547129000051]},"properties":{"OBJECTID":87,"id":173095055,"latitude":41.901547129400001,"longitude":-90.176986903,"species_guess":"American Robin"}},{"type":"Feature","id":88,"geometry":{"type":"Point","coordinates":[-90.766637873999969,42.414871032000065]},"properties":{"OBJECTID":88,"id":173508118,"latitude":42.414871032199997,"longitude":-90.766637873700006,"species_guess":"American Robin"}},{"type":"Feature","id":89,"geometry":{"type":"Point","coordinates":[-90.009329057999935,43.49299198500006]},"properties":{"OBJECTID":89,"id":174714487,"latitude":43.492991985499998,"longitude":-90.009329058199995,"species_guess":"American Robin"}},{"type":"Feature","id":90,"geometry":{"type":"Point","coordinates":[-90.292428542999971,42.777054005000025]},"properties":{"OBJECTID":90,"id":174971571,"latitude":42.777054005499998,"longitude":-90.292428542500005,"species_guess":"American Robin"}},{"type":"Feature","id":91,"geometry":{"type":"Point","coordinates":[-90.74724505599994,42.518068306000032]},"properties":{"OBJECTID":91,"id":177154729,"latitude":42.5180683058,"longitude":-90.747245056400004,"species_guess":"American Robin"}},{"type":"Feature","id":92,"geometry":{"type":"Point","coordinates":[-92.054733522999982,43.514429548000066]},"properties":{"OBJECTID":92,"id":177904746,"latitude":43.514429548199999,"longitude":-92.054733522999996,"species_guess":null}},{"type":"Feature","id":93,"geometry":{"type":"Point","coordinates":[-90.566002799999978,43.207038100000034]},"properties":{"OBJECTID":93,"id":178638191,"latitude":43.207038099999998,"longitude":-90.566002799900005,"species_guess":"American Robin"}},{"type":"Feature","id":94,"geometry":{"type":"Point","coordinates":[-91.256057333999991,43.61442710700004]},"properties":{"OBJECTID":94,"id":179005627,"latitude":43.614427106699999,"longitude":-91.256057333599998,"species_guess":"American Robin"}},{"type":"Feature","id":95,"geometry":{"type":"Point","coordinates":[-91.21937281999999,43.773249720000081]},"properties":{"OBJECTID":95,"id":179005631,"latitude":43.773249719600003,"longitude":-91.219372819499995,"species_guess":"American Robin"}},{"type":"Feature","id":96,"geometry":{"type":"Point","coordinates":[-91.254425048999963,43.818271637000066]},"properties":{"OBJECTID":96,"id":179061433,"latitude":43.818271637000002,"longitude":-91.254425048800002,"species_guess":"American Robin"}},{"type":"Feature","id":97,"geometry":{"type":"Point","coordinates":[-90.525563099999943,43.120940700000062]},"properties":{"OBJECTID":97,"id":182334220,"latitude":43.120940699999998,"longitude":-90.525563099999999,"species_guess":"American Robin"}},{"type":"Feature","id":98,"geometry":{"type":"Point","coordinates":[-91.076669208999988,43.898713896000061]},"properties":{"OBJECTID":98,"id":182799896,"latitude":43.898713896099999,"longitude":-91.076669208799999,"species_guess":null}},{"type":"Feature","id":99,"geometry":{"type":"Point","coordinates":[-91.061634337999976,44.466522289000068]},"properties":{"OBJECTID":99,"id":185587050,"latitude":44.466522289499999,"longitude":-91.061634337599997,"species_guess":null}},{"type":"Feature","id":100,"geometry":{"type":"Point","coordinates":[-89.962363582999956,43.335710900000038]},"properties":{"OBJECTID":100,"id":189958009,"latitude":43.335710899600002,"longitude":-89.962363583300004,"species_guess":"American Robin"}},{"type":"Feature","id":101,"geometry":{"type":"Point","coordinates":[-89.952538197999957,43.34233094800004]},"properties":{"OBJECTID":101,"id":192075724,"latitude":43.342330947900003,"longitude":-89.952538198200003,"species_guess":"American Robin"}},{"type":"Feature","id":102,"geometry":{"type":"Point","coordinates":[-89.662312216999965,43.035352128000056]},"properties":{"OBJECTID":102,"id":215943745,"latitude":43.035352128500001,"longitude":-89.662312217199997,"species_guess":"American Robin"}},{"type":"Feature","id":103,"geometry":{"type":"Point","coordinates":[-91.253379999999936,43.978078333000042]},"properties":{"OBJECTID":103,"id":219827129,"latitude":43.978078333299997,"longitude":-91.253380000000007,"species_guess":"American Robin"}},{"type":"Feature","id":104,"geometry":{"type":"Point","coordinates":[-90.619436920999988,42.521322067000028]},"properties":{"OBJECTID":104,"id":220380400,"latitude":42.521322066800003,"longitude":-90.619436921200005,"species_guess":"American Robin"}},{"type":"Feature","id":105,"geometry":{"type":"Point","coordinates":[-89.813124999999957,43.236894444000029]},"properties":{"OBJECTID":105,"id":220790981,"latitude":43.236894444400001,"longitude":-89.813124999999999,"species_guess":"American Robin"}},{"type":"Feature","id":106,"geometry":{"type":"Point","coordinates":[-91.462258332999966,42.767033333000029]},"properties":{"OBJECTID":106,"id":220985329,"latitude":42.767033333299999,"longitude":-91.462258333299999,"species_guess":"Birds"}},{"type":"Feature","id":107,"geometry":{"type":"Point","coordinates":[-89.510196666999946,42.886413333000064]},"properties":{"OBJECTID":107,"id":221080057,"latitude":42.886413333299998,"longitude":-89.510196666699997,"species_guess":"American Robin"}},{"type":"Feature","id":108,"geometry":{"type":"Point","coordinates":[-91.271382863999975,43.858719282000038]},"properties":{"OBJECTID":108,"id":221460492,"latitude":43.858719281799999,"longitude":-91.271382864399996,"species_guess":"American Robin"}},{"type":"Feature","id":109,"geometry":{"type":"Point","coordinates":[-90.654485485999942,42.511631430000079]},"properties":{"OBJECTID":109,"id":221639810,"latitude":42.511631430000001,"longitude":-90.654485486400006,"species_guess":"American Robin"}},{"type":"Feature","id":110,"geometry":{"type":"Point","coordinates":[-90.983917713999972,44.30260301900006]},"properties":{"OBJECTID":110,"id":222140763,"latitude":44.302603019400003,"longitude":-90.983917713899999,"species_guess":"American Robin"}},{"type":"Feature","id":111,"geometry":{"type":"Point","coordinates":[-91.41608838999997,42.804966940000043]},"properties":{"OBJECTID":111,"id":222469926,"latitude":42.80496694,"longitude":-91.416088389999999,"species_guess":"American Robin"}},{"type":"Feature","id":112,"geometry":{"type":"Point","coordinates":[-91.559666666999988,43.077352778000034]},"properties":{"OBJECTID":112,"id":222950966,"latitude":43.077352777800002,"longitude":-91.559666666699997,"species_guess":"American Robin"}},{"type":"Feature","id":113,"geometry":{"type":"Point","coordinates":[-91.560797221999962,43.083336111000051]},"properties":{"OBJECTID":113,"id":223002175,"latitude":43.083336111100003,"longitude":-91.560797222199994,"species_guess":"American Robin"}},{"type":"Feature","id":114,"geometry":{"type":"Point","coordinates":[-91.560797221999962,43.083336111000051]},"properties":{"OBJECTID":114,"id":223002177,"latitude":43.083336111100003,"longitude":-91.560797222199994,"species_guess":"American Robin"}},{"type":"Feature","id":115,"geometry":{"type":"Point","coordinates":[-91.560769443999959,43.083327778000069]},"properties":{"OBJECTID":115,"id":223002179,"latitude":43.083327777800001,"longitude":-91.560769444399995,"species_guess":"American Robin"}},{"type":"Feature","id":116,"geometry":{"type":"Point","coordinates":[-91.560438888999954,43.083372222000037]},"properties":{"OBJECTID":116,"id":223004372,"latitude":43.083372222199998,"longitude":-91.560438888899995,"species_guess":"American Robin"}},{"type":"Feature","id":117,"geometry":{"type":"Point","coordinates":[-91.560288888999935,43.083288889000073]},"properties":{"OBJECTID":117,"id":223004377,"latitude":43.0832888889,"longitude":-91.560288888900004,"species_guess":"American Robin"}},{"type":"Feature","id":118,"geometry":{"type":"Point","coordinates":[-91.560288888999935,43.083288889000073]},"properties":{"OBJECTID":118,"id":223004379,"latitude":43.0832888889,"longitude":-91.560288888900004,"species_guess":"American Robin"}},{"type":"Feature","id":119,"geometry":{"type":"Point","coordinates":[-91.560322221999968,43.083313889000067]},"properties":{"OBJECTID":119,"id":223004380,"latitude":43.083313888900001,"longitude":-91.5603222222,"species_guess":"American Robin"}},{"type":"Feature","id":120,"geometry":{"type":"Point","coordinates":[-91.560241666999957,43.083291667000026]},"properties":{"OBJECTID":120,"id":223004381,"latitude":43.083291666699999,"longitude":-91.560241666699994,"species_guess":"American Robin"}},{"type":"Feature","id":121,"geometry":{"type":"Point","coordinates":[-91.560244443999977,43.083294444000046]},"properties":{"OBJECTID":121,"id":223004383,"latitude":43.083294444400003,"longitude":-91.560244444399999,"species_guess":"American Robin"}},{"type":"Feature","id":122,"geometry":{"type":"Point","coordinates":[-91.560244443999977,43.083294444000046]},"properties":{"OBJECTID":122,"id":223004384,"latitude":43.083294444400003,"longitude":-91.560244444399999,"species_guess":"American Robin"}},{"type":"Feature","id":123,"geometry":{"type":"Point","coordinates":[-91.56056111099997,43.083363889000054]},"properties":{"OBJECTID":123,"id":223004387,"latitude":43.083363888900003,"longitude":-91.5605611111,"species_guess":"American Robin"}},{"type":"Feature","id":124,"geometry":{"type":"Point","coordinates":[-91.560747221999975,43.083411111000032]},"properties":{"OBJECTID":124,"id":223004395,"latitude":43.083411111099998,"longitude":-91.560747222200007,"species_guess":"American Robin"}},{"type":"Feature","id":125,"geometry":{"type":"Point","coordinates":[-91.560794443999953,43.083394444000078]},"properties":{"OBJECTID":125,"id":223004400,"latitude":43.0833944444,"longitude":-91.560794444400003,"species_guess":"American Robin"}},{"type":"Feature","id":126,"geometry":{"type":"Point","coordinates":[-91.622169443999951,43.190838889000077]},"properties":{"OBJECTID":126,"id":223006077,"latitude":43.190838888899997,"longitude":-91.622169444400001,"species_guess":"American Robin"}},{"type":"Feature","id":127,"geometry":{"type":"Point","coordinates":[-91.622255555999971,43.190877778000072]},"properties":{"OBJECTID":127,"id":223006093,"latitude":43.190877777799997,"longitude":-91.622255555600006,"species_guess":"American Robin"}},{"type":"Feature","id":128,"geometry":{"type":"Point","coordinates":[-91.622258332999991,43.190880556000025]},"properties":{"OBJECTID":128,"id":223006100,"latitude":43.190880555600003,"longitude":-91.622258333299996,"species_guess":"American Robin"}},{"type":"Feature","id":129,"geometry":{"type":"Point","coordinates":[-91.622263888999953,43.190888889000064]},"properties":{"OBJECTID":129,"id":223006104,"latitude":43.190888888899998,"longitude":-91.622263888899994,"species_guess":"American Robin"}},{"type":"Feature","id":130,"geometry":{"type":"Point","coordinates":[-91.759774999999991,43.290772222000044]},"properties":{"OBJECTID":130,"id":223012209,"latitude":43.290772222199998,"longitude":-91.759775000000005,"species_guess":"American Robin"}},{"type":"Feature","id":131,"geometry":{"type":"Point","coordinates":[-91.759430555999984,43.290766667000071]},"properties":{"OBJECTID":131,"id":223012217,"latitude":43.290766666700002,"longitude":-91.759430555600005,"species_guess":"American Robin"}},{"type":"Feature","id":132,"geometry":{"type":"Point","coordinates":[-91.75900833299994,43.290802778000057]},"properties":{"OBJECTID":132,"id":223012229,"latitude":43.290802777800003,"longitude":-91.759008333300002,"species_guess":"American Robin"}},{"type":"Feature","id":133,"geometry":{"type":"Point","coordinates":[-91.758980555999983,43.290838889000042]},"properties":{"OBJECTID":133,"id":223012254,"latitude":43.290838888899998,"longitude":-91.758980555600004,"species_guess":"American Robin"}},{"type":"Feature","id":134,"geometry":{"type":"Point","coordinates":[-91.79146111099999,43.295738889000063]},"properties":{"OBJECTID":134,"id":223012721,"latitude":43.295738888899997,"longitude":-91.791461111100006,"species_guess":"American Robin"}},{"type":"Feature","id":135,"geometry":{"type":"Point","coordinates":[-91.779797221999956,43.272819444000049]},"properties":{"OBJECTID":135,"id":223112904,"latitude":43.2728194444,"longitude":-91.779797222200003,"species_guess":"American Robin"}},{"type":"Feature","id":136,"geometry":{"type":"Point","coordinates":[-91.791877777999957,43.310005556000078]},"properties":{"OBJECTID":136,"id":223130219,"latitude":43.3100055556,"longitude":-91.791877777799996,"species_guess":"American Robin"}},{"type":"Feature","id":137,"geometry":{"type":"Point","coordinates":[-91.791847221999944,43.310100000000034]},"properties":{"OBJECTID":137,"id":223130254,"latitude":43.310099999999998,"longitude":-91.791847222200005,"species_guess":"American Robin"}},{"type":"Feature","id":138,"geometry":{"type":"Point","coordinates":[-91.79182777799997,43.310166667000033]},"properties":{"OBJECTID":138,"id":223130258,"latitude":43.310166666699999,"longitude":-91.791827777799995,"species_guess":"American Robin"}},{"type":"Feature","id":139,"geometry":{"type":"Point","coordinates":[-91.791747221999969,43.310552778000044]},"properties":{"OBJECTID":139,"id":223130513,"latitude":43.310552777799998,"longitude":-91.791747222200001,"species_guess":"American Robin"}},{"type":"Feature","id":140,"geometry":{"type":"Point","coordinates":[-91.791855555999973,43.310372222000069]},"properties":{"OBJECTID":140,"id":223130530,"latitude":43.310372222200002,"longitude":-91.791855555599994,"species_guess":"American Robin"}},{"type":"Feature","id":141,"geometry":{"type":"Point","coordinates":[-91.769788888999983,43.484363889000065]},"properties":{"OBJECTID":141,"id":223136036,"latitude":43.484363888899999,"longitude":-91.769788888899996,"species_guess":"American Robin"}},{"type":"Feature","id":142,"geometry":{"type":"Point","coordinates":[-91.769797221999966,43.484375000000057]},"properties":{"OBJECTID":142,"id":223136080,"latitude":43.484375,"longitude":-91.769797222199998,"species_guess":"American Robin"}},{"type":"Feature","id":143,"geometry":{"type":"Point","coordinates":[-91.76790555599996,43.518602778000059]},"properties":{"OBJECTID":143,"id":223139431,"latitude":43.518602777799998,"longitude":-91.767905555599995,"species_guess":"American Robin"}},{"type":"Feature","id":144,"geometry":{"type":"Point","coordinates":[-91.767752777999988,43.518122222000045]},"properties":{"OBJECTID":144,"id":223139524,"latitude":43.518122222199999,"longitude":-91.767752777799998,"species_guess":"American Robin"}},{"type":"Feature","id":145,"geometry":{"type":"Point","coordinates":[-91.644186110999954,43.55674444400006]},"properties":{"OBJECTID":145,"id":223217326,"latitude":43.556744444400003,"longitude":-91.644186111099998,"species_guess":"American Robin"}},{"type":"Feature","id":146,"geometry":{"type":"Point","coordinates":[-91.581111110999984,43.643055556000036]},"properties":{"OBJECTID":146,"id":223221372,"latitude":43.6430555556,"longitude":-91.5811111111,"species_guess":"American Robin"}},{"type":"Feature","id":147,"geometry":{"type":"Point","coordinates":[-91.34164444399994,43.759541667000065]},"properties":{"OBJECTID":147,"id":223226589,"latitude":43.759541666700002,"longitude":-91.341644444400004,"species_guess":"American Robin"}},{"type":"Feature","id":148,"geometry":{"type":"Point","coordinates":[-91.260769443999948,43.814802778000058]},"properties":{"OBJECTID":148,"id":223256237,"latitude":43.814802777799997,"longitude":-91.260769444399997,"species_guess":"American Robin"}},{"type":"Feature","id":149,"geometry":{"type":"Point","coordinates":[-91.260747221999964,43.814833333000081]},"properties":{"OBJECTID":149,"id":223256269,"latitude":43.814833333300001,"longitude":-91.260747222199996,"species_guess":"American Robin"}},{"type":"Feature","id":150,"geometry":{"type":"Point","coordinates":[-90.755038978999949,42.422255690000043]},"properties":{"OBJECTID":150,"id":223321392,"latitude":42.4222556904,"longitude":-90.7550389787,"species_guess":"American Robin"}},{"type":"Feature","id":151,"geometry":{"type":"Point","coordinates":[-90.759743521999951,42.415962211000078]},"properties":{"OBJECTID":151,"id":223326766,"latitude":42.415962211100002,"longitude":-90.759743521600001,"species_guess":"American Robin"}},{"type":"Feature","id":152,"geometry":{"type":"Point","coordinates":[-90.69206524599997,42.502714279000031]},"properties":{"OBJECTID":152,"id":223420662,"latitude":42.502714278600003,"longitude":-90.692065246400006,"species_guess":"American Robin"}},{"type":"Feature","id":153,"geometry":{"type":"Point","coordinates":[-91.183580555999981,43.388447222000025]},"properties":{"OBJECTID":153,"id":223472222,"latitude":43.3884472222,"longitude":-91.183580555600003,"species_guess":"American Robin"}},{"type":"Feature","id":154,"geometry":{"type":"Point","coordinates":[-91.203941666999981,42.889033333000043]},"properties":{"OBJECTID":154,"id":223646429,"latitude":42.889033333299999,"longitude":-91.203941666700004,"species_guess":null}},{"type":"Feature","id":155,"geometry":{"type":"Point","coordinates":[-91.476786507999975,43.257728820000068]},"properties":{"OBJECTID":155,"id":223749347,"latitude":43.257728820399997,"longitude":-91.476786508199993,"species_guess":"American Robin"}},{"type":"Feature","id":156,"geometry":{"type":"Point","coordinates":[-91.238060932999986,43.359155418000057]},"properties":{"OBJECTID":156,"id":223780645,"latitude":43.359155417899998,"longitude":-91.238060933100002,"species_guess":"American Robin"}},{"type":"Feature","id":157,"geometry":{"type":"Point","coordinates":[-91.221730891999982,43.365389162000042]},"properties":{"OBJECTID":157,"id":223796510,"latitude":43.365389162,"longitude":-91.221730892400004,"species_guess":"American Robin"}},{"type":"Feature","id":158,"geometry":{"type":"Point","coordinates":[-91.221275541999944,43.365483497000071]},"properties":{"OBJECTID":158,"id":223796897,"latitude":43.365483496800003,"longitude":-91.221275541699995,"species_guess":"Northern Cardinal"}},{"type":"Feature","id":159,"geometry":{"type":"Point","coordinates":[-91.187760344999958,43.103110364000031]},"properties":{"OBJECTID":159,"id":223814303,"latitude":43.103110363699997,"longitude":-91.187760344799997,"species_guess":"American Robin"}},{"type":"Feature","id":160,"geometry":{"type":"Point","coordinates":[-91.18644014299997,43.088545770000053]},"properties":{"OBJECTID":160,"id":223815722,"latitude":43.0885457702,"longitude":-91.186440143300004,"species_guess":"American Robin"}},{"type":"Feature","id":161,"geometry":{"type":"Point","coordinates":[-91.17765785399996,43.045450525000035]},"properties":{"OBJECTID":161,"id":223821923,"latitude":43.0454505246,"longitude":-91.177657854100005,"species_guess":"American Robin"}},{"type":"Feature","id":162,"geometry":{"type":"Point","coordinates":[-91.089179336999962,42.747923852000042]},"properties":{"OBJECTID":162,"id":223849153,"latitude":42.747923852100001,"longitude":-91.089179336499996,"species_guess":"American Robin"}},{"type":"Feature","id":163,"geometry":{"type":"Point","coordinates":[-91.089208771999949,42.747952756000075]},"properties":{"OBJECTID":163,"id":223849170,"latitude":42.747952756099998,"longitude":-91.089208772000006,"species_guess":"American Robin"}},{"type":"Feature","id":164,"geometry":{"type":"Point","coordinates":[-90.786904098999969,42.605756969000026]},"properties":{"OBJECTID":164,"id":223861294,"latitude":42.605756968900003,"longitude":-90.786904098799994,"species_guess":"American Robin"}},{"type":"Feature","id":165,"geometry":{"type":"Point","coordinates":[-90.648386022999944,42.539660630000071]},"properties":{"OBJECTID":165,"id":223874951,"latitude":42.539660629899998,"longitude":-90.648386023,"species_guess":"American Robin"}},{"type":"Feature","id":166,"geometry":{"type":"Point","coordinates":[-90.924874999999986,42.885472222000033]},"properties":{"OBJECTID":166,"id":224451543,"latitude":42.885472222200001,"longitude":-90.924875,"species_guess":"American Robin"}},{"type":"Feature","id":167,"geometry":{"type":"Point","coordinates":[-90.596813888999975,42.631230556000048]},"properties":{"OBJECTID":167,"id":224533715,"latitude":42.631230555599998,"longitude":-90.596813888900002,"species_guess":"American Robin"}},{"type":"Feature","id":168,"geometry":{"type":"Point","coordinates":[-90.596819443999948,42.631236111000078]},"properties":{"OBJECTID":168,"id":224533721,"latitude":42.631236111100002,"longitude":-90.596819444399998,"species_guess":"American Robin"}},{"type":"Feature","id":169,"geometry":{"type":"Point","coordinates":[-90.619702777999976,42.521122222000031]},"properties":{"OBJECTID":169,"id":224535458,"latitude":42.521122222199999,"longitude":-90.619702777800001,"species_guess":"American Robin"}},{"type":"Feature","id":170,"geometry":{"type":"Point","coordinates":[-90.619694443999947,42.521116667000058]},"properties":{"OBJECTID":170,"id":224535459,"latitude":42.521116666700003,"longitude":-90.619694444399997,"species_guess":"American Robin"}},{"type":"Feature","id":171,"geometry":{"type":"Point","coordinates":[-90.646283332999985,42.513416667000058]},"properties":{"OBJECTID":171,"id":224535463,"latitude":42.513416666700003,"longitude":-90.646283333300005,"species_guess":"American Robin"}},{"type":"Feature","id":172,"geometry":{"type":"Point","coordinates":[-91.750008612999977,43.804478904000064]},"properties":{"OBJECTID":172,"id":225616291,"latitude":43.804478904,"longitude":-91.750008612900004,"species_guess":"American Robin"}},{"type":"Feature","id":173,"geometry":{"type":"Point","coordinates":[-90.715236178999987,42.507201931000054]},"properties":{"OBJECTID":173,"id":226274209,"latitude":42.507201931399997,"longitude":-90.715236179499996,"species_guess":"American Robin"}},{"type":"Feature","id":174,"geometry":{"type":"Point","coordinates":[-91.184579906999943,43.088484129000051]},"properties":{"OBJECTID":174,"id":226285448,"latitude":43.088484129299999,"longitude":-91.184579906600007,"species_guess":"American Robin"}},{"type":"Feature","id":175,"geometry":{"type":"Point","coordinates":[-91.251577302999976,43.16650338900007]},"properties":{"OBJECTID":175,"id":226300009,"latitude":43.166503389500001,"longitude":-91.251577302900003,"species_guess":"American Robin"}},{"type":"Feature","id":176,"geometry":{"type":"Point","coordinates":[-91.544622221999987,43.76653888900006]},"properties":{"OBJECTID":176,"id":226754710,"latitude":43.766538888900001,"longitude":-91.544622222200005,"species_guess":"American Robin"}},{"type":"Feature","id":177,"geometry":{"type":"Point","coordinates":[-91.576452777999975,43.088230556000042]},"properties":{"OBJECTID":177,"id":227132474,"latitude":43.088230555599999,"longitude":-91.5764527778,"species_guess":"American Robin"}},{"type":"Feature","id":178,"geometry":{"type":"Point","coordinates":[-91.476094443999955,43.258191667000062]},"properties":{"OBJECTID":178,"id":227133523,"latitude":43.2581916667,"longitude":-91.476094444400005,"species_guess":"American Robin"}},{"type":"Feature","id":179,"geometry":{"type":"Point","coordinates":[-91.476119443999949,43.258200000000045]},"properties":{"OBJECTID":179,"id":227133532,"latitude":43.258200000000002,"longitude":-91.476119444399998,"species_guess":"American Robin"}},{"type":"Feature","id":180,"geometry":{"type":"Point","coordinates":[-91.476119443999949,43.258200000000045]},"properties":{"OBJECTID":180,"id":227133538,"latitude":43.258200000000002,"longitude":-91.476119444399998,"species_guess":"American Robin"}},{"type":"Feature","id":181,"geometry":{"type":"Point","coordinates":[-91.476752777999991,43.257583333000071]},"properties":{"OBJECTID":181,"id":227215421,"latitude":43.257583333299998,"longitude":-91.476752777800002,"species_guess":"American Robin"}},{"type":"Feature","id":182,"geometry":{"type":"Point","coordinates":[-91.476172221999946,43.256122222000045]},"properties":{"OBJECTID":182,"id":227215444,"latitude":43.256122222199998,"longitude":-91.476172222200006,"species_guess":"American Robin"}},{"type":"Feature","id":183,"geometry":{"type":"Point","coordinates":[-91.475897221999958,43.25593611100004]},"properties":{"OBJECTID":183,"id":227215449,"latitude":43.255936111099999,"longitude":-91.475897222200004,"species_guess":"American Robin"}},{"type":"Feature","id":184,"geometry":{"type":"Point","coordinates":[-91.476202777999958,43.255166667000026]},"properties":{"OBJECTID":184,"id":227218719,"latitude":43.255166666699999,"longitude":-91.476202777799998,"species_guess":"American Robin"}},{"type":"Feature","id":185,"geometry":{"type":"Point","coordinates":[-91.476244443999974,43.255066667000051]},"properties":{"OBJECTID":185,"id":227218721,"latitude":43.255066666700003,"longitude":-91.476244444399995,"species_guess":"American Robin"}},{"type":"Feature","id":186,"geometry":{"type":"Point","coordinates":[-91.476247221999984,43.255061111000032]},"properties":{"OBJECTID":186,"id":227218724,"latitude":43.255061111099998,"longitude":-91.476247222200001,"species_guess":"American Robin"}},{"type":"Feature","id":187,"geometry":{"type":"Point","coordinates":[-91.476991666999936,43.255177778000075]},"properties":{"OBJECTID":187,"id":227225007,"latitude":43.2551777778,"longitude":-91.476991666700002,"species_guess":"American Robin"}},{"type":"Feature","id":188,"geometry":{"type":"Point","coordinates":[-91.477147221999985,43.255302778000043]},"properties":{"OBJECTID":188,"id":227229914,"latitude":43.255302777799997,"longitude":-91.477147222200003,"species_guess":"American Robin"}},{"type":"Feature","id":189,"geometry":{"type":"Point","coordinates":[-89.80105477699999,43.220518786000071]},"properties":{"OBJECTID":189,"id":227231289,"latitude":43.220518786,"longitude":-89.801054776800001,"species_guess":"American Robin"}},{"type":"Feature","id":190,"geometry":{"type":"Point","coordinates":[-89.80105477699999,43.220518786000071]},"properties":{"OBJECTID":190,"id":227231353,"latitude":43.220518786,"longitude":-89.801054776800001,"species_guess":"American Robin"}},{"type":"Feature","id":191,"geometry":{"type":"Point","coordinates":[-91.477827777999948,43.257286111000042]},"properties":{"OBJECTID":191,"id":227242924,"latitude":43.257286111100001,"longitude":-91.477827777800002,"species_guess":"American Robin"}},{"type":"Feature","id":192,"geometry":{"type":"Point","coordinates":[-91.477763888999959,43.25786944400005]},"properties":{"OBJECTID":192,"id":227242928,"latitude":43.257869444400001,"longitude":-91.4777638889,"species_guess":"American Robin"}},{"type":"Feature","id":193,"geometry":{"type":"Point","coordinates":[-91.477672221999967,43.258002778000048]},"properties":{"OBJECTID":193,"id":227242933,"latitude":43.258002777800002,"longitude":-91.477672222199999,"species_guess":"American Robin"}},{"type":"Feature","id":194,"geometry":{"type":"Point","coordinates":[-91.477530555999977,43.258133333000046]},"properties":{"OBJECTID":194,"id":227242935,"latitude":43.258133333300002,"longitude":-91.477530555599998,"species_guess":"American Robin"}},{"type":"Feature","id":195,"geometry":{"type":"Point","coordinates":[-91.476638888999958,43.258169444000032]},"properties":{"OBJECTID":195,"id":227242939,"latitude":43.258169444399996,"longitude":-91.476638888899998,"species_guess":"American Robin"}},{"type":"Feature","id":196,"geometry":{"type":"Point","coordinates":[-91.238005555999962,43.359150000000056]},"properties":{"OBJECTID":196,"id":227686499,"latitude":43.35915,"longitude":-91.238005555599997,"species_guess":"American Robin"}},{"type":"Feature","id":197,"geometry":{"type":"Point","coordinates":[-91.144536110999979,43.201702778000026]},"properties":{"OBJECTID":197,"id":227932036,"latitude":43.201702777800001,"longitude":-91.144536111099995,"species_guess":"American Robin"}},{"type":"Feature","id":198,"geometry":{"type":"Point","coordinates":[-91.163297221999983,42.997000000000071]},"properties":{"OBJECTID":198,"id":228358291,"latitude":42.997,"longitude":-91.163297222200001,"species_guess":"American Robin"}},{"type":"Feature","id":199,"geometry":{"type":"Point","coordinates":[-90.870341666999991,42.640183333000039]},"properties":{"OBJECTID":199,"id":228615210,"latitude":42.640183333300001,"longitude":-90.8703416667,"species_guess":"American Robin"}},{"type":"Feature","id":200,"geometry":{"type":"Point","coordinates":[-90.87032499999998,42.640150000000062]},"properties":{"OBJECTID":200,"id":228615213,"latitude":42.640149999999998,"longitude":-90.870324999999994,"species_guess":"American Robin"}},{"type":"Feature","id":201,"geometry":{"type":"Point","coordinates":[-90.870555555999942,42.640255556000056]},"properties":{"OBJECTID":201,"id":229106666,"latitude":42.6402555556,"longitude":-90.870555555600006,"species_guess":"American Robin"}},{"type":"Feature","id":202,"geometry":{"type":"Point","coordinates":[-90.787127777999956,42.605786111000043]},"properties":{"OBJECTID":202,"id":229111511,"latitude":42.605786111100002,"longitude":-90.787127777799995,"species_guess":"American Robin"}},{"type":"Feature","id":203,"geometry":{"type":"Point","coordinates":[-90.674711110999965,42.552797222000038]},"properties":{"OBJECTID":203,"id":229122617,"latitude":42.552797222199999,"longitude":-90.674711111099995,"species_guess":"American Robin"}},{"type":"Feature","id":204,"geometry":{"type":"Point","coordinates":[-90.674730555999986,42.552736111000058]},"properties":{"OBJECTID":204,"id":229122619,"latitude":42.552736111100003,"longitude":-90.674730555599993,"species_guess":"American Robin"}},{"type":"Feature","id":205,"geometry":{"type":"Point","coordinates":[-90.674741666999978,42.55280833300003]},"properties":{"OBJECTID":205,"id":229122645,"latitude":42.5528083333,"longitude":-90.674741666700001,"species_guess":"American Robin"}},{"type":"Feature","id":206,"geometry":{"type":"Point","coordinates":[-90.64994166699995,42.541363889000081]},"properties":{"OBJECTID":206,"id":229162346,"latitude":42.541363888900001,"longitude":-90.649941666700002,"species_guess":"American Robin"}},{"type":"Feature","id":207,"geometry":{"type":"Point","coordinates":[-90.649727777999942,42.540327778000062]},"properties":{"OBJECTID":207,"id":229173095,"latitude":42.540327777800002,"longitude":-90.649727777799995,"species_guess":"American Robin"}},{"type":"Feature","id":208,"geometry":{"type":"Point","coordinates":[-90.633933332999959,42.460700000000031]},"properties":{"OBJECTID":208,"id":229357516,"latitude":42.460700000000003,"longitude":-90.633933333300007,"species_guess":"American Robin"}},{"type":"Feature","id":209,"geometry":{"type":"Point","coordinates":[-89.589424871999938,42.92635812900005]},"properties":{"OBJECTID":209,"id":229672646,"latitude":42.926358128799997,"longitude":-89.589424872099997,"species_guess":"American Robin"}},{"type":"Feature","id":210,"geometry":{"type":"Point","coordinates":[-90.716531099999941,42.533155900000054]},"properties":{"OBJECTID":210,"id":229999466,"latitude":42.533155899699999,"longitude":-90.716531099700006,"species_guess":"American Robin"}},{"type":"Feature","id":211,"geometry":{"type":"Point","coordinates":[-90.667748003999975,42.506349955000076]},"properties":{"OBJECTID":211,"id":230792750,"latitude":42.506349954699999,"longitude":-90.667748004200007,"species_guess":"American Robin"}},{"type":"Feature","id":212,"geometry":{"type":"Point","coordinates":[-91.681213066999987,44.078421920000039]},"properties":{"OBJECTID":212,"id":231315226,"latitude":44.078421919900002,"longitude":-91.681213066799998,"species_guess":"American Robin"}},{"type":"Feature","id":213,"geometry":{"type":"Point","coordinates":[-91.114197166999986,42.993695000000059]},"properties":{"OBJECTID":213,"id":231478308,"latitude":42.993695000000002,"longitude":-91.114197166699995,"species_guess":"American Robin"}},{"type":"Feature","id":214,"geometry":{"type":"Point","coordinates":[-90.743656195999961,42.426435778000041]},"properties":{"OBJECTID":214,"id":231728221,"latitude":42.426435778399998,"longitude":-90.743656195699998,"species_guess":"American Robin"}},{"type":"Feature","id":215,"geometry":{"type":"Point","coordinates":[-91.363556332999963,43.850857395000048]},"properties":{"OBJECTID":215,"id":233930130,"latitude":43.850857394800002,"longitude":-91.363556333199995,"species_guess":"American Robin"}},{"type":"Feature","id":216,"geometry":{"type":"Point","coordinates":[-89.769293675999961,42.583935196000027]},"properties":{"OBJECTID":216,"id":234047162,"latitude":42.583935195700001,"longitude":-89.769293675599997,"species_guess":"American Robin"}},{"type":"Feature","id":217,"geometry":{"type":"Point","coordinates":[-90.727329122999947,42.670748526000068]},"properties":{"OBJECTID":217,"id":236019739,"latitude":42.670748525599997,"longitude":-90.727329122599997,"species_guess":"American Robin"}},{"type":"Feature","id":218,"geometry":{"type":"Point","coordinates":[-90.105852065999954,43.014851364000037]},"properties":{"OBJECTID":218,"id":237670711,"latitude":43.014851363799998,"longitude":-90.105852066099999,"species_guess":"American Robin"}},{"type":"Feature","id":219,"geometry":{"type":"Point","coordinates":[-91.23304666699994,43.803986667000061]},"properties":{"OBJECTID":219,"id":239229069,"latitude":43.803986666699998,"longitude":-91.233046666700005,"species_guess":"American Robin"}},{"type":"Feature","id":220,"geometry":{"type":"Point","coordinates":[-90.704124450999984,42.476898193000068]},"properties":{"OBJECTID":220,"id":240401763,"latitude":42.476898193399997,"longitude":-90.704124450699993,"species_guess":"American Robin"}},{"type":"Feature","id":221,"geometry":{"type":"Point","coordinates":[-90.063675220999983,42.304804700000034]},"properties":{"OBJECTID":221,"id":242997124,"latitude":42.304804699800002,"longitude":-90.063675220999997,"species_guess":"American Robin"}},{"type":"Feature","id":222,"geometry":{"type":"Point","coordinates":[-91.271348437999961,43.858524920000036]},"properties":{"OBJECTID":222,"id":254833881,"latitude":43.858524919799997,"longitude":-91.271348437900002,"species_guess":"American Robin"}},{"type":"Feature","id":223,"geometry":{"type":"Point","coordinates":[-91.271348437999961,43.858524920000036]},"properties":{"OBJECTID":223,"id":254833882,"latitude":43.858524919799997,"longitude":-91.271348437900002,"species_guess":"American Robin"}},{"type":"Feature","id":224,"geometry":{"type":"Point","coordinates":[-90.105345986999964,42.302732085000059]},"properties":{"OBJECTID":224,"id":255465537,"latitude":42.302732085300001,"longitude":-90.105345986800003,"species_guess":"American Robin"}},{"type":"Feature","id":225,"geometry":{"type":"Point","coordinates":[-90.096703584999943,42.301899635000041]},"properties":{"OBJECTID":225,"id":255465577,"latitude":42.3018996351,"longitude":-90.096703584500005,"species_guess":"American Robin"}},{"type":"Feature","id":226,"geometry":{"type":"Point","coordinates":[-90.155227383999943,42.120883830000025]},"properties":{"OBJECTID":226,"id":256829517,"latitude":42.120883829599997,"longitude":-90.155227384,"species_guess":"American Robin"}},{"type":"Feature","id":227,"geometry":{"type":"Point","coordinates":[-90.268877389999943,42.321191170000077]},"properties":{"OBJECTID":227,"id":256832375,"latitude":42.321191169999999,"longitude":-90.268877389799997,"species_guess":"American Robin"}},{"type":"Feature","id":228,"geometry":{"type":"Point","coordinates":[-90.31304758899995,42.234797253000067]},"properties":{"OBJECTID":228,"id":258419972,"latitude":42.234797252900002,"longitude":-90.313047588499998,"species_guess":"American Robin"}},{"type":"Feature","id":229,"geometry":{"type":"Point","coordinates":[-91.806752230999962,43.382255898000039]},"properties":{"OBJECTID":229,"id":261086853,"latitude":43.382255898499999,"longitude":-91.806752230599997,"species_guess":"American Robin"}},{"type":"Feature","id":230,"geometry":{"type":"Point","coordinates":[-91.29600973099997,43.926245190000031]},"properties":{"OBJECTID":230,"id":268652629,"latitude":43.926245190000003,"longitude":-91.296009730700007,"species_guess":"American Robin"}},{"type":"Feature","id":231,"geometry":{"type":"Point","coordinates":[-90.146672999999964,42.986527972000033]},"properties":{"OBJECTID":231,"id":269020561,"latitude":42.986527972200001,"longitude":-90.146673000000007,"species_guess":"American Robin"}},{"type":"Feature","id":232,"geometry":{"type":"Point","coordinates":[-90.146599178999963,42.98653197200008]},"properties":{"OBJECTID":232,"id":269020567,"latitude":42.9865319719,"longitude":-90.146599179299997,"species_guess":"American Robin"}},{"type":"Feature","id":233,"geometry":{"type":"Point","coordinates":[-90.146734246999983,42.986521491000076]},"properties":{"OBJECTID":233,"id":271144203,"latitude":42.986521490800001,"longitude":-90.146734246700007,"species_guess":"American Robin"}},{"type":"Feature","id":234,"geometry":{"type":"Point","coordinates":[-92.044863332999967,44.062443333000033]},"properties":{"OBJECTID":234,"id":286431482,"latitude":44.062443333300003,"longitude":-92.0448633333,"species_guess":"American Robin"}},{"type":"Feature","id":235,"geometry":{"type":"Point","coordinates":[-89.709592388999965,43.410301116000028]},"properties":{"OBJECTID":235,"id":287082364,"latitude":43.410301115599999,"longitude":-89.709592389099996,"species_guess":"American Robin"}},{"type":"Feature","id":236,"geometry":{"type":"Point","coordinates":[-90.494478031999961,42.719799133000038]},"properties":{"OBJECTID":236,"id":287527816,"latitude":42.7197991333,"longitude":-90.494478031900002,"species_guess":"American Robin"}},{"type":"Feature","id":237,"geometry":{"type":"Point","coordinates":[-91.152219103999983,44.011338556000055]},"properties":{"OBJECTID":237,"id":287653633,"latitude":44.011338555899997,"longitude":-91.152219103600004,"species_guess":"American Robin"}},{"type":"Feature","id":238,"geometry":{"type":"Point","coordinates":[-90.07026889499997,43.140757152000049]},"properties":{"OBJECTID":238,"id":287763413,"latitude":43.140757152100001,"longitude":-90.070268894500003,"species_guess":"American Robin"}},{"type":"Feature","id":239,"geometry":{"type":"Point","coordinates":[-91.868791666999982,43.978136111000026]},"properties":{"OBJECTID":239,"id":288347969,"latitude":43.9781361111,"longitude":-91.868791666700005,"species_guess":"American Robin"}},{"type":"Feature","id":240,"geometry":{"type":"Point","coordinates":[-91.230854599999986,44.556428400000073]},"properties":{"OBJECTID":240,"id":288585046,"latitude":44.556428400000001,"longitude":-91.230854600000001,"species_guess":"American Robin"}},{"type":"Feature","id":241,"geometry":{"type":"Point","coordinates":[-90.952596278999977,44.327075549000028]},"properties":{"OBJECTID":241,"id":289867369,"latitude":44.327075549,"longitude":-90.9525962795,"species_guess":"American Robin"}},{"type":"Feature","id":242,"geometry":{"type":"Point","coordinates":[-90.500666698999964,42.729084779000061]},"properties":{"OBJECTID":242,"id":289904986,"latitude":42.729084778800001,"longitude":-90.500666698900005,"species_guess":"American Robin"}},{"type":"Feature","id":243,"geometry":{"type":"Point","coordinates":[-90.500666698999964,42.729084779000061]},"properties":{"OBJECTID":243,"id":289904987,"latitude":42.729084778800001,"longitude":-90.500666698900005,"species_guess":"American Robin"}},{"type":"Feature","id":244,"geometry":{"type":"Point","coordinates":[-90.573438888999988,43.699444444000051]},"properties":{"OBJECTID":244,"id":289985201,"latitude":43.699444444400001,"longitude":-90.5734388889,"species_guess":"American Robin"}},{"type":"Feature","id":245,"geometry":{"type":"Point","coordinates":[-91.750845999999967,42.835750000000075]},"properties":{"OBJECTID":245,"id":290003598,"latitude":42.835749999999997,"longitude":-91.750845999999996,"species_guess":"American Robin"}},{"type":"Feature","id":246,"geometry":{"type":"Point","coordinates":[-91.750845999999967,42.835750000000075]},"properties":{"OBJECTID":246,"id":290003640,"latitude":42.835749999999997,"longitude":-91.750845999999996,"species_guess":"American Robin"}},{"type":"Feature","id":247,"geometry":{"type":"Point","coordinates":[-89.740942899999936,43.005349900000056]},"properties":{"OBJECTID":247,"id":291458994,"latitude":43.005349899700001,"longitude":-89.740942899700002,"species_guess":"American Robin"}},{"type":"Feature","id":248,"geometry":{"type":"Point","coordinates":[-91.271147221999968,43.858091667000053]},"properties":{"OBJECTID":248,"id":292072049,"latitude":43.858091666699998,"longitude":-91.2711472222,"species_guess":"American Robin"}},{"type":"Feature","id":249,"geometry":{"type":"Point","coordinates":[-90.494478031999961,42.719799133000038]},"properties":{"OBJECTID":249,"id":292235106,"latitude":42.7197991333,"longitude":-90.494478031900002,"species_guess":"American Robin"}},{"type":"Feature","id":250,"geometry":{"type":"Point","coordinates":[-89.567710384999941,42.996932573000038]},"properties":{"OBJECTID":250,"id":292484716,"latitude":42.996932573499997,"longitude":-89.567710384700007,"species_guess":"American Robin"}},{"type":"Feature","id":251,"geometry":{"type":"Point","coordinates":[-89.567710384999941,42.996932573000038]},"properties":{"OBJECTID":251,"id":292485594,"latitude":42.996932573499997,"longitude":-89.567710384700007,"species_guess":"American Robin"}},{"type":"Feature","id":252,"geometry":{"type":"Point","coordinates":[-89.561330121999958,43.000091037000061]},"properties":{"OBJECTID":252,"id":292488006,"latitude":43.000091037300002,"longitude":-89.561330122399994,"species_guess":"American Robin"}},{"type":"Feature","id":253,"geometry":{"type":"Point","coordinates":[-89.561315310999987,43.000092836000078]},"properties":{"OBJECTID":253,"id":292657852,"latitude":43.000092836299999,"longitude":-89.561315310699996,"species_guess":"American Robin"}},{"type":"Feature","id":254,"geometry":{"type":"Point","coordinates":[-90.527788888999964,44.131680556000049]},"properties":{"OBJECTID":254,"id":292868828,"latitude":44.131680555599999,"longitude":-90.527788888900005,"species_guess":"American Robin"}},{"type":"Feature","id":255,"geometry":{"type":"Point","coordinates":[-89.567207335999967,42.994979858000079]},"properties":{"OBJECTID":255,"id":292984022,"latitude":42.994979858400001,"longitude":-89.567207336400003,"species_guess":"American Robin"}},{"type":"Feature","id":256,"geometry":{"type":"Point","coordinates":[-90.500666698999964,42.729084779000061]},"properties":{"OBJECTID":256,"id":293009604,"latitude":42.729084778800001,"longitude":-90.500666698900005,"species_guess":"American Robin"}},{"type":"Feature","id":257,"geometry":{"type":"Point","coordinates":[-90.955411974999947,44.346391247000042]},"properties":{"OBJECTID":257,"id":293410604,"latitude":44.346391246700001,"longitude":-90.955411974800001,"species_guess":"American Robin"}},{"type":"Feature","id":258,"geometry":{"type":"Point","coordinates":[-90.494478031999961,42.719799133000038]},"properties":{"OBJECTID":258,"id":294490882,"latitude":42.7197991333,"longitude":-90.494478031900002,"species_guess":"American Robin"}},{"type":"Feature","id":259,"geometry":{"type":"Point","coordinates":[-90.006776899999977,43.535081500000047]},"properties":{"OBJECTID":259,"id":294690762,"latitude":43.535081499699999,"longitude":-90.006776900000006,"species_guess":"American Robin"}},{"type":"Feature","id":260,"geometry":{"type":"Point","coordinates":[-89.81125499999996,43.568333333000055]},"properties":{"OBJECTID":260,"id":294697122,"latitude":43.568333333299996,"longitude":-89.811255000000003,"species_guess":"American Robin"}},{"type":"Feature","id":261,"geometry":{"type":"Point","coordinates":[-90.500666698999964,42.729084779000061]},"properties":{"OBJECTID":261,"id":294872824,"latitude":42.729084778800001,"longitude":-90.500666698900005,"species_guess":"American Robin"}},{"type":"Feature","id":262,"geometry":{"type":"Point","coordinates":[-89.72052010699997,43.273564358000044]},"properties":{"OBJECTID":262,"id":295700109,"latitude":43.2735643583,"longitude":-89.720520107200002,"species_guess":"American Robin"}},{"type":"Feature","id":263,"geometry":{"type":"Point","coordinates":[-91.184474999999964,43.02509150000003]},"properties":{"OBJECTID":263,"id":295794337,"latitude":43.025091500000002,"longitude":-91.184475000000006,"species_guess":"American Robin"}},{"type":"Feature","id":264,"geometry":{"type":"Point","coordinates":[-89.565792604999956,42.992812470000047]},"properties":{"OBJECTID":264,"id":296120074,"latitude":42.992812469599997,"longitude":-89.565792605400006,"species_guess":"American Robin"}},{"type":"Feature","id":265,"geometry":{"type":"Point","coordinates":[-91.089980499999967,44.279625000000067]},"properties":{"OBJECTID":265,"id":296863836,"latitude":44.279625000000003,"longitude":-91.089980499999996,"species_guess":"American Robin"}},{"type":"Feature","id":266,"geometry":{"type":"Point","coordinates":[-91.072433199999978,43.665172900000073]},"properties":{"OBJECTID":266,"id":297744402,"latitude":43.665172900000002,"longitude":-91.072433200000006,"species_guess":"American Robin"}},{"type":"Feature","id":267,"geometry":{"type":"Point","coordinates":[-91.227166853999961,43.82279313500004]},"properties":{"OBJECTID":267,"id":298323063,"latitude":43.822793134800001,"longitude":-91.227166854199993,"species_guess":"American Robin"}},{"type":"Feature","id":268,"geometry":{"type":"Point","coordinates":[-91.68190586999998,44.075879020000059]},"properties":{"OBJECTID":268,"id":298715717,"latitude":44.075879020000002,"longitude":-91.681905869999994,"species_guess":"American Robin"}},{"type":"Feature","id":269,"geometry":{"type":"Point","coordinates":[-90.500666698999964,42.729084779000061]},"properties":{"OBJECTID":269,"id":298834203,"latitude":42.729084778800001,"longitude":-90.500666698900005,"species_guess":"American Robin"}},{"type":"Feature","id":270,"geometry":{"type":"Point","coordinates":[-89.657729999999958,42.815286667000066]},"properties":{"OBJECTID":270,"id":299416516,"latitude":42.815286666699997,"longitude":-89.657730000000001,"species_guess":"American Robin"}},{"type":"Feature","id":271,"geometry":{"type":"Point","coordinates":[-91.16594988899999,42.995508333000032]},"properties":{"OBJECTID":271,"id":300266987,"latitude":42.9955083328,"longitude":-91.165949888499995,"species_guess":"American Robin"}},{"type":"Feature","id":272,"geometry":{"type":"Point","coordinates":[-90.588913741999988,43.722193428000026]},"properties":{"OBJECTID":272,"id":300278904,"latitude":43.722193427699999,"longitude":-90.588913742299994,"species_guess":"旅鶇"}},{"type":"Feature","id":273,"geometry":{"type":"Point","coordinates":[-89.775659862999987,43.562744138000028]},"properties":{"OBJECTID":273,"id":300738532,"latitude":43.562744137899998,"longitude":-89.775659862599994,"species_guess":"American Robin"}},{"type":"Feature","id":274,"geometry":{"type":"Point","coordinates":[-91.272385089999943,43.963521100000037]},"properties":{"OBJECTID":274,"id":302851341,"latitude":43.963521100000001,"longitude":-91.27238509,"species_guess":"American Robin"}},{"type":"Feature","id":275,"geometry":{"type":"Point","coordinates":[-91.11521666699997,42.989170000000058]},"properties":{"OBJECTID":275,"id":303969761,"latitude":42.989170000000001,"longitude":-91.115216666699993,"species_guess":"American Robin"}},{"type":"Feature","id":276,"geometry":{"type":"Point","coordinates":[-89.917465745999948,42.905971499000032]},"properties":{"OBJECTID":276,"id":304124578,"latitude":42.905971498699998,"longitude":-89.917465746399998,"species_guess":"American Robin"}},{"type":"Feature","id":277,"geometry":{"type":"Point","coordinates":[-90.518710971999951,44.22874197200008]},"properties":{"OBJECTID":277,"id":305045377,"latitude":44.228741972199998,"longitude":-90.518710972199997,"species_guess":"American Robin"}},{"type":"Feature","id":278,"geometry":{"type":"Point","coordinates":[-91.288990607999949,43.926909356000067]},"properties":{"OBJECTID":278,"id":306070598,"latitude":43.926909356400003,"longitude":-91.288990608399999,"species_guess":"American Robin"}},{"type":"Feature","id":279,"geometry":{"type":"Point","coordinates":[-91.228667461999976,43.823023203000048]},"properties":{"OBJECTID":279,"id":306329581,"latitude":43.8230232031,"longitude":-91.228667462100006,"species_guess":"American Robin"}},{"type":"Feature","id":280,"geometry":{"type":"Point","coordinates":[-91.228847647999942,43.823826269000051]},"properties":{"OBJECTID":280,"id":306329592,"latitude":43.823826269400001,"longitude":-91.228847647500004,"species_guess":"American Robin"}},{"type":"Feature","id":281,"geometry":{"type":"Point","coordinates":[-91.228804089999983,43.823873860000049]},"properties":{"OBJECTID":281,"id":306329599,"latitude":43.823873859599999,"longitude":-91.228804089799993,"species_guess":"American Robin"}},{"type":"Feature","id":282,"geometry":{"type":"Point","coordinates":[-91.228368366999973,43.823081588000036]},"properties":{"OBJECTID":282,"id":306329618,"latitude":43.823081588400001,"longitude":-91.228368366500007,"species_guess":"American Robin"}},{"type":"Feature","id":283,"geometry":{"type":"Point","coordinates":[-91.228772592999974,43.823733097000058]},"properties":{"OBJECTID":283,"id":306329626,"latitude":43.823733097199998,"longitude":-91.228772593200006,"species_guess":"American Robin"}},{"type":"Feature","id":284,"geometry":{"type":"Point","coordinates":[-91.228959830999941,43.824194771000066]},"properties":{"OBJECTID":284,"id":306329630,"latitude":43.824194770699997,"longitude":-91.228959830600004,"species_guess":"American Robin"}},{"type":"Feature","id":285,"geometry":{"type":"Point","coordinates":[-91.229002745999935,43.824024475000044]},"properties":{"OBJECTID":285,"id":306329632,"latitude":43.824024475400002,"longitude":-91.229002746000006,"species_guess":"American Robin"}},{"type":"Feature","id":286,"geometry":{"type":"Point","coordinates":[-91.22862585699994,43.827680508000071]},"properties":{"OBJECTID":286,"id":307084058,"latitude":43.827680508,"longitude":-91.228625857400004,"species_guess":"American Robin"}},{"type":"Feature","id":287,"geometry":{"type":"Point","coordinates":[-89.709557364999966,43.424993335000067]},"properties":{"OBJECTID":287,"id":309893910,"latitude":43.424993334699998,"longitude":-89.709557364999995,"species_guess":"American Robin"}},{"type":"Feature","id":288,"geometry":{"type":"Point","coordinates":[-91.19570036999994,43.789781411000035]},"properties":{"OBJECTID":288,"id":311126188,"latitude":43.7897814106,"longitude":-91.195700370400004,"species_guess":"American Robin"}},{"type":"Feature","id":289,"geometry":{"type":"Point","coordinates":[-90.667748003999975,42.506349955000076]},"properties":{"OBJECTID":289,"id":311158726,"latitude":42.506349954699999,"longitude":-90.667748004200007,"species_guess":"American Robin"}},{"type":"Feature","id":290,"geometry":{"type":"Point","coordinates":[-90.500666698999964,42.729084779000061]},"properties":{"OBJECTID":290,"id":325762832,"latitude":42.729084778800001,"longitude":-90.500666698900005,"species_guess":"American Robin"}},{"type":"Feature","id":291,"geometry":{"type":"Point","coordinates":[-90.500666698999964,42.729084779000061]},"properties":{"OBJECTID":291,"id":332495052,"latitude":42.729084778800001,"longitude":-90.500666698900005,"species_guess":"American Robin"}},{"type":"Feature","id":292,"geometry":{"type":"Point","coordinates":[-90.11051531999999,43.01088547300003]},"properties":{"OBJECTID":292,"id":336188711,"latitude":43.010885473000002,"longitude":-90.110515319699999,"species_guess":"American Robin"}}]}