{"type":"FeatureCollection","features":[{"type":"Feature","id":1,"geometry":{"type":"LineString","coordinates":[[-91.554336052999986,44.071694463000028],[-91.55426792999998,44.071512802000029],[-91.554381467999974,44.071228957000073],[-91.554245221999963,44.070774804000052],[-91.554074914999944,44.070536374000028],[-91.553893253999945,44.070036806000076],[-91.553757007999991,44.069673484000077],[-91.553473162999978,44.069412346000036],[-91.538313352999978,44.061043002000076],[-91.537966861999962,44.060350020000044],[-91.537447124999971,44.059050679000052],[-91.53792354999996,44.058357697000076],[-91.538356663999991,44.057621404000031],[-91.536797454999942,44.057837961000075],[-91.535194933999946,44.058097829000076],[-91.534631886999989,44.057491470000059],[-91.533635724999954,44.056798488000027],[-91.532552940999949,44.055759015000035],[-91.530820485999982,44.055542458000048],[-91.53038737299994,44.055022722000047],[-91.529651078999962,44.054459674000043],[-91.528611606999959,44.054286429000058],[-91.527052396999977,44.053246956000066],[-91.525060074999942,44.051947615000074],[-91.522981128999959,44.050908142000026],[-91.522028278999983,44.05047502900004],[-91.521638476999954,44.050128538000081],[-91.519906021999986,44.050518340000053],[-91.519386285999985,44.050864831000069],[-91.518823237999982,44.051427879000073],[-91.517090782999958,44.05199092600003],[-91.516094621999969,44.052727220000065],[-91.515574884999978,44.052987088000066],[-91.513564502999941,44.051610019000066],[-91.512583533999987,44.051086835000035],[-91.511544432999983,44.050352924000038],[-91.510476265999955,44.049698945000046],[-91.508957578999969,44.048325587000079],[-91.507976609999957,44.047591677000071],[-91.506937508999954,44.046552576000067],[-91.505818476999991,44.045564339000066],[-91.504212592999977,44.043965722000053],[-91.502153918999966,44.042254021000076],[-91.501132075999976,44.041777161000027],[-91.499973986999976,44.041300301000035],[-91.498520698999982,44.040925625000057],[-91.496579195999971,44.040380642000059],[-91.49543246099995,44.040040027000032],[-91.494047295999962,44.039597229000037],[-91.492877852999982,44.038984123000034],[-91.489937214999941,44.037417296000058],[-91.489006201999985,44.036804190000055],[-91.487200744999939,44.035534142000074],[-91.484085466999943,44.033355517000075],[-91.480921436999949,44.031570363000071],[-91.479271708999988,44.030671631000075],[-91.477055656999937,44.029908324000075],[-91.475356682999973,44.029452802000037],[-91.472192652999979,44.028480201000036],[-91.470702972999959,44.028184728000042],[-91.470530612999937,44.028307842000061],[-91.467895972999941,44.027938500000062],[-91.466590964999966,44.027741517000038],[-91.465433692999966,44.027643026000078],[-91.463889380999944,44.027536840000039],[-91.462100380999971,44.027267528000039],[-91.460965422999948,44.027075162000074],[-91.458964819999949,44.026363410000044],[-91.456406356999935,44.025209216000064],[-91.450173709999945,44.022266021000064],[-91.44578777299995,44.020111526000051],[-91.443844878999982,44.01841870800007],[-91.442575265999949,44.017226041000072],[-91.441421071999969,44.016091083000049],[-91.440959394999936,44.015667879000034],[-91.439305049999973,44.01395582400005],[-91.437400629999956,44.012493845000051],[-91.435476972999936,44.010493242000052],[-91.433399423999958,44.008819661000075],[-91.432052863999957,44.007492338000077],[-91.42987913199994,44.005549445000042],[-91.428070894999962,44.004318305000027],[-91.426897464999968,44.003683498000044],[-91.426108453999973,44.003292057000067],[-91.42583110299995,44.003186159000052],[-91.425291527999946,44.00298949200004],[-91.424888107999948,44.002923936000059],[-91.424560329999963,44.002848295000035],[-91.422159979999947,44.002515473000074],[-91.420556385999987,44.002248208000026],[-91.416653296999982,44.001587607000033],[-91.416199448999976,44.001471624000033],[-91.413436021999985,44.00087153700008],[-91.410370029999967,43.999585635000074],[-91.409633787999951,43.999167087000046],[-91.405063961999986,43.996912227000053],[-91.402101530999971,43.995873452000069],[-91.399004443999956,43.995084753000071],[-91.394176065999943,43.993757430000073],[-91.39215622599994,43.993218806000073],[-91.38717395599997,43.990987364000034],[-91.383980685999973,43.989525385000036],[-91.380498866999972,43.98790951400008],[-91.374650950999978,43.983946781000043],[-91.37051508899998,43.981061296000064],[-91.34264408699994,43.962044953000031],[-91.339448034999975,43.96059359000003],[-91.33608163599996,43.95903542800005],[-91.332926838999981,43.95828520200007],[-91.328617847999965,43.956861696000033],[-91.325001373999953,43.955572846000052],[-91.318864908999956,43.95307209300006],[-91.306391197999972,43.947768812000049],[-91.29328628799999,43.942208242000049],[-91.264277043999982,43.930087233000052],[-91.257012257999975,43.926638294000043],[-91.256019047999985,43.926160137000068],[-91.253845315999968,43.924678921000066],[-91.252364099999966,43.922909157000049],[-91.25176776699999,43.921466414000065],[-91.250786701999971,43.919965962000049],[-91.249882582999987,43.917926886000032],[-91.249170829999969,43.916426434000073],[-91.24832442099995,43.914752853000039],[-91.247343355999988,43.912117443000056],[-91.246939388999976,43.909405087000039],[-91.246323817999951,43.905365409000069],[-91.245689011999957,43.90398037600005],[-91.244438634999938,43.902306795000072],[-91.24311131199994,43.900806342000067],[-91.242380321999974,43.898824976000071],[-91.241841698999963,43.897632309000073],[-91.240687504999983,43.895785599000078],[-91.239975751999964,43.893400264000036],[-91.239667966999946,43.892207597000038],[-91.238340642999958,43.888668069000062],[-91.236801717999981,43.885397853000029],[-91.235647523999944,43.883685799000034],[-91.235186091999935,43.88306280200004],[-91.235153817999958,43.882843342000058],[-91.235179636999987,43.882669064000027],[-91.235092497999972,43.882349556000065],[-91.235102179999956,43.882201097000063],[-91.235105407999981,43.88189127000004],[-91.235002131999977,43.881616945000076],[-91.234953721999943,43.881471714000043],[-91.23420658799995,43.879608518000055],[-91.235126258999969,43.881990272000053],[-91.23511837999996,43.882455151000045],[-91.235173534999944,43.882943667000063],[-91.235370517999968,43.883384908000039],[-91.235205051999969,43.883235201000048],[-91.235000190999983,43.883038219000071],[-91.234558949999951,43.882628495000063],[-91.233975881999982,43.881619945000068],[-91.233503123999981,43.880910808000067],[-91.23329038299994,43.880382896000071],[-91.232589125999937,43.879019777000053],[-91.232210918999954,43.878247606000059],[-91.231210248999957,43.876222626000072],[-91.23095811099995,43.875623800000028],[-91.230532628999981,43.875686834000078],[-91.230493232999947,43.875600162000069],[-91.229957439999964,43.875608041000078],[-91.229453164999939,43.875521369000069],[-91.228767665999953,43.875174680000043],[-91.228602200999944,43.874922542000036],[-91.228893734999986,43.874867387000052],[-91.229019803999961,43.874662526000066],[-91.228617959999951,43.874047940000025],[-91.227168168999981,43.872164788000077],[-91.226222652999979,43.871274428000049],[-91.225434723999967,43.870651963000057],[-91.223527933999947,43.869083983000053],[-91.222283004999952,43.868051795000042],[-91.221227178999982,43.867185072000041],[-91.220872609999958,43.866901418000054],[-91.219105279999951,43.865742891000025],[-91.216911108999966,43.864510549000045],[-91.213755109999965,43.862707121000028],[-91.210178310999936,43.860843579000061],[-91.207863910999947,43.859881750000056],[-91.204647797999939,43.859611236000035]]},"properties":{"OBJECTID":1,"Shape_Length":0.44062134199889985,"TrailName":null,"Trail":"Great River Trail"}},{"type":"Feature","id":2,"geometry":{"type":"LineString","coordinates":[[-91.201529564999987,43.859684611000034],[-91.201448880999976,43.859835894000071],[-91.201317769999946,43.859941792000029],[-91.201055546999953,43.860012390000065],[-91.200334432999966,43.860148544000026],[-91.199346053999989,43.860370425000042],[-91.198226563999981,43.860577178000028],[-91.19621450599999,43.860950342000081],[-91.195089972999938,43.861283163000053],[-91.193037573999959,43.861984106000079],[-91.191933210999991,43.862498466000034],[-91.190561582999976,43.863027955000064],[-91.190127906999976,43.863290178000057],[-91.187551060999965,43.864288642000076],[-91.186224817999971,43.864843345000054],[-91.184424555999954,43.865261893000081],[-91.183410962999972,43.865428304000034],[-91.182331814999941,43.865549330000078],[-91.181277879999982,43.865559416000053],[-91.179366676999962,43.865403090000029],[-91.177258807999976,43.865241722000064],[-91.174984526999935,43.864999670000032],[-91.172977512999978,43.864833259000079],[-91.170123315999945,43.864581122000061],[-91.165843596999991,43.864190939000025],[-91.161076621999939,43.863781216000064],[-91.158177039999941,43.863489682000079],[-91.155931439999961,43.863292699000056],[-91.153717357999938,43.863213906000055],[-91.152503945999968,43.863300579000054],[-91.150100759999987,43.863466044000063],[-91.147358764999979,43.863938802000064],[-91.14512104399995,43.864561266000067],[-91.141598997999949,43.865948023000044],[-91.139566139999943,43.867066883000064],[-91.138565468999957,43.867760261000058],[-91.135996817999967,43.869871913000054],[-91.134476112999948,43.871684151000068],[-91.132663874999992,43.873984906000032],[-91.131426824999949,43.875379542000076],[-91.128732104999983,43.877554228000065],[-91.126494384999944,43.87887795000006],[-91.122444425999959,43.880918688000065],[-91.119615757999952,43.882415754000078],[-91.115833694999935,43.884330424000041],[-91.112611062999974,43.885961438000038],[-91.10881324099995,43.887915504000034],[-91.105763952999951,43.88945196700007],[-91.103723214999945,43.890460517000065],[-91.102533440999991,43.890759930000058],[-91.101249115999963,43.890901758000041],[-91.100532099999953,43.891216930000041],[-91.100130255999943,43.891177533000075],[-91.099728410999944,43.891019947000075],[-91.098262861999956,43.891059344000041],[-91.096757915999945,43.891193292000025],[-91.095119021999949,43.891555739000069],[-91.09389773099997,43.892209721000029],[-91.092558250999957,43.892966134000062],[-91.090186581999944,43.893903770000065],[-91.088074929999948,43.894486838000034],[-91.086357243999942,43.894731096000044],[-91.084048608999979,43.894880803000035],[-91.08276428399995,43.894872924000026],[-91.079045255999972,43.894723217000035],[-91.076957241999935,43.894636545000026],[-91.073813401999985,43.89451047600005],[-91.043842031999986,43.893608789000041],[-91.043078724999987,43.893621100000075],[-91.032441672999937,43.893337938000059],[-91.023062846999949,43.893052806000071],[-91.020557229999952,43.893013409000048],[-91.018012216999978,43.892887341000062],[-91.016452115999982,43.892784910000046],[-91.015112635999969,43.892524893000029],[-91.013781033999976,43.892115169000078],[-91.012283967999963,43.891689687000053],[-91.010172315999966,43.891429671000026],[-91.008754042999954,43.891279964000034],[-91.005153203999953,43.890917516000059],[-91.000646245999974,43.890492034000033],[-90.998053956999968,43.890239897000072],[-90.994421599999953,43.889893208000046],[-90.992057810999938,43.88963319100003],[-90.989315815999987,43.889507122000055],[-90.987172646999966,43.889507122000055],[-90.986455630999956,43.889538639000079],[-90.986219251999955,43.889515001000063],[-90.984414892999951,43.889538639000079],[-90.981861999999978,43.889719863000039],[-90.980112795999958,43.890027156000031],[-90.965569591999952,43.892433627000059],[-90.96211894299995,43.893054776000042],[-90.958979534999969,43.893781148000073],[-90.952294443999961,43.89528314000006],[-90.943639527999949,43.897326832000033],[-90.919186774999957,43.903133967000031],[-90.891272112999957,43.909528622000039],[-90.885354613999937,43.910984515000052],[-90.863763149999954,43.916101721000075],[-90.858924768999941,43.917234370000074],[-90.849297251999985,43.919413488000032],[-90.839780537999957,43.921715720000066],[-90.828861801999949,43.924223307000034],[-90.824788204999948,43.925160943000037],[-90.820710175999977,43.926344808000067],[-90.819097381999939,43.926997312000026],[-90.815108487999964,43.929225676000044],[-90.813064794999946,43.930432193000058],[-90.811796720999951,43.931146254000055],[-90.810577891999969,43.931527908000078],[-90.810011566999947,43.931724890000055],[-90.809112834999951,43.931860316000041],[-90.807623154999987,43.931958807000058],[-90.805234742999971,43.931958807000058],[-90.801984532999938,43.931934184000056]]},"properties":{"OBJECTID":2,"Shape_Length":0.41545989431464814,"TrailName":null,"Trail":"La Crosse River Trail"}},{"type":"Feature","id":3,"geometry":{"type":"LineString","coordinates":[[-90.801959909999937,43.931934184000056],[-90.797183085999961,43.93194649600008],[-90.796321287999945,43.931626399000038],[-90.795718028999943,43.931404794000059],[-90.794843919999948,43.931133943000077],[-90.792664800999944,43.929804312000044],[-90.791285923999965,43.928794777000064],[-90.790731910999966,43.928240764000066],[-90.790497994999953,43.927846799000065],[-90.790239454999949,43.927354343000047],[-90.789783932999967,43.927145049000046],[-90.789217608999991,43.927108115000067],[-90.788614349999989,43.926911132000043],[-90.788158827999951,43.926591036000048],[-90.786976933999938,43.925778483000045],[-90.783505117999937,43.923340825000025],[-90.779799385999979,43.920767742000066],[-90.772695706999968,43.915744690000054],[-90.770147246999954,43.913873357000057],[-90.766416891999938,43.911324897000043],[-90.763031255999977,43.908948796000061],[-90.759165475999964,43.90611717400003],[-90.756407721999949,43.904184283000063],[-90.755545922999943,43.903605647000063],[-90.752603497999985,43.900810959000069],[-90.748676160999935,43.896982113000035],[-90.746164634999957,43.894532144000038],[-90.744527217999973,43.892907039000079],[-90.74414556499994,43.892032929000038],[-90.743702353999936,43.890974149000044],[-90.740796862999957,43.884276746000069],[-90.740329029999941,43.883476505000033],[-90.739208692999966,43.882627018000051],[-90.738470007999979,43.882171496000069],[-90.736832591999985,43.881346632000032],[-90.735269043999949,43.88046021100007],[-90.733976346999953,43.879709216000037],[-90.732806762999985,43.878675058000056],[-90.731526377999955,43.877222312000072],[-90.729938206999975,43.875350979000075],[-90.72852239499997,43.873873611000079],[-90.727672908999978,43.873221107000063],[-90.726921912999956,43.872962567000059],[-90.726072425999973,43.872605536000037],[-90.723610145999942,43.871965344000046],[-90.72257598799996,43.871620624000059],[-90.720372246999943,43.870955809000066],[-90.719301154999982,43.870697269000061],[-90.717909966999969,43.870537221000063],[-90.716998922999949,43.87067264600006],[-90.71500447599999,43.870992743000045],[-90.713317813999936,43.871263594000027],[-90.710547747999954,43.871300528000063],[-90.70915655999994,43.871337462000042],[-90.708353619999968,43.871282937000046],[-90.706210450999947,43.871081227000047],[-90.702976235999984,43.870623401000046],[-90.701264950999985,43.87048797500006],[-90.698864226999945,43.869810848000043],[-90.69716525399997,43.868764379000027],[-90.695884867999951,43.867853335000063],[-90.694666038999969,43.866991537000047],[-90.693521078999936,43.866511392000064],[-90.692622345999951,43.866203607000045],[-90.691206534999935,43.86603124800007],[-90.689618363999955,43.865982002000067],[-90.688054815999976,43.865858888000048],[-90.685580223999978,43.865538791000063],[-90.684853850999957,43.865329498000051],[-90.683179500999984,43.864873976000069],[-90.682440815999939,43.86435689700005],[-90.681800623999948,43.863975243000027],[-90.681135807999965,43.863901375000069],[-90.680470991999982,43.86392599800007],[-90.679190605999963,43.863790572000028],[-90.677627057999985,43.863556656000071],[-90.676260492999972,43.863544344000047],[-90.659396948999984,43.862063898000031],[-90.657338636999953,43.861640694000073],[-90.65572276499995,43.861005887000033],[-90.653741398999955,43.860659629000054],[-90.65189468799997,43.860563446000072],[-90.64820126799998,43.860274898000057],[-90.645219599999962,43.860121005000053],[-90.641757017999964,43.859793983000031],[-90.638717640999971,43.85921688600007],[-90.636466961999986,43.858332004000033],[-90.634158573999969,43.857139337000035],[-90.631619347999958,43.85579277800008],[-90.630195841999978,43.853772938000077],[-90.629291722999938,43.85200317400006],[-90.628522260999944,43.849521657000025],[-90.627829743999939,43.846674645000064],[-90.627925926999978,43.845578161000049],[-90.628176001999975,43.843404429000032],[-90.628329894999979,43.842481074000034],[-90.627945163999982,43.841057568000053],[-90.62721417399996,43.839711008000052],[-90.624463344999981,43.836960179000073],[-90.622751290999986,43.834901867000042],[-90.619365654999967,43.83165088700008],[-90.616537879999953,43.829111660000081],[-90.615172083999937,43.828015176000065],[-90.613102724999976,43.826730609000037],[-90.611130225999943,43.825603467000064],[-90.608296626999959,43.825078106000035],[-90.607682041999965,43.825054469000065],[-90.60474306399999,43.824794452000049],[-90.603876340999989,43.824723538000057],[-90.602347757999951,43.824644745000057],[-90.60042520899998,43.824510797000073],[-90.599511209999946,43.824558073000048],[-90.598400228999935,43.82478657200005],[-90.597565023999948,43.825259330000051],[-90.596721938999963,43.825661174000061],[-90.596123112999976,43.826338794000037],[-90.592829565999978,43.828316498000049],[-90.59048153599997,43.82998690900007],[-90.589023864999945,43.83056209700004],[-90.58793652199995,43.830987580000055],[-90.586478851999971,43.831208200000049],[-90.585005423999974,43.831397303000074],[-90.577655970999956,43.832439586000078],[-90.576338196999984,43.832626473000062],[-90.574730819999957,43.83271314600006],[-90.572367030999942,43.832689508000044],[-90.571689410999966,43.832650111000078],[-90.569396534999953,43.832516163000037],[-90.566544229999977,43.832366457000035],[-90.564810783999974,43.832169474000068],[-90.560162717999958,43.831567929000073],[-90.557728089999955,43.831327472000055],[-90.554542033999951,43.830095130000075],[-90.551716662999979,43.829644273000042],[-90.548169921999943,43.828111359000047],[-90.545134150999957,43.826548388000049],[-90.54459312299997,43.824444389000064],[-90.543871750999983,43.823422446000052],[-90.542789693999964,43.82240050300004],[-90.541166608999958,43.820506904000069],[-90.539663751999967,43.818312733000027],[-90.537800209999943,43.815938219000031],[-90.535245353999983,43.81443536300003],[-90.531999182999982,43.814255020000076],[-90.530616554999938,43.814675820000048],[-90.529083640999943,43.815878105000081],[-90.52791141299997,43.817290791000062],[-90.52664901299994,43.819484961000057],[-90.525957698999946,43.820476847000066],[-90.525025927999991,43.81999593300003],[-90.524394727999947,43.818222562000074],[-90.524003984999979,43.816869991000033],[-90.52292192799996,43.815848048000078],[-90.521058385999936,43.814765991000058],[-90.522531185999981,43.815667705000067],[-90.523282613999982,43.81626884800005],[-90.524424784999951,43.817741648000037],[-90.524665241999969,43.818943933000071],[-90.525086041999941,43.820296504000055],[-90.524605127999962,43.821047932000056],[-90.522681470999942,43.821348504000071],[-90.519435300999987,43.821919589000061],[-90.515347530999975,43.823031703000026],[-90.51198113099997,43.823602789000063],[-90.509215874999938,43.824143817000049],[-90.504226390999975,43.825255931000072],[-90.502062276999936,43.825586560000033],[-90.495599992999985,43.827029302000028],[-90.491091422999943,43.827931016000036],[-90.486071880999987,43.829073187000063],[-90.482795653999972,43.829944844000067],[-90.481142510999973,43.83054598700005],[-90.480330968999965,43.830576044000054],[-90.479339082999957,43.831087015000037],[-90.476994626999954,43.831778329000031],[-90.475401598999952,43.831477758000062],[-90.472335770999962,43.830636158000061],[-90.463919772999986,43.827991130000044],[-90.459651659999963,43.826398102000041],[-90.455774289999965,43.82555650300003],[-90.450394062999976,43.824444389000064],[-90.445104006999941,43.823392389000048],[-90.443841606999968,43.821979704000057],[-90.442248578999966,43.820777418000034],[-90.440475207999953,43.820176275000051],[-90.438581608999982,43.820386675000066],[-90.440655550999963,43.820326561000059],[-90.440685607999967,43.819695361000072],[-90.43939315099999,43.818793647000064],[-90.438100694999946,43.81753124800008],[-90.436838294999973,43.815727820000063],[-90.435936580999964,43.814345191000029],[-90.433562066999968,43.813563706000025],[-90.427159897999957,43.812812277000035],[-90.424544926999943,43.812481649000063],[-90.42229064199995,43.812421535000055],[-90.42030687099998,43.812361420000059],[-90.417752014999962,43.811790335000069],[-90.413153272999978,43.809175364000055],[-90.410959101999936,43.80773262200006],[-90.409125616999972,43.806560393000041],[-90.407111788999941,43.805598565000025],[-90.404106074999959,43.805297994000057],[-90.400950075999958,43.805778908000036],[-90.39833510599999,43.805598565000025],[-90.396231105999959,43.805267937000053],[-90.391632364999964,43.804245994000041],[-90.386282194999978,43.803103823000072],[-90.383546994999961,43.801661081000077],[-90.38105225299995,43.80024839500004],[-90.377595682999981,43.798294681000073],[-90.373417740999969,43.795799939000062],[-90.368308027999944,43.793124854000041],[-90.364701171999968,43.791802340000061],[-90.357307116999948,43.788676398000064],[-90.352377746999991,43.786782799000036],[-90.348921175999976,43.785640628000067],[-90.345584833999965,43.785219828000038],[-90.342038092999985,43.785249885000042],[-90.337168836999979,43.784979371000077],[-90.33302095199997,43.782905429000039],[-90.329233752999983,43.78011011500007],[-90.323162211999943,43.774309088000052],[-90.32072758399994,43.772956517000068],[-90.317812041999957,43.771032860000048],[-90.31038792999999,43.766404062000049],[-90.300769646999981,43.760302463000073],[-90.294758219999949,43.75669560700004],[-90.285440507999965,43.75056395200005],[-90.280931937999981,43.747918924000032],[-90.275660421999987,43.744639304000032],[-90.274929223999948,43.744286311000053],[-90.273396226999978,43.744235884000034]]},"properties":{"OBJECTID":3,"Shape_Length":0.62965735664930056,"TrailName":null,"Trail":"Elroy Sparta Trail"}},{"type":"Feature","id":4,"geometry":{"type":"LineString","coordinates":[[-90.271259676999989,43.742353362000074],[-90.271267555999941,43.74136057100003],[-90.271188762999941,43.741084795000063],[-90.270976021999957,43.740572641000028],[-90.27021960999997,43.739800470000034],[-90.269321369999943,43.738878592000049],[-90.268572836999965,43.737822766000079],[-90.268241905999957,43.737397284000053],[-90.267950371999973,43.736735423000027],[-90.267367303999947,43.734741961000054],[-90.267312148999963,43.734434668000063],[-90.26693394299997,43.732504240000026],[-90.266650287999937,43.731235673000072],[-90.26653209899996,43.730534416000069],[-90.265412837999975,43.724637870000038],[-90.265374364999957,43.723272074000079],[-90.265470547999939,43.72167543900008],[-90.265624439999954,43.712422650000065],[-90.265682149999975,43.709998843000051],[-90.265682149999975,43.706882519000033],[-90.265797569999961,43.703670013000078],[-90.265836042999979,43.700130484000056],[-90.265912988999958,43.696898741000041],[-90.265970698999979,43.695975386000043],[-90.265855278999936,43.694667300000049],[-90.265585966999936,43.693628525000065],[-90.263893149999944,43.688319233000072],[-90.263643073999958,43.687145802000032],[-90.263354525999944,43.685549167000033],[-90.263046740999982,43.683914059000074],[-90.262892847999979,43.68287528500008],[-90.262392696999939,43.681394069000078],[-90.262488879999978,43.680913155000042],[-90.262662008999939,43.68047071400008],[-90.262527352999939,43.680162929000062],[-90.261969492999981,43.679585832000043],[-90.261200029999941,43.678970262000064],[-90.260411330999943,43.678354692000028],[-90.259545685999967,43.677354390000062],[-90.258603093999966,43.676469508000025],[-90.255736844999944,43.674969056000066],[-90.250331369999969,43.672506776000034],[-90.248176874999956,43.671371818000068],[-90.245772303999956,43.670236861000035],[-90.24311765799996,43.668948011000055],[-90.238943322999944,43.666947408000055],[-90.236404096999991,43.665735504000054],[-90.232576019999954,43.663773375000062],[-90.230479233999972,43.662773073000039],[-90.22899801899996,43.662061320000078],[-90.227863060999937,43.66140727700008],[-90.227132071999961,43.660426212000061],[-90.226093296999977,43.658137061000048],[-90.225016048999976,43.656001802000048],[-90.22453513499994,43.654559059000064],[-90.223477123999942,43.652327618000072],[-90.221938198999965,43.649095875000057],[-90.221361101999946,43.647595422000052],[-90.220245380999984,43.645383217000074],[-90.218821874999946,43.643267195000078],[-90.216571196999951,43.641766743000062],[-90.211377323999955,43.639920033000067],[-90.205798719999962,43.638246451000043],[-90.199867845999961,43.636557240000059],[-90.198124531999952,43.635775755000054],[-90.19421710499995,43.634002384000041],[-90.183486707999975,43.628802500000063],[-90.175693493999972,43.624800092000044],[-90.173310339999944,43.623437807000073],[-90.172109761999991,43.622643876000041],[-90.170475582999984,43.621201284000051],[-90.169254291999948,43.620184855000048],[-90.166858984999976,43.61792349600006],[-90.163486645999967,43.614913605000027],[-90.161918665999963,43.613645038000072],[-90.157241075999991,43.609262544000046],[-90.154819480999947,43.604419354000072],[-90.15401228199994,43.600163216000055],[-90.152840452999953,43.596406920000049],[-90.151590075999991,43.59400234900005],[-90.148185203999958,43.591213047000053],[-90.145992235999984,43.589135498000076],[-90.144626439999968,43.588135196000053],[-90.143376062999948,43.587711992000038],[-90.141510115999949,43.587481153000056],[-90.138778522999985,43.586961766000059],[-90.137643565999952,43.586673217000055],[-90.135585252999988,43.585422841000025],[-90.13300755399996,43.583479947000058],[-90.129410315999962,43.580613699000025],[-90.127371239999945,43.579844236000042],[-90.125216743999943,43.579305613000031],[-90.123312323999983,43.579497978000063],[-90.120599967999965,43.579671107000081],[-90.117348988999936,43.579998129000046],[-90.114194191999957,43.580517516000043],[-90.112135878999936,43.581075377000047],[-90.108096199999977,43.581729420000045],[-90.104171940999947,43.582787431000042],[-90.100536229999989,43.583229872000061],[-90.096804335999991,43.582460409000078],[-90.094669076999935,43.581440871000041],[-90.092706947999943,43.580344387000025],[-90.091225731999941,43.579190193000045],[-90.086493536999967,43.575188987000047],[-90.082492330999969,43.571861062000039],[-90.077567769999973,43.567725200000041],[-90.069950089999963,43.561607972000047],[-90.064871635999964,43.557375927000066],[-90.062832559999947,43.556260206000047],[-90.059196848999989,43.553874872000051],[-90.055618847999938,43.551816560000077],[-90.053483588999939,43.550316107000071],[-90.050424974999942,43.54889260200008],[-90.046443005999947,43.547199784000043],[-90.039710207999974,43.544314299000064],[-90.034112366999977,43.541775072000064],[-90.024397900999986,43.537466081000048],[-90.019915780999952,43.53552318800007],[-90.009547271999963,43.530810229000053],[-90.007008044999964,43.529598326000041]]},"properties":{"OBJECTID":4,"Shape_Length":0.37658523640393715,"TrailName":null,"Trail":"400 State Trail"}}]}