{"type":"FeatureCollection","features":[{"type":"Feature","id":1,"geometry":{"type":"Point","coordinates":[-90.859184959999936,43.919271911000067]},"properties":{"OBJECTID":1,"id":1750991,"latitude":43.919271910900001,"longitude":-90.859184959900006,"common_name":"Blue Jay"}},{"type":"Feature","id":2,"geometry":{"type":"Point","coordinates":[-89.822511666999958,43.189205000000072]},"properties":{"OBJECTID":2,"id":7053584,"latitude":43.189205000000001,"longitude":-89.822511666699995,"common_name":"Blue Jay"}},{"type":"Feature","id":3,"geometry":{"type":"Point","coordinates":[-91.16799999999995,42.996241667000049]},"properties":{"OBJECTID":3,"id":7756045,"latitude":42.996241666700001,"longitude":-91.168000000000006,"common_name":"Blue Jay"}},{"type":"Feature","id":4,"geometry":{"type":"Point","coordinates":[-90.716941833999954,42.532775879000042]},"properties":{"OBJECTID":4,"id":27239521,"latitude":42.532775878899997,"longitude":-90.716941833500002,"common_name":"Blue Jay"}},{"type":"Feature","id":5,"geometry":{"type":"Point","coordinates":[-89.724011999999959,43.286933000000033]},"properties":{"OBJECTID":5,"id":29548576,"latitude":43.286932999999998,"longitude":-89.724012000000002,"common_name":"Blue Jay"}},{"type":"Feature","id":6,"geometry":{"type":"Point","coordinates":[-90.237450841999987,42.652816600000051]},"properties":{"OBJECTID":6,"id":30562824,"latitude":42.6528166003,"longitude":-90.237450842000001,"common_name":"Blue Jay"}},{"type":"Feature","id":7,"geometry":{"type":"Point","coordinates":[-91.538345336999953,44.047565460000044]},"properties":{"OBJECTID":7,"id":32036392,"latitude":44.047565460199998,"longitude":-91.538345336899994,"common_name":"Blue Jay"}},{"type":"Feature","id":8,"geometry":{"type":"Point","coordinates":[-89.732167347999962,43.428100895000057]},"properties":{"OBJECTID":8,"id":33634935,"latitude":43.4281008954,"longitude":-89.732167348299996,"common_name":"Blue Jay"}},{"type":"Feature","id":9,"geometry":{"type":"Point","coordinates":[-89.820063199999936,43.239918500000044]},"properties":{"OBJECTID":9,"id":53478741,"latitude":43.239918500000002,"longitude":-89.820063200000007,"common_name":"Blue Jay"}},{"type":"Feature","id":10,"geometry":{"type":"Point","coordinates":[-89.719839915999955,43.414549640000075]},"properties":{"OBJECTID":10,"id":54009344,"latitude":43.414549640099999,"longitude":-89.719839915600005,"common_name":"Blue Jay"}},{"type":"Feature","id":11,"geometry":{"type":"Point","coordinates":[-90.482524619999936,42.736435602000029]},"properties":{"OBJECTID":11,"id":54450872,"latitude":42.736435602199997,"longitude":-90.482524619900005,"common_name":"Blue Jay"}},{"type":"Feature","id":12,"geometry":{"type":"Point","coordinates":[-91.639855999999952,44.034358000000054]},"properties":{"OBJECTID":12,"id":55697958,"latitude":44.034357999999997,"longitude":-91.639855999999995,"common_name":"Blue Jay"}},{"type":"Feature","id":13,"geometry":{"type":"Point","coordinates":[-91.201514909999958,43.768761772000062]},"properties":{"OBJECTID":13,"id":55728517,"latitude":43.768761772300003,"longitude":-91.201514910300006,"common_name":"Blue Jay"}},{"type":"Feature","id":14,"geometry":{"type":"Point","coordinates":[-90.094836058999988,42.300452752000069]},"properties":{"OBJECTID":14,"id":56380513,"latitude":42.300452751800002,"longitude":-90.094836059399995,"common_name":"Blue Jay"}},{"type":"Feature","id":15,"geometry":{"type":"Point","coordinates":[-89.723746669999969,43.414580000000058]},"properties":{"OBJECTID":15,"id":56778777,"latitude":43.414580000000001,"longitude":-89.723746669999997,"common_name":"Blue Jay"}},{"type":"Feature","id":16,"geometry":{"type":"Point","coordinates":[-90.084161166999991,43.321371667000051]},"properties":{"OBJECTID":16,"id":58960542,"latitude":43.321371666700003,"longitude":-90.0841611667,"common_name":"Blue Jay"}},{"type":"Feature","id":17,"geometry":{"type":"Point","coordinates":[-89.608742589999963,43.084058440000035]},"properties":{"OBJECTID":17,"id":59469442,"latitude":43.08405844,"longitude":-89.608742590000006,"common_name":"Blue Jay"}},{"type":"Feature","id":18,"geometry":{"type":"Point","coordinates":[-90.710991666999973,43.137783333000073]},"properties":{"OBJECTID":18,"id":81498418,"latitude":43.1377833333,"longitude":-90.710991666699996,"common_name":"Blue Jay"}},{"type":"Feature","id":19,"geometry":{"type":"Point","coordinates":[-91.27894243999998,43.640705470000057]},"properties":{"OBJECTID":19,"id":86350229,"latitude":43.64070547,"longitude":-91.278942439999994,"common_name":"Blue Jay"}},{"type":"Feature","id":20,"geometry":{"type":"Point","coordinates":[-91.429957761999958,44.015100421000056]},"properties":{"OBJECTID":20,"id":86450988,"latitude":44.015100421,"longitude":-91.429957762399994,"common_name":"Blue Jay"}},{"type":"Feature","id":21,"geometry":{"type":"Point","coordinates":[-91.803448319999973,43.382036370000037]},"properties":{"OBJECTID":21,"id":86911084,"latitude":43.382036370000002,"longitude":-91.803448320000001,"common_name":"Blue Jay"}},{"type":"Feature","id":22,"geometry":{"type":"Point","coordinates":[-90.10536912699996,42.302254445000074]},"properties":{"OBJECTID":22,"id":87167578,"latitude":42.302254445499997,"longitude":-90.105369126900001,"common_name":"Blue Jay"}},{"type":"Feature","id":23,"geometry":{"type":"Point","coordinates":[-90.15306897499994,42.431454762000044]},"properties":{"OBJECTID":23,"id":88879686,"latitude":42.431454762100003,"longitude":-90.153068974600004,"common_name":"Blue Jay"}},{"type":"Feature","id":24,"geometry":{"type":"Point","coordinates":[-90.15325371199998,42.431637884000054]},"properties":{"OBJECTID":24,"id":88884809,"latitude":42.431637883900002,"longitude":-90.153253711800005,"common_name":"Blue Jay"}},{"type":"Feature","id":25,"geometry":{"type":"Point","coordinates":[-91.649504463999961,44.111525227000072]},"properties":{"OBJECTID":25,"id":89973304,"latitude":44.111525227500003,"longitude":-91.649504463599996,"common_name":"Blue Jay"}},{"type":"Feature","id":26,"geometry":{"type":"Point","coordinates":[-89.817108332999965,43.557080000000042]},"properties":{"OBJECTID":26,"id":93102970,"latitude":43.557079999999999,"longitude":-89.817108333299998,"common_name":"Blue Jay"}},{"type":"Feature","id":27,"geometry":{"type":"Point","coordinates":[-91.173849399999938,43.040659600000026]},"properties":{"OBJECTID":27,"id":95871657,"latitude":43.040659599999998,"longitude":-91.173849399999995,"common_name":"Blue Jay"}},{"type":"Feature","id":28,"geometry":{"type":"Point","coordinates":[-90.106278660999976,42.302920365000034]},"properties":{"OBJECTID":28,"id":96415658,"latitude":42.302920364599998,"longitude":-90.106278660599997,"common_name":"Blue Jay"}},{"type":"Feature","id":29,"geometry":{"type":"Point","coordinates":[-89.807738332999975,43.562991667000063]},"properties":{"OBJECTID":29,"id":96496029,"latitude":43.5629916667,"longitude":-89.807738333299994,"common_name":"Blue Jay"}},{"type":"Feature","id":30,"geometry":{"type":"Point","coordinates":[-89.809088332999977,43.562786667000069]},"properties":{"OBJECTID":30,"id":96496903,"latitude":43.562786666699999,"longitude":-89.809088333299997,"common_name":"Blue Jay"}},{"type":"Feature","id":31,"geometry":{"type":"Point","coordinates":[-89.836189269999977,43.415622711000026]},"properties":{"OBJECTID":31,"id":96509500,"latitude":43.415622711200001,"longitude":-89.836189270000006,"common_name":"Blue Jay"}},{"type":"Feature","id":32,"geometry":{"type":"Point","coordinates":[-89.810424999999952,43.020611167000027]},"properties":{"OBJECTID":32,"id":96565011,"latitude":43.0206111667,"longitude":-89.810424999999995,"common_name":"Blue Jay"}},{"type":"Feature","id":33,"geometry":{"type":"Point","coordinates":[-91.18784313499998,43.872482265000031]},"properties":{"OBJECTID":33,"id":96761468,"latitude":43.872482264699997,"longitude":-91.187843135500003,"common_name":"Blue Jay"}},{"type":"Feature","id":34,"geometry":{"type":"Point","coordinates":[-90.441444999999987,42.373230000000035]},"properties":{"OBJECTID":34,"id":124468371,"latitude":42.37323,"longitude":-90.441445000000002,"common_name":"Blue Jay"}},{"type":"Feature","id":35,"geometry":{"type":"Point","coordinates":[-91.524865928999986,44.040996012000051]},"properties":{"OBJECTID":35,"id":126003208,"latitude":44.040996011799997,"longitude":-91.524865929100002,"common_name":"Blue Jay"}},{"type":"Feature","id":36,"geometry":{"type":"Point","coordinates":[-91.281253459999959,44.057298650000064]},"properties":{"OBJECTID":36,"id":126495344,"latitude":44.057298649700002,"longitude":-91.281253459799998,"common_name":"Blue Jay"}},{"type":"Feature","id":37,"geometry":{"type":"Point","coordinates":[-90.570238810999967,43.429842071000053]},"properties":{"OBJECTID":37,"id":128925549,"latitude":43.429842070600003,"longitude":-90.570238811300001,"common_name":"Blue Jay"}},{"type":"Feature","id":38,"geometry":{"type":"Point","coordinates":[-90.822311666999951,44.363353333000077]},"properties":{"OBJECTID":38,"id":129679846,"latitude":44.363353333299997,"longitude":-90.822311666700003,"common_name":"Blue Jay"}},{"type":"Feature","id":39,"geometry":{"type":"Point","coordinates":[-91.076939692999986,43.898690594000072]},"properties":{"OBJECTID":39,"id":129980619,"latitude":43.898690594400001,"longitude":-91.076939692799996,"common_name":"Blue Jay"}},{"type":"Feature","id":40,"geometry":{"type":"Point","coordinates":[-91.195512340999983,43.093297041000028]},"properties":{"OBJECTID":40,"id":130330209,"latitude":43.093297041299998,"longitude":-91.195512341300002,"common_name":"Blue Jay"}},{"type":"Feature","id":41,"geometry":{"type":"Point","coordinates":[-91.278007971999955,43.636262000000045]},"properties":{"OBJECTID":41,"id":130949775,"latitude":43.636262000000002,"longitude":-91.278007972200001,"common_name":"Blue Jay"}},{"type":"Feature","id":42,"geometry":{"type":"Point","coordinates":[-89.633604999999989,42.815330000000074]},"properties":{"OBJECTID":42,"id":130994214,"latitude":42.815330000000003,"longitude":-89.633605000000003,"common_name":"Blue Jay"}},{"type":"Feature","id":43,"geometry":{"type":"Point","coordinates":[-90.707708224999976,42.503563092000036]},"properties":{"OBJECTID":43,"id":134419217,"latitude":42.5035630916,"longitude":-90.707708224699999,"common_name":"Blue Jay"}},{"type":"Feature","id":44,"geometry":{"type":"Point","coordinates":[-90.707114199999978,42.516449400000056]},"properties":{"OBJECTID":44,"id":134853425,"latitude":42.516449399999999,"longitude":-90.707114200000007,"common_name":"Blue Jay"}},{"type":"Feature","id":45,"geometry":{"type":"Point","coordinates":[-90.707631099999958,44.226004600000067]},"properties":{"OBJECTID":45,"id":135874390,"latitude":44.226004600000003,"longitude":-90.7076311,"common_name":"Blue Jay"}},{"type":"Feature","id":46,"geometry":{"type":"Point","coordinates":[-90.707631099999958,44.226004600000067]},"properties":{"OBJECTID":46,"id":135874392,"latitude":44.226004600000003,"longitude":-90.7076311,"common_name":"Blue Jay"}},{"type":"Feature","id":47,"geometry":{"type":"Point","coordinates":[-90.707631099999958,44.226004600000067]},"properties":{"OBJECTID":47,"id":135874393,"latitude":44.226004600000003,"longitude":-90.7076311,"common_name":"Blue Jay"}},{"type":"Feature","id":48,"geometry":{"type":"Point","coordinates":[-90.707523811999977,44.226064344000065]},"properties":{"OBJECTID":48,"id":135874395,"latitude":44.226064343799997,"longitude":-90.707523811599998,"common_name":"Blue Jay"}},{"type":"Feature","id":49,"geometry":{"type":"Point","coordinates":[-90.809139105999975,43.741729303000056]},"properties":{"OBJECTID":49,"id":136110954,"latitude":43.741729303500001,"longitude":-90.809139106499998,"common_name":"Blue Jay"}},{"type":"Feature","id":50,"geometry":{"type":"Point","coordinates":[-89.647004106999987,43.114025139000034]},"properties":{"OBJECTID":50,"id":137329027,"latitude":43.114025138999999,"longitude":-89.647004106799997,"common_name":"Blue Jay"}},{"type":"Feature","id":51,"geometry":{"type":"Point","coordinates":[-91.531594973999972,44.042676031000042]},"properties":{"OBJECTID":51,"id":144279284,"latitude":44.042676031399999,"longitude":-91.531594974399994,"common_name":"Blue Jay"}},{"type":"Feature","id":52,"geometry":{"type":"Point","coordinates":[-91.531594973999972,44.042676031000042]},"properties":{"OBJECTID":52,"id":144279328,"latitude":44.042676031399999,"longitude":-91.531594974399994,"common_name":"Blue Jay"}},{"type":"Feature","id":53,"geometry":{"type":"Point","coordinates":[-90.332938613999943,42.299343457000077]},"properties":{"OBJECTID":53,"id":145519654,"latitude":42.299343457200003,"longitude":-90.332938614300005,"common_name":"Blue Jay"}},{"type":"Feature","id":54,"geometry":{"type":"Point","coordinates":[-90.105612723999968,42.303797486000065]},"properties":{"OBJECTID":54,"id":148027169,"latitude":42.303797486199997,"longitude":-90.105612723899995,"common_name":"Blue Jay"}},{"type":"Feature","id":55,"geometry":{"type":"Point","coordinates":[-90.138513631999956,43.580402028000037]},"properties":{"OBJECTID":55,"id":167791231,"latitude":43.5804020279,"longitude":-90.1385136321,"common_name":"Blue Jay"}},{"type":"Feature","id":56,"geometry":{"type":"Point","coordinates":[-89.808886110999936,43.573375000000055]},"properties":{"OBJECTID":56,"id":170899933,"latitude":43.573374999999999,"longitude":-89.808886111099994,"common_name":"Blue Jay"}},{"type":"Feature","id":57,"geometry":{"type":"Point","coordinates":[-89.799278332999961,43.574558333000027]},"properties":{"OBJECTID":57,"id":172242077,"latitude":43.574558333299997,"longitude":-89.799278333299995,"common_name":"Blue Jay"}},{"type":"Feature","id":58,"geometry":{"type":"Point","coordinates":[-89.587476504999984,43.03998368300006]},"properties":{"OBJECTID":58,"id":173635462,"latitude":43.039983683300001,"longitude":-89.5874765051,"common_name":"Blue Jay"}},{"type":"Feature","id":59,"geometry":{"type":"Point","coordinates":[-90.056152999999938,43.202178300000071]},"properties":{"OBJECTID":59,"id":175765258,"latitude":43.2021783,"longitude":-90.056152999999995,"common_name":"Blue Jay"}},{"type":"Feature","id":60,"geometry":{"type":"Point","coordinates":[-90.172650865999969,42.862234950000072]},"properties":{"OBJECTID":60,"id":176528174,"latitude":42.862234949600001,"longitude":-90.172650865799994,"common_name":"Blue Jay"}},{"type":"Feature","id":61,"geometry":{"type":"Point","coordinates":[-90.429703332999964,42.411863333000042]},"properties":{"OBJECTID":61,"id":177592830,"latitude":42.411863333299998,"longitude":-90.429703333299997,"common_name":"Blue Jay"}},{"type":"Feature","id":62,"geometry":{"type":"Point","coordinates":[-91.80467166699998,43.315011667000078]},"properties":{"OBJECTID":62,"id":180710297,"latitude":43.315011666700002,"longitude":-91.804671666700003,"common_name":"Blue Jay"}},{"type":"Feature","id":63,"geometry":{"type":"Point","coordinates":[-91.19161510899994,43.824779601000046]},"properties":{"OBJECTID":63,"id":180785677,"latitude":43.824779600900001,"longitude":-91.191615108500002,"common_name":"Blue Jay"}},{"type":"Feature","id":64,"geometry":{"type":"Point","coordinates":[-90.600094980999984,42.440666116000045]},"properties":{"OBJECTID":64,"id":184349039,"latitude":42.440666116499997,"longitude":-90.600094981500007,"common_name":"Blue Jay"}},{"type":"Feature","id":65,"geometry":{"type":"Point","coordinates":[-89.725183930999947,43.411485889000062]},"properties":{"OBJECTID":65,"id":186900727,"latitude":43.411485888599998,"longitude":-89.725183931000004,"common_name":"Blue Jay"}},{"type":"Feature","id":66,"geometry":{"type":"Point","coordinates":[-91.79145555599996,43.295744444000036]},"properties":{"OBJECTID":66,"id":223012718,"latitude":43.2957444444,"longitude":-91.791455555599995,"common_name":"Blue Jay"}},{"type":"Feature","id":67,"geometry":{"type":"Point","coordinates":[-91.209686666999971,43.802486667000039]},"properties":{"OBJECTID":67,"id":225412488,"latitude":43.802486666699998,"longitude":-91.209686666699994,"common_name":"Blue Jay"}},{"type":"Feature","id":68,"geometry":{"type":"Point","coordinates":[-91.094214647999991,42.628399672000057]},"properties":{"OBJECTID":68,"id":226257058,"latitude":42.628399672299999,"longitude":-91.094214648499999,"common_name":"Blue Jay"}},{"type":"Feature","id":69,"geometry":{"type":"Point","coordinates":[-91.475822221999977,43.255902778000063]},"properties":{"OBJECTID":69,"id":227215450,"latitude":43.255902777800003,"longitude":-91.475822222199994,"common_name":"Blue Jay"}},{"type":"Feature","id":70,"geometry":{"type":"Point","coordinates":[-90.101670808999984,42.303177907000077]},"properties":{"OBJECTID":70,"id":229157882,"latitude":42.303177906599998,"longitude":-90.1016708091,"common_name":"Blue Jay"}},{"type":"Feature","id":71,"geometry":{"type":"Point","coordinates":[-89.736816666999971,43.421416667000074]},"properties":{"OBJECTID":71,"id":233244518,"latitude":43.421416666699997,"longitude":-89.736816666699994,"common_name":"Blue Jay"}},{"type":"Feature","id":72,"geometry":{"type":"Point","coordinates":[-90.407024127999989,42.765062851000039]},"properties":{"OBJECTID":72,"id":237318046,"latitude":42.765062851000003,"longitude":-90.4070241278,"common_name":"Blue Jay"}},{"type":"Feature","id":73,"geometry":{"type":"Point","coordinates":[-90.104748363999988,43.011113113000079]},"properties":{"OBJECTID":73,"id":237709621,"latitude":43.011113112899999,"longitude":-90.104748364399995,"common_name":"Blue Jay"}},{"type":"Feature","id":74,"geometry":{"type":"Point","coordinates":[-90.352257831999964,42.769080093000071]},"properties":{"OBJECTID":74,"id":237786224,"latitude":42.769080092800003,"longitude":-90.352257832199996,"common_name":"Blue Jay"}},{"type":"Feature","id":75,"geometry":{"type":"Point","coordinates":[-90.334973619999971,42.844105206000052]},"properties":{"OBJECTID":75,"id":238807562,"latitude":42.844105205600002,"longitude":-90.33497362,"common_name":"Blue Jay"}},{"type":"Feature","id":76,"geometry":{"type":"Point","coordinates":[-91.134123902999988,42.980610119000062]},"properties":{"OBJECTID":76,"id":238807570,"latitude":42.9806101195,"longitude":-91.134123903299994,"common_name":"Blue Jay"}},{"type":"Feature","id":77,"geometry":{"type":"Point","coordinates":[-90.111099085999967,43.006787493000047]},"properties":{"OBJECTID":77,"id":239490222,"latitude":43.006787492599997,"longitude":-90.111099085999996,"common_name":"Blue Jay"}},{"type":"Feature","id":78,"geometry":{"type":"Point","coordinates":[-91.076951925999936,43.898817823000059]},"properties":{"OBJECTID":78,"id":240414714,"latitude":43.898817823100003,"longitude":-91.076951926000007,"common_name":"Blue Jay"}},{"type":"Feature","id":79,"geometry":{"type":"Point","coordinates":[-90.494478031999961,42.719799133000038]},"properties":{"OBJECTID":79,"id":287527822,"latitude":42.7197991333,"longitude":-90.494478031900002,"common_name":"Blue Jay"}},{"type":"Feature","id":80,"geometry":{"type":"Point","coordinates":[-90.636046975999989,42.461307687000044]},"properties":{"OBJECTID":80,"id":291660879,"latitude":42.461307687000001,"longitude":-90.636046975900001,"common_name":"Blue Jay"}},{"type":"Feature","id":81,"geometry":{"type":"Point","coordinates":[-90.494478031999961,42.719799133000038]},"properties":{"OBJECTID":81,"id":292535370,"latitude":42.7197991333,"longitude":-90.494478031900002,"common_name":"Blue Jay"}},{"type":"Feature","id":82,"geometry":{"type":"Point","coordinates":[-90.494478031999961,42.719799133000038]},"properties":{"OBJECTID":82,"id":292535373,"latitude":42.7197991333,"longitude":-90.494478031900002,"common_name":"Blue Jay"}},{"type":"Feature","id":83,"geometry":{"type":"Point","coordinates":[-90.494478031999961,42.719799133000038]},"properties":{"OBJECTID":83,"id":292535374,"latitude":42.7197991333,"longitude":-90.494478031900002,"common_name":"Blue Jay"}},{"type":"Feature","id":84,"geometry":{"type":"Point","coordinates":[-90.494478031999961,42.719799133000038]},"properties":{"OBJECTID":84,"id":292535377,"latitude":42.7197991333,"longitude":-90.494478031900002,"common_name":"Blue Jay"}},{"type":"Feature","id":85,"geometry":{"type":"Point","coordinates":[-90.527847221999991,44.131691667000041]},"properties":{"OBJECTID":85,"id":292868648,"latitude":44.1316916667,"longitude":-90.527847222199995,"common_name":"Blue Jay"}},{"type":"Feature","id":86,"geometry":{"type":"Point","coordinates":[-89.809853332999978,43.56312500000007]},"properties":{"OBJECTID":86,"id":294705012,"latitude":43.563124999999999,"longitude":-89.809853333299998,"common_name":"Blue Jay"}},{"type":"Feature","id":87,"geometry":{"type":"Point","coordinates":[-89.809804999999983,43.563111667000044]},"properties":{"OBJECTID":87,"id":294727804,"latitude":43.563111666700003,"longitude":-89.809804999999997,"common_name":"Blue Jay"}},{"type":"Feature","id":88,"geometry":{"type":"Point","coordinates":[-91.225932699999987,43.873960900000043]},"properties":{"OBJECTID":88,"id":295409523,"latitude":43.8739609,"longitude":-91.225932700000001,"common_name":"Blue Jay"}},{"type":"Feature","id":89,"geometry":{"type":"Point","coordinates":[-90.494478031999961,42.719799133000038]},"properties":{"OBJECTID":89,"id":299080723,"latitude":42.7197991333,"longitude":-90.494478031900002,"common_name":"Blue Jay"}},{"type":"Feature","id":90,"geometry":{"type":"Point","coordinates":[-90.494478031999961,42.719799133000038]},"properties":{"OBJECTID":90,"id":299228715,"latitude":42.7197991333,"longitude":-90.494478031900002,"common_name":"Blue Jay"}},{"type":"Feature","id":91,"geometry":{"type":"Point","coordinates":[-90.494478031999961,42.719799133000038]},"properties":{"OBJECTID":91,"id":300796262,"latitude":42.7197991333,"longitude":-90.494478031900002,"common_name":"Blue Jay"}},{"type":"Feature","id":92,"geometry":{"type":"Point","coordinates":[-90.494478031999961,42.719799133000038]},"properties":{"OBJECTID":92,"id":300796273,"latitude":42.7197991333,"longitude":-90.494478031900002,"common_name":"Blue Jay"}},{"type":"Feature","id":93,"geometry":{"type":"Point","coordinates":[-90.494478031999961,42.719799133000038]},"properties":{"OBJECTID":93,"id":300796275,"latitude":42.7197991333,"longitude":-90.494478031900002,"common_name":"Blue Jay"}},{"type":"Feature","id":94,"geometry":{"type":"Point","coordinates":[-91.20966333299998,43.802295000000072]},"properties":{"OBJECTID":94,"id":301574149,"latitude":43.802295000000001,"longitude":-91.2096633333,"common_name":"Blue Jay"}},{"type":"Feature","id":95,"geometry":{"type":"Point","coordinates":[-90.494478031999961,42.719799133000038]},"properties":{"OBJECTID":95,"id":302270811,"latitude":42.7197991333,"longitude":-90.494478031900002,"common_name":"Blue Jay"}},{"type":"Feature","id":96,"geometry":{"type":"Point","coordinates":[-90.090994180999985,43.047456965000038]},"properties":{"OBJECTID":96,"id":303555187,"latitude":43.047456965499997,"longitude":-90.090994180600006,"common_name":"Blue Jay"}},{"type":"Feature","id":97,"geometry":{"type":"Point","coordinates":[-91.180236666999974,43.092126667000059]},"properties":{"OBJECTID":97,"id":303696524,"latitude":43.092126666699997,"longitude":-91.180236666699997,"common_name":"Blue Jay"}},{"type":"Feature","id":98,"geometry":{"type":"Point","coordinates":[-91.591871666999964,44.016105550000077]},"properties":{"OBJECTID":98,"id":305891311,"latitude":44.016105549999999,"longitude":-91.591871666700001,"common_name":"Blue Jay"}},{"type":"Feature","id":99,"geometry":{"type":"Point","coordinates":[-90.494478031999961,42.719799133000038]},"properties":{"OBJECTID":99,"id":306652198,"latitude":42.7197991333,"longitude":-90.494478031900002,"common_name":"Blue Jay"}},{"type":"Feature","id":100,"geometry":{"type":"Point","coordinates":[-89.810046176999947,43.570472271000028]},"properties":{"OBJECTID":100,"id":323144590,"latitude":43.5704722706,"longitude":-89.810046176900002,"common_name":"Blue Jay"}}]}