{"type":"FeatureCollection","features":[{"type":"Feature","id":1,"geometry":{"type":"Point","coordinates":[-89.735103999999978,43.420011000000045]},"properties":{"OBJECTID":1,"id":717788,"latitude":43.420011000000002,"longitude":-89.735104000000007,"species_guess":"Great Blue Heron"}},{"type":"Feature","id":2,"geometry":{"type":"Point","coordinates":[-91.256373524999958,43.818577736000066]},"properties":{"OBJECTID":2,"id":4259777,"latitude":43.818577736400002,"longitude":-91.256373524699995,"species_guess":"Great Blue Heron"}},{"type":"Feature","id":3,"geometry":{"type":"Point","coordinates":[-91.229090308999957,43.833453814000052]},"properties":{"OBJECTID":3,"id":5898155,"latitude":43.8334538139,"longitude":-91.229090309100002,"species_guess":"Great Blue Heron"}},{"type":"Feature","id":4,"geometry":{"type":"Point","coordinates":[-91.689826996999955,44.082328919000076]},"properties":{"OBJECTID":4,"id":12778152,"latitude":44.0823289187,"longitude":-91.689826997400004,"species_guess":"Great Blue Heron"}},{"type":"Feature","id":5,"geometry":{"type":"Point","coordinates":[-91.356555287999981,43.914324572000055]},"properties":{"OBJECTID":5,"id":16120931,"latitude":43.914324571999998,"longitude":-91.356555288300001,"species_guess":"Great Blue Heron"}},{"type":"Feature","id":6,"geometry":{"type":"Point","coordinates":[-91.435864735999985,44.004067608000071]},"properties":{"OBJECTID":6,"id":18957524,"latitude":44.004067608299998,"longitude":-91.435864736300005,"species_guess":"Great Blue Heron"}},{"type":"Feature","id":7,"geometry":{"type":"Point","coordinates":[-89.884864165999943,43.313636277000057]},"properties":{"OBJECTID":7,"id":25728485,"latitude":43.313636277199997,"longitude":-89.884864166400007,"species_guess":"Great Blue Heron"}},{"type":"Feature","id":8,"geometry":{"type":"Point","coordinates":[-89.737956182999937,43.413659015000064]},"properties":{"OBJECTID":8,"id":26017050,"latitude":43.413659015,"longitude":-89.737956182900007,"species_guess":"Great Blue Heron"}},{"type":"Feature","id":9,"geometry":{"type":"Point","coordinates":[-91.225414499999943,43.821355200000028]},"properties":{"OBJECTID":9,"id":28891343,"latitude":43.821355199999999,"longitude":-91.225414499999999,"species_guess":"Great Blue Heron"}},{"type":"Feature","id":10,"geometry":{"type":"Point","coordinates":[-91.225104999999985,43.449055000000044]},"properties":{"OBJECTID":10,"id":32945989,"latitude":43.449055000000001,"longitude":-91.225104999999999,"species_guess":"Great Blue Heron"}},{"type":"Feature","id":11,"geometry":{"type":"Point","coordinates":[-91.09575330499996,43.907975025000042]},"properties":{"OBJECTID":11,"id":35472775,"latitude":43.907975025399999,"longitude":-91.095753304499993,"species_guess":"Great Blue Heron"}},{"type":"Feature","id":12,"geometry":{"type":"Point","coordinates":[-91.231823999999961,43.725592000000063]},"properties":{"OBJECTID":12,"id":35613060,"latitude":43.725591999999999,"longitude":-91.231824000000003,"species_guess":"Great Blue Heron"}},{"type":"Feature","id":13,"geometry":{"type":"Point","coordinates":[-91.200111173999971,43.72784247900006]},"properties":{"OBJECTID":13,"id":37724248,"latitude":43.727842479300001,"longitude":-91.200111174,"species_guess":"Amerikaanse Blauwe Reiger"}},{"type":"Feature","id":14,"geometry":{"type":"Point","coordinates":[-91.20905703699998,43.727686356000049]},"properties":{"OBJECTID":14,"id":37724250,"latitude":43.7276863564,"longitude":-91.209057037199997,"species_guess":"Amerikaanse Blauwe Reiger"}},{"type":"Feature","id":15,"geometry":{"type":"Point","coordinates":[-89.948502272999974,43.337368538000078]},"properties":{"OBJECTID":15,"id":41227892,"latitude":43.337368537700002,"longitude":-89.948502273399995,"species_guess":"Great Blue Heron"}},{"type":"Feature","id":16,"geometry":{"type":"Point","coordinates":[-91.911567662999971,44.256357820000062]},"properties":{"OBJECTID":16,"id":41427801,"latitude":44.256357819900003,"longitude":-91.911567662799996,"species_guess":"Great Blue Heron"}},{"type":"Feature","id":17,"geometry":{"type":"Point","coordinates":[-90.648857863999979,42.463991703000033]},"properties":{"OBJECTID":17,"id":42337021,"latitude":42.463991702599998,"longitude":-90.648857864299998,"species_guess":"Great Blue Heron"}},{"type":"Feature","id":18,"geometry":{"type":"Point","coordinates":[-90.648857863999979,42.463991703000033]},"properties":{"OBJECTID":18,"id":42337031,"latitude":42.463991702599998,"longitude":-90.648857864299998,"species_guess":"Great Blue Heron"}},{"type":"Feature","id":19,"geometry":{"type":"Point","coordinates":[-90.648857863999979,42.463991703000033]},"properties":{"OBJECTID":19,"id":42337032,"latitude":42.463991702599998,"longitude":-90.648857864299998,"species_guess":"Great Blue Heron"}},{"type":"Feature","id":20,"geometry":{"type":"Point","coordinates":[-90.792370999999946,42.510713000000067]},"properties":{"OBJECTID":20,"id":42804810,"latitude":42.510713000000003,"longitude":-90.792371000000003,"species_guess":"Great Blue Heron"}},{"type":"Feature","id":21,"geometry":{"type":"Point","coordinates":[-89.94935200599997,43.337181526000052]},"properties":{"OBJECTID":21,"id":43604211,"latitude":43.3371815263,"longitude":-89.949352006400005,"species_guess":"Great Blue Heron"}},{"type":"Feature","id":22,"geometry":{"type":"Point","coordinates":[-91.227590999999961,43.742369000000053]},"properties":{"OBJECTID":22,"id":45708385,"latitude":43.742368999999997,"longitude":-91.227591000000004,"species_guess":"Great Blue Heron"}},{"type":"Feature","id":23,"geometry":{"type":"Point","coordinates":[-91.22501944399994,43.825825000000066]},"properties":{"OBJECTID":23,"id":45822453,"latitude":43.825825000000002,"longitude":-91.225019444400004,"species_guess":"Great Blue Heron"}},{"type":"Feature","id":24,"geometry":{"type":"Point","coordinates":[-90.949140800999942,42.559873057000061]},"properties":{"OBJECTID":24,"id":46402034,"latitude":42.559873057499999,"longitude":-90.949140801200002,"species_guess":"Great Blue Heron"}},{"type":"Feature","id":25,"geometry":{"type":"Point","coordinates":[-91.22700970599999,43.828770980000058]},"properties":{"OBJECTID":25,"id":47458926,"latitude":43.828770980000002,"longitude":-91.227009706199993,"species_guess":"Great Blue Heron"}},{"type":"Feature","id":26,"geometry":{"type":"Point","coordinates":[-91.227590999999961,43.742369000000053]},"properties":{"OBJECTID":26,"id":49959270,"latitude":43.742368999999997,"longitude":-91.227591000000004,"species_guess":"Great Blue Heron"}},{"type":"Feature","id":27,"geometry":{"type":"Point","coordinates":[-91.227590999999961,43.742369000000053]},"properties":{"OBJECTID":27,"id":49960617,"latitude":43.742368999999997,"longitude":-91.227591000000004,"species_guess":"Great Blue Heron"}},{"type":"Feature","id":28,"geometry":{"type":"Point","coordinates":[-91.524650305999955,44.041157626000029]},"properties":{"OBJECTID":28,"id":53528113,"latitude":44.041157625799997,"longitude":-91.5246503061,"species_guess":"Great Blue Heron"}},{"type":"Feature","id":29,"geometry":{"type":"Point","coordinates":[-89.958148821999941,43.195688052000037]},"properties":{"OBJECTID":29,"id":55655916,"latitude":43.195688052100003,"longitude":-89.958148822200002,"species_guess":"Great Blue Heron"}},{"type":"Feature","id":30,"geometry":{"type":"Point","coordinates":[-90.031398944999978,43.177813711000056]},"properties":{"OBJECTID":30,"id":55657203,"latitude":43.177813710599999,"longitude":-90.031398944599999,"species_guess":"Great Blue Heron"}},{"type":"Feature","id":31,"geometry":{"type":"Point","coordinates":[-91.788297290999935,43.308808167000052]},"properties":{"OBJECTID":31,"id":55666732,"latitude":43.3088081673,"longitude":-91.788297291399999,"species_guess":"Great Blue Heron"}},{"type":"Feature","id":32,"geometry":{"type":"Point","coordinates":[-90.115805499999965,43.013386120000064]},"properties":{"OBJECTID":32,"id":56311705,"latitude":43.01338612,"longitude":-90.115805499999993,"species_guess":"Great Blue Heron"}},{"type":"Feature","id":33,"geometry":{"type":"Point","coordinates":[-89.948535278999941,43.337372501000061]},"properties":{"OBJECTID":33,"id":56334449,"latitude":43.337372500999997,"longitude":-89.948535279300003,"species_guess":"Great Blue Heron"}},{"type":"Feature","id":34,"geometry":{"type":"Point","coordinates":[-92.316529601999946,44.514186814000027]},"properties":{"OBJECTID":34,"id":57130540,"latitude":44.514186813599999,"longitude":-92.316529602200006,"species_guess":"Great Blue Heron"}},{"type":"Feature","id":35,"geometry":{"type":"Point","coordinates":[-91.225604999999973,43.745655000000056]},"properties":{"OBJECTID":35,"id":58349217,"latitude":43.745654999999999,"longitude":-91.225605000000002,"species_guess":"Great Blue Heron"}},{"type":"Feature","id":36,"geometry":{"type":"Point","coordinates":[-91.225414499999943,43.821355200000028]},"properties":{"OBJECTID":36,"id":58516196,"latitude":43.821355199999999,"longitude":-91.225414499999999,"species_guess":"Great Blue Heron"}},{"type":"Feature","id":37,"geometry":{"type":"Point","coordinates":[-90.088942385999985,43.589703133000057]},"properties":{"OBJECTID":37,"id":59460127,"latitude":43.5897031334,"longitude":-90.088942386300005,"species_guess":"Great Blue Heron"}},{"type":"Feature","id":38,"geometry":{"type":"Point","coordinates":[-91.228588185999968,43.827757104000057]},"properties":{"OBJECTID":38,"id":59801896,"latitude":43.827757104299998,"longitude":-91.228588186300001,"species_guess":"Great Blue Heron"}},{"type":"Feature","id":39,"geometry":{"type":"Point","coordinates":[-91.518984823999972,44.050611666000066]},"properties":{"OBJECTID":39,"id":61027714,"latitude":44.0506116659,"longitude":-91.518984823799997,"species_guess":"Great Blue Heron"}},{"type":"Feature","id":40,"geometry":{"type":"Point","coordinates":[-91.25295779999999,43.420770876000063]},"properties":{"OBJECTID":40,"id":62510434,"latitude":43.420770876200002,"longitude":-91.252957800199994,"species_guess":"Great Blue Heron"}},{"type":"Feature","id":41,"geometry":{"type":"Point","coordinates":[-89.902222414999983,43.261732800000061]},"properties":{"OBJECTID":41,"id":67175364,"latitude":43.261732800300003,"longitude":-89.902222414799994,"species_guess":"Great Blue Heron"}},{"type":"Feature","id":42,"geometry":{"type":"Point","coordinates":[-90.700752499999965,42.617231548000063]},"properties":{"OBJECTID":42,"id":71038265,"latitude":42.617231547800003,"longitude":-90.700752500299998,"species_guess":"Garza morena"}},{"type":"Feature","id":43,"geometry":{"type":"Point","coordinates":[-90.635230883999952,42.541956267000046]},"properties":{"OBJECTID":43,"id":72373202,"latitude":42.541956266600003,"longitude":-90.6352308835,"species_guess":"Great Blue Heron"}},{"type":"Feature","id":44,"geometry":{"type":"Point","coordinates":[-89.87154379399999,43.397315155000058]},"properties":{"OBJECTID":44,"id":72438268,"latitude":43.397315155199998,"longitude":-89.871543794199994,"species_guess":"Great Blue Heron"}},{"type":"Feature","id":45,"geometry":{"type":"Point","coordinates":[-90.633719510999981,42.459078230000046]},"properties":{"OBJECTID":45,"id":72574863,"latitude":42.459078230300001,"longitude":-90.633719510800006,"species_guess":"Great Blue Heron"}},{"type":"Feature","id":46,"geometry":{"type":"Point","coordinates":[-92.315202580999937,44.514723719000074]},"properties":{"OBJECTID":46,"id":73002891,"latitude":44.514723718799999,"longitude":-92.315202580999994,"species_guess":"Great Blue Heron"}},{"type":"Feature","id":47,"geometry":{"type":"Point","coordinates":[-92.318178068999941,44.511575691000075]},"properties":{"OBJECTID":47,"id":74664770,"latitude":44.511575690800001,"longitude":-92.318178069300004,"species_guess":"Great Blue Heron"}},{"type":"Feature","id":48,"geometry":{"type":"Point","coordinates":[-91.882144453999956,44.201608153000052]},"properties":{"OBJECTID":48,"id":75169479,"latitude":44.2016081533,"longitude":-91.882144454100001,"species_guess":"Great Blue Heron"}},{"type":"Feature","id":49,"geometry":{"type":"Point","coordinates":[-91.217010499999958,43.822396500000025]},"properties":{"OBJECTID":49,"id":76383493,"latitude":43.822396500000004,"longitude":-91.217010500000001,"species_guess":"Great Blue Heron"}},{"type":"Feature","id":50,"geometry":{"type":"Point","coordinates":[-91.22694514899996,43.830390497000053]},"properties":{"OBJECTID":50,"id":77952244,"latitude":43.830390497499998,"longitude":-91.226945149299993,"species_guess":"Great Blue Heron"}},{"type":"Feature","id":51,"geometry":{"type":"Point","coordinates":[-91.274767519999955,43.881061784000053]},"properties":{"OBJECTID":51,"id":78410294,"latitude":43.881061783900002,"longitude":-91.274767520300003,"species_guess":"Great Blue Heron"}},{"type":"Feature","id":52,"geometry":{"type":"Point","coordinates":[-91.365691310999978,43.977956210000059]},"properties":{"OBJECTID":52,"id":79100500,"latitude":43.977956210400002,"longitude":-91.365691310900004,"species_guess":"Great Blue Heron"}},{"type":"Feature","id":53,"geometry":{"type":"Point","coordinates":[-91.225604999999973,43.745655000000056]},"properties":{"OBJECTID":53,"id":80380349,"latitude":43.745654999999999,"longitude":-91.225605000000002,"species_guess":"Great Blue Heron"}},{"type":"Feature","id":54,"geometry":{"type":"Point","coordinates":[-91.297920318999957,43.772168995000072]},"properties":{"OBJECTID":54,"id":80530631,"latitude":43.772168995400001,"longitude":-91.297920318999999,"species_guess":"Great Blue Heron"}},{"type":"Feature","id":55,"geometry":{"type":"Point","coordinates":[-91.265978367999935,43.815261553000028]},"properties":{"OBJECTID":55,"id":80536355,"latitude":43.815261553299997,"longitude":-91.265978368000006,"species_guess":"Great Blue Heron"}},{"type":"Feature","id":56,"geometry":{"type":"Point","coordinates":[-92.071268421999946,44.400567029000058]},"properties":{"OBJECTID":56,"id":80820786,"latitude":44.400567028899999,"longitude":-92.071268421499994,"species_guess":"Great Blue Heron"}},{"type":"Feature","id":57,"geometry":{"type":"Point","coordinates":[-90.319282531999988,42.327606201000037]},"properties":{"OBJECTID":57,"id":81057701,"latitude":42.327606201199998,"longitude":-90.319282531699997,"species_guess":"Great Blue Heron"}},{"type":"Feature","id":58,"geometry":{"type":"Point","coordinates":[-89.735268223999981,43.425666234000062]},"properties":{"OBJECTID":58,"id":81664776,"latitude":43.425666234200001,"longitude":-89.735268223999995,"species_guess":"Great Blue Heron"}},{"type":"Feature","id":59,"geometry":{"type":"Point","coordinates":[-91.228723055999978,43.826051389000042]},"properties":{"OBJECTID":59,"id":81810590,"latitude":43.826051388899998,"longitude":-91.2287230556,"species_guess":"Great Blue Heron"}},{"type":"Feature","id":60,"geometry":{"type":"Point","coordinates":[-91.252146666999977,43.827913333000026]},"properties":{"OBJECTID":60,"id":82756176,"latitude":43.827913333300003,"longitude":-91.2521466667,"species_guess":"Great Blue Heron"}},{"type":"Feature","id":61,"geometry":{"type":"Point","coordinates":[-91.643579096999986,44.039142793000053]},"properties":{"OBJECTID":61,"id":84346602,"latitude":44.039142793000003,"longitude":-91.643579097400007,"species_guess":"Great Blue Heron"}},{"type":"Feature","id":62,"geometry":{"type":"Point","coordinates":[-90.625988356999983,42.457078202000048]},"properties":{"OBJECTID":62,"id":85246721,"latitude":42.457078202300004,"longitude":-90.625988356799994,"species_guess":"Great Blue Heron"}},{"type":"Feature","id":63,"geometry":{"type":"Point","coordinates":[-91.225604999999973,43.745655000000056]},"properties":{"OBJECTID":63,"id":85400001,"latitude":43.745654999999999,"longitude":-91.225605000000002,"species_guess":"Great Blue Heron"}},{"type":"Feature","id":64,"geometry":{"type":"Point","coordinates":[-91.113641429999973,43.198324912000032]},"properties":{"OBJECTID":64,"id":86246054,"latitude":43.198324911999997,"longitude":-91.113641430000001,"species_guess":"Great Blue Heron"}},{"type":"Feature","id":65,"geometry":{"type":"Point","coordinates":[-91.24644782699994,43.820305624000071]},"properties":{"OBJECTID":65,"id":86497251,"latitude":43.820305624200003,"longitude":-91.246447827200001,"species_guess":"Great Blue Heron"}},{"type":"Feature","id":66,"geometry":{"type":"Point","coordinates":[-89.740180968999937,43.413036346000069]},"properties":{"OBJECTID":66,"id":86742365,"latitude":43.413036346399998,"longitude":-89.740180969199997,"species_guess":"Great Blue Heron"}},{"type":"Feature","id":67,"geometry":{"type":"Point","coordinates":[-91.228822083999944,43.827835651000044]},"properties":{"OBJECTID":67,"id":91403056,"latitude":43.827835651000001,"longitude":-91.228822084100003,"species_guess":"Great Blue Heron"}},{"type":"Feature","id":68,"geometry":{"type":"Point","coordinates":[-90.345359801999962,42.403575897000053]},"properties":{"OBJECTID":68,"id":92001859,"latitude":42.4035758972,"longitude":-90.345359802199994,"species_guess":"Great Blue Heron"}},{"type":"Feature","id":69,"geometry":{"type":"Point","coordinates":[-91.531205599999964,44.045512600000052]},"properties":{"OBJECTID":69,"id":93005300,"latitude":44.045512600000002,"longitude":-91.531205600000007,"species_guess":"Great Blue Heron"}},{"type":"Feature","id":70,"geometry":{"type":"Point","coordinates":[-90.115398221999953,43.013847111000075]},"properties":{"OBJECTID":70,"id":95005489,"latitude":43.013847111099999,"longitude":-90.1153982222,"species_guess":"Great Blue Heron"}},{"type":"Feature","id":71,"geometry":{"type":"Point","coordinates":[-90.296478845999957,43.207471545000033]},"properties":{"OBJECTID":71,"id":95933949,"latitude":43.207471545200001,"longitude":-90.296478846400007,"species_guess":"Great Blue Heron"}},{"type":"Feature","id":72,"geometry":{"type":"Point","coordinates":[-89.811149999999941,43.56666666700005]},"properties":{"OBJECTID":72,"id":96496104,"latitude":43.566666666700002,"longitude":-89.811149999999998,"species_guess":"Great Blue Heron"}},{"type":"Feature","id":73,"geometry":{"type":"Point","coordinates":[-90.706216061999953,42.553202626000029]},"properties":{"OBJECTID":73,"id":96609967,"latitude":42.553202625600001,"longitude":-90.706216062300001,"species_guess":"Great Blue Heron"}},{"type":"Feature","id":74,"geometry":{"type":"Point","coordinates":[-92.313259426999991,44.512620942000069]},"properties":{"OBJECTID":74,"id":96899031,"latitude":44.512620941900003,"longitude":-92.313259427299997,"species_guess":"Great Blue Heron"}},{"type":"Feature","id":75,"geometry":{"type":"Point","coordinates":[-91.514056015999984,44.047663216000046]},"properties":{"OBJECTID":75,"id":98752872,"latitude":44.047663216099998,"longitude":-91.514056016200001,"species_guess":"Great Blue Heron"}},{"type":"Feature","id":76,"geometry":{"type":"Point","coordinates":[-91.467499999999973,44.018611000000078]},"properties":{"OBJECTID":76,"id":99602752,"latitude":44.018611,"longitude":-91.467500000000001,"species_guess":"Great Blue Heron"}},{"type":"Feature","id":77,"geometry":{"type":"Point","coordinates":[-91.229932316999964,43.831609832000026]},"properties":{"OBJECTID":77,"id":101493108,"latitude":43.831609831800002,"longitude":-91.229932317000006,"species_guess":"Great Blue Heron"}},{"type":"Feature","id":78,"geometry":{"type":"Point","coordinates":[-89.94881664199994,43.337249907000057]},"properties":{"OBJECTID":78,"id":102447942,"latitude":43.337249907,"longitude":-89.948816642500006,"species_guess":"Great Blue Heron"}},{"type":"Feature","id":79,"geometry":{"type":"Point","coordinates":[-89.949197101999971,43.337176575000058]},"properties":{"OBJECTID":79,"id":103850543,"latitude":43.337176575299999,"longitude":-89.949197102200003,"species_guess":"Great Blue Heron"}},{"type":"Feature","id":80,"geometry":{"type":"Point","coordinates":[-92.127867983999977,44.386123356000041]},"properties":{"OBJECTID":80,"id":110281840,"latitude":44.386123355599999,"longitude":-92.127867984000005,"species_guess":"Great Blue Heron"}},{"type":"Feature","id":81,"geometry":{"type":"Point","coordinates":[-91.308273998999937,43.621046232000026]},"properties":{"OBJECTID":81,"id":110614202,"latitude":43.621046232099999,"longitude":-91.308273998999994,"species_guess":"Great Blue Heron"}},{"type":"Feature","id":82,"geometry":{"type":"Point","coordinates":[-91.225414499999943,43.821355200000028]},"properties":{"OBJECTID":82,"id":112298610,"latitude":43.821355199999999,"longitude":-91.225414499999999,"species_guess":"Great Blue Heron"}},{"type":"Feature","id":83,"geometry":{"type":"Point","coordinates":[-91.228555161999964,43.827847377000069]},"properties":{"OBJECTID":83,"id":113140118,"latitude":43.827847377399998,"longitude":-91.228555161599999,"species_guess":"Great Blue Heron"}},{"type":"Feature","id":84,"geometry":{"type":"Point","coordinates":[-91.101721445999942,43.736911213000042]},"properties":{"OBJECTID":84,"id":114371301,"latitude":43.736911213200003,"longitude":-91.101721445899997,"species_guess":"Great Blue Heron"}},{"type":"Feature","id":85,"geometry":{"type":"Point","coordinates":[-91.117750826999952,43.774083042000029]},"properties":{"OBJECTID":85,"id":114476636,"latitude":43.774083041899999,"longitude":-91.117750827400002,"species_guess":"Great Blue Heron"}},{"type":"Feature","id":86,"geometry":{"type":"Point","coordinates":[-91.225414499999943,43.821355200000028]},"properties":{"OBJECTID":86,"id":115428522,"latitude":43.821355199999999,"longitude":-91.225414499999999,"species_guess":"Great Blue Heron"}},{"type":"Feature","id":87,"geometry":{"type":"Point","coordinates":[-91.224610017999964,43.824236194000036]},"properties":{"OBJECTID":87,"id":116428977,"latitude":43.824236194100003,"longitude":-91.224610018299998,"species_guess":"Great Blue Heron"}},{"type":"Feature","id":88,"geometry":{"type":"Point","coordinates":[-90.647871800999951,42.466296979000049]},"properties":{"OBJECTID":88,"id":117528338,"latitude":42.466296979200003,"longitude":-90.647871800999994,"species_guess":"Great Blue Heron"}},{"type":"Feature","id":89,"geometry":{"type":"Point","coordinates":[-89.738586666999936,43.414283333000071]},"properties":{"OBJECTID":89,"id":119111114,"latitude":43.414283333299998,"longitude":-89.738586666700002,"species_guess":"Great Blue Heron"}},{"type":"Feature","id":90,"geometry":{"type":"Point","coordinates":[-90.632507835999945,42.460617053000078]},"properties":{"OBJECTID":90,"id":121084769,"latitude":42.460617053500002,"longitude":-90.632507835499993,"species_guess":"Grand Héron"}},{"type":"Feature","id":91,"geometry":{"type":"Point","coordinates":[-91.520170797999981,44.050968504000025]},"properties":{"OBJECTID":91,"id":122072923,"latitude":44.0509685038,"longitude":-91.520170797600002,"species_guess":"Great Blue Heron"}},{"type":"Feature","id":92,"geometry":{"type":"Point","coordinates":[-89.818287379999958,43.565820380000048]},"properties":{"OBJECTID":92,"id":123028718,"latitude":43.565820379800002,"longitude":-89.818287380000001,"species_guess":"Great Blue Heron"}},{"type":"Feature","id":93,"geometry":{"type":"Point","coordinates":[-90.820264040999973,44.206865277000077]},"properties":{"OBJECTID":93,"id":124655559,"latitude":44.206865276899997,"longitude":-90.820264041200005,"species_guess":"Great Blue Heron"}},{"type":"Feature","id":94,"geometry":{"type":"Point","coordinates":[-89.818287199999986,43.565794700000026]},"properties":{"OBJECTID":94,"id":126233883,"latitude":43.565794699999998,"longitude":-89.8182872,"species_guess":"Great Blue Heron"}},{"type":"Feature","id":95,"geometry":{"type":"Point","coordinates":[-91.925717107999958,44.323285125000041]},"properties":{"OBJECTID":95,"id":126650895,"latitude":44.323285124999998,"longitude":-91.925717108000001,"species_guess":"Great Blue Heron"}},{"type":"Feature","id":96,"geometry":{"type":"Point","coordinates":[-89.770756911999968,42.583092966000038]},"properties":{"OBJECTID":96,"id":126724098,"latitude":42.583092965799999,"longitude":-89.7707569122,"species_guess":"Great Blue Heron"}},{"type":"Feature","id":97,"geometry":{"type":"Point","coordinates":[-91.228777777999937,43.828308333000052]},"properties":{"OBJECTID":97,"id":127915931,"latitude":43.828308333300001,"longitude":-91.228777777800005,"species_guess":"Great Blue Heron"}},{"type":"Feature","id":98,"geometry":{"type":"Point","coordinates":[-90.634245899999939,42.542362300000036]},"properties":{"OBJECTID":98,"id":128687594,"latitude":42.542362300000001,"longitude":-90.634245899999996,"species_guess":"Great Blue Heron"}},{"type":"Feature","id":99,"geometry":{"type":"Point","coordinates":[-90.634245899999939,42.542362300000036]},"properties":{"OBJECTID":99,"id":128687601,"latitude":42.542362300000001,"longitude":-90.634245899999996,"species_guess":"Great Blue Heron"}},{"type":"Feature","id":100,"geometry":{"type":"Point","coordinates":[-90.634245899999939,42.542362300000036]},"properties":{"OBJECTID":100,"id":128687602,"latitude":42.542362300000001,"longitude":-90.634245899999996,"species_guess":"Great Blue Heron"}},{"type":"Feature","id":101,"geometry":{"type":"Point","coordinates":[-91.634528332999992,44.059844500000054]},"properties":{"OBJECTID":101,"id":128782636,"latitude":44.059844499999997,"longitude":-91.634528333299997,"species_guess":"Great Blue Heron"}},{"type":"Feature","id":102,"geometry":{"type":"Point","coordinates":[-91.640565593999952,44.036886964000075]},"properties":{"OBJECTID":102,"id":129077334,"latitude":44.036886964499999,"longitude":-91.6405655935,"species_guess":"Great Blue Heron"}},{"type":"Feature","id":103,"geometry":{"type":"Point","coordinates":[-91.634710009999935,44.03965852400006]},"properties":{"OBJECTID":103,"id":129077458,"latitude":44.039658523900002,"longitude":-91.634710010099994,"species_guess":"Great Blue Heron"}},{"type":"Feature","id":104,"geometry":{"type":"Point","coordinates":[-91.254729999999938,43.821708333000061]},"properties":{"OBJECTID":104,"id":129309542,"latitude":43.821708333300002,"longitude":-91.254729999999995,"species_guess":"Great Blue Heron"}},{"type":"Feature","id":105,"geometry":{"type":"Point","coordinates":[-91.254804999999976,43.821708333000061]},"properties":{"OBJECTID":105,"id":129344605,"latitude":43.821708333300002,"longitude":-91.254805000000005,"species_guess":"Great Blue Heron"}},{"type":"Feature","id":106,"geometry":{"type":"Point","coordinates":[-91.228697221999937,43.82635833300003]},"properties":{"OBJECTID":106,"id":129588035,"latitude":43.8263583333,"longitude":-91.228697222199997,"species_guess":"Great Blue Heron"}},{"type":"Feature","id":107,"geometry":{"type":"Point","coordinates":[-91.228541666999945,43.828455556000051]},"properties":{"OBJECTID":107,"id":129720862,"latitude":43.828455555600002,"longitude":-91.228541666699996,"species_guess":"Great Blue Heron"}},{"type":"Feature","id":108,"geometry":{"type":"Point","coordinates":[-91.228744443999972,43.824613889000034]},"properties":{"OBJECTID":108,"id":129720913,"latitude":43.824613888899997,"longitude":-91.228744444399993,"species_guess":"Great Blue Heron"}},{"type":"Feature","id":109,"geometry":{"type":"Point","coordinates":[-91.637937501999943,44.035954311000069]},"properties":{"OBJECTID":109,"id":130328881,"latitude":44.035954311300003,"longitude":-91.637937502200003,"species_guess":"Great Blue Heron"}},{"type":"Feature","id":110,"geometry":{"type":"Point","coordinates":[-89.833844443999965,43.564233333000061]},"properties":{"OBJECTID":110,"id":130668957,"latitude":43.564233333300002,"longitude":-89.8338444444,"species_guess":"Great Blue Heron"}},{"type":"Feature","id":111,"geometry":{"type":"Point","coordinates":[-90.231268107999938,42.960032180000042]},"properties":{"OBJECTID":111,"id":130793946,"latitude":42.960032179700001,"longitude":-90.231268107899993,"species_guess":"Great Blue Heron"}},{"type":"Feature","id":112,"geometry":{"type":"Point","coordinates":[-91.227976641999987,43.825488681000081]},"properties":{"OBJECTID":112,"id":130814976,"latitude":43.825488681099998,"longitude":-91.227976642499996,"species_guess":"Great Blue Heron"}},{"type":"Feature","id":113,"geometry":{"type":"Point","coordinates":[-91.22516944399996,43.825733333000073]},"properties":{"OBJECTID":113,"id":130996880,"latitude":43.825733333300001,"longitude":-91.225169444399995,"species_guess":"Great Blue Heron"}},{"type":"Feature","id":114,"geometry":{"type":"Point","coordinates":[-91.225855555999942,43.826355556000067]},"properties":{"OBJECTID":114,"id":131449000,"latitude":43.826355555600003,"longitude":-91.225855555600006,"species_guess":"Great Blue Heron"}},{"type":"Feature","id":115,"geometry":{"type":"Point","coordinates":[-92.268633301999955,44.446996696000042]},"properties":{"OBJECTID":115,"id":131655698,"latitude":44.446996696399999,"longitude":-92.268633302400005,"species_guess":"Great Blue Heron"}},{"type":"Feature","id":116,"geometry":{"type":"Point","coordinates":[-91.631753229999958,44.03819982400006]},"properties":{"OBJECTID":116,"id":131663510,"latitude":44.038199824499998,"longitude":-91.631753230399994,"species_guess":"Great Blue Heron"}},{"type":"Feature","id":117,"geometry":{"type":"Point","coordinates":[-90.262886666999975,43.736225000000047]},"properties":{"OBJECTID":117,"id":132660266,"latitude":43.736224999999997,"longitude":-90.262886666699998,"species_guess":"Great Blue Heron"}},{"type":"Feature","id":118,"geometry":{"type":"Point","coordinates":[-90.116279073999976,43.01235790000004]},"properties":{"OBJECTID":118,"id":133869314,"latitude":43.012357899800001,"longitude":-90.116279074399998,"species_guess":"Great Blue Heron"}},{"type":"Feature","id":119,"geometry":{"type":"Point","coordinates":[-92.314411438999969,44.512745671000062]},"properties":{"OBJECTID":119,"id":133993116,"latitude":44.512745670900003,"longitude":-92.314411438999997,"species_guess":"Great Blue Heron"}},{"type":"Feature","id":120,"geometry":{"type":"Point","coordinates":[-91.343196630999955,43.895519184000079]},"properties":{"OBJECTID":120,"id":134374845,"latitude":43.895519184400001,"longitude":-91.343196630500003,"species_guess":"Great Blue Heron"}},{"type":"Feature","id":121,"geometry":{"type":"Point","coordinates":[-92.314892770999961,44.514257708000059]},"properties":{"OBJECTID":121,"id":134900882,"latitude":44.514257707699997,"longitude":-92.314892770900002,"species_guess":"Great Blue Heron"}},{"type":"Feature","id":122,"geometry":{"type":"Point","coordinates":[-92.011243658999945,44.119060604000026]},"properties":{"OBJECTID":122,"id":138285807,"latitude":44.1190606041,"longitude":-92.011243659200005,"species_guess":"Great Blue Heron"}},{"type":"Feature","id":123,"geometry":{"type":"Point","coordinates":[-92.026177999999959,44.394153000000074]},"properties":{"OBJECTID":123,"id":139268140,"latitude":44.394153000000003,"longitude":-92.026178000000002,"species_guess":"Great Blue Heron"}},{"type":"Feature","id":124,"geometry":{"type":"Point","coordinates":[-91.541768540999954,44.045845238000027]},"properties":{"OBJECTID":124,"id":140072882,"latitude":44.045845237800002,"longitude":-91.541768540700005,"species_guess":"Great Blue Heron"}},{"type":"Feature","id":125,"geometry":{"type":"Point","coordinates":[-91.272075170999983,43.650469475000079]},"properties":{"OBJECTID":125,"id":142643059,"latitude":43.650469474700003,"longitude":-91.272075171300003,"species_guess":"Great Blue Heron"}},{"type":"Feature","id":126,"geometry":{"type":"Point","coordinates":[-89.925323299999945,43.406637500000045]},"properties":{"OBJECTID":126,"id":145006942,"latitude":43.406637500000002,"longitude":-89.925323300000002,"species_guess":"Great Blue Heron"}},{"type":"Feature","id":127,"geometry":{"type":"Point","coordinates":[-91.219723999999985,43.745795000000044]},"properties":{"OBJECTID":127,"id":148709368,"latitude":43.745795000000001,"longitude":-91.219723999999999,"species_guess":"Great Blue Heron"}},{"type":"Feature","id":128,"geometry":{"type":"Point","coordinates":[-91.274742925999988,43.63729095900004]},"properties":{"OBJECTID":128,"id":148955021,"latitude":43.637290959200001,"longitude":-91.274742925599995,"species_guess":"Great Blue Heron"}},{"type":"Feature","id":129,"geometry":{"type":"Point","coordinates":[-89.818287199999986,43.565794700000026]},"properties":{"OBJECTID":129,"id":153975064,"latitude":43.565794699999998,"longitude":-89.8182872,"species_guess":"Great Blue Heron"}},{"type":"Feature","id":130,"geometry":{"type":"Point","coordinates":[-90.503957431999936,42.730721555000059]},"properties":{"OBJECTID":130,"id":154506503,"latitude":42.730721554799999,"longitude":-90.5039574324,"species_guess":"Great Blue Heron"}},{"type":"Feature","id":131,"geometry":{"type":"Point","coordinates":[-91.136452204999955,43.376272445000041]},"properties":{"OBJECTID":131,"id":154913820,"latitude":43.376272444999998,"longitude":-91.136452204899996,"species_guess":"Great Blue Heron"}},{"type":"Feature","id":132,"geometry":{"type":"Point","coordinates":[-91.136452204999955,43.376272445000041]},"properties":{"OBJECTID":132,"id":154913822,"latitude":43.376272444999998,"longitude":-91.136452204899996,"species_guess":"Great Blue Heron"}},{"type":"Feature","id":133,"geometry":{"type":"Point","coordinates":[-91.281005493999942,43.868987141000048]},"properties":{"OBJECTID":133,"id":155643229,"latitude":43.8689871415,"longitude":-91.2810054941,"species_guess":"Great Blue Heron"}},{"type":"Feature","id":134,"geometry":{"type":"Point","coordinates":[-91.257150949999982,43.812098330000026]},"properties":{"OBJECTID":134,"id":155794357,"latitude":43.812098329999998,"longitude":-91.257150949999996,"species_guess":"Kanadareiher"}},{"type":"Feature","id":135,"geometry":{"type":"Point","coordinates":[-91.306331050999972,43.755512277000037]},"properties":{"OBJECTID":135,"id":155947625,"latitude":43.755512276799998,"longitude":-91.306331051100003,"species_guess":"Great Blue Heron"}},{"type":"Feature","id":136,"geometry":{"type":"Point","coordinates":[-91.219436110999936,43.821366667000063]},"properties":{"OBJECTID":136,"id":155976115,"latitude":43.821366666700001,"longitude":-91.219436111099995,"species_guess":"Great Blue Heron"}},{"type":"Feature","id":137,"geometry":{"type":"Point","coordinates":[-91.227431650999961,43.822848327000031]},"properties":{"OBJECTID":137,"id":156784594,"latitude":43.822848326600003,"longitude":-91.227431651299995,"species_guess":"Great Blue Heron"}},{"type":"Feature","id":138,"geometry":{"type":"Point","coordinates":[-91.227454999999964,43.822845000000029]},"properties":{"OBJECTID":138,"id":156811555,"latitude":43.822845000000001,"longitude":-91.227455000000006,"species_guess":"Great Blue Heron"}},{"type":"Feature","id":139,"geometry":{"type":"Point","coordinates":[-91.227438332999952,43.822861667000041]},"properties":{"OBJECTID":139,"id":156811628,"latitude":43.8228616667,"longitude":-91.2274383333,"species_guess":"Great Blue Heron"}},{"type":"Feature","id":140,"geometry":{"type":"Point","coordinates":[-90.687337742999944,42.46737141300008]},"properties":{"OBJECTID":140,"id":158306019,"latitude":42.467371412600002,"longitude":-90.687337743300006,"species_guess":"Great Blue Heron"}},{"type":"Feature","id":141,"geometry":{"type":"Point","coordinates":[-91.16426099399996,43.657292286000029]},"properties":{"OBJECTID":141,"id":159168423,"latitude":43.657292286000001,"longitude":-91.164260994100005,"species_guess":"Great Blue Heron"}},{"type":"Feature","id":142,"geometry":{"type":"Point","coordinates":[-91.228788341999973,43.823837209000033]},"properties":{"OBJECTID":142,"id":160235943,"latitude":43.823837208699999,"longitude":-91.228788341699996,"species_guess":"Great Blue Heron"}},{"type":"Feature","id":143,"geometry":{"type":"Point","coordinates":[-92.039240591999942,44.382187058000056]},"properties":{"OBJECTID":143,"id":163426815,"latitude":44.382187058299998,"longitude":-92.039240592200002,"species_guess":"Great Blue Heron"}},{"type":"Feature","id":144,"geometry":{"type":"Point","coordinates":[-92.039752304999979,44.383333635000042]},"properties":{"OBJECTID":144,"id":163426818,"latitude":44.383333635299998,"longitude":-92.039752304999993,"species_guess":"Great Blue Heron"}},{"type":"Feature","id":145,"geometry":{"type":"Point","coordinates":[-91.228230366999981,43.832404721000046]},"properties":{"OBJECTID":145,"id":164039727,"latitude":43.832404720699998,"longitude":-91.228230367099997,"species_guess":"Great Blue Heron"}},{"type":"Feature","id":146,"geometry":{"type":"Point","coordinates":[-92.314556517999961,44.513567546000047]},"properties":{"OBJECTID":146,"id":166280380,"latitude":44.513567546099999,"longitude":-92.314556518299995,"species_guess":"Great Blue Heron"}},{"type":"Feature","id":147,"geometry":{"type":"Point","coordinates":[-91.243599999999958,43.822588333000056]},"properties":{"OBJECTID":147,"id":167360470,"latitude":43.822588333299997,"longitude":-91.243600000000001,"species_guess":"Great Blue Heron"}},{"type":"Feature","id":148,"geometry":{"type":"Point","coordinates":[-91.23059606299995,43.82683968300006]},"properties":{"OBJECTID":148,"id":167417895,"latitude":43.826839682900001,"longitude":-91.230596062499998,"species_guess":"Great Blue Heron"}},{"type":"Feature","id":149,"geometry":{"type":"Point","coordinates":[-90.325386999999978,42.409783000000061]},"properties":{"OBJECTID":149,"id":167455389,"latitude":42.409782999999997,"longitude":-90.325387000000006,"species_guess":"Great Blue Heron"}},{"type":"Feature","id":150,"geometry":{"type":"Point","coordinates":[-91.668063054999948,44.068196112000066]},"properties":{"OBJECTID":150,"id":168348344,"latitude":44.068196111699997,"longitude":-91.668063055000005,"species_guess":"Great Blue Heron"}},{"type":"Feature","id":151,"geometry":{"type":"Point","coordinates":[-92.31801900499994,44.514800652000076]},"properties":{"OBJECTID":151,"id":172185983,"latitude":44.514800651999998,"longitude":-92.318019005400004,"species_guess":"Great Blue Heron"}},{"type":"Feature","id":152,"geometry":{"type":"Point","coordinates":[-90.121276855999952,43.02170181300005]},"properties":{"OBJECTID":152,"id":172908185,"latitude":43.021701812700002,"longitude":-90.1212768555,"species_guess":"Great Blue Heron"}},{"type":"Feature","id":153,"geometry":{"type":"Point","coordinates":[-92.317623898999955,44.514928858000076]},"properties":{"OBJECTID":153,"id":173755508,"latitude":44.514928857999998,"longitude":-92.317623898700006,"species_guess":"Great Blue Heron"}},{"type":"Feature","id":154,"geometry":{"type":"Point","coordinates":[-90.110736299999985,43.163760600000046]},"properties":{"OBJECTID":154,"id":175865170,"latitude":43.163760600099998,"longitude":-90.110736299999999,"species_guess":"Great Blue Heron"}},{"type":"Feature","id":155,"geometry":{"type":"Point","coordinates":[-90.658435999999938,42.509913700000027]},"properties":{"OBJECTID":155,"id":177152341,"latitude":42.5099136997,"longitude":-90.658435999700004,"species_guess":"Great Blue Heron"}},{"type":"Feature","id":156,"geometry":{"type":"Point","coordinates":[-90.399728999999979,42.332301000000029]},"properties":{"OBJECTID":156,"id":177448845,"latitude":42.332301000000001,"longitude":-90.399728999999994,"species_guess":"Great Blue Heron"}},{"type":"Feature","id":157,"geometry":{"type":"Point","coordinates":[-90.648628547999976,42.471005062000074]},"properties":{"OBJECTID":157,"id":177741750,"latitude":42.471005062400003,"longitude":-90.648628547800001,"species_guess":"Great Blue Heron"}},{"type":"Feature","id":158,"geometry":{"type":"Point","coordinates":[-90.601489394999987,43.697280559000035]},"properties":{"OBJECTID":158,"id":177781335,"latitude":43.697280559399999,"longitude":-90.6014893949,"species_guess":"Great Blue Heron"}},{"type":"Feature","id":159,"geometry":{"type":"Point","coordinates":[-90.572707099999946,43.205455800000038]},"properties":{"OBJECTID":159,"id":178046618,"latitude":43.205455800000003,"longitude":-90.572707100000002,"species_guess":"Great Blue Heron"}},{"type":"Feature","id":160,"geometry":{"type":"Point","coordinates":[-91.273186666999948,43.123425000000054]},"properties":{"OBJECTID":160,"id":178228008,"latitude":43.123424999999997,"longitude":-91.273186666699999,"species_guess":"Great Blue Heron"}},{"type":"Feature","id":161,"geometry":{"type":"Point","coordinates":[-92.264786043999948,44.435913862000064]},"properties":{"OBJECTID":161,"id":178538672,"latitude":44.435913861700001,"longitude":-92.264786043900003,"species_guess":"Great Blue Heron"}},{"type":"Feature","id":162,"geometry":{"type":"Point","coordinates":[-91.148242399999958,43.030967700000076]},"properties":{"OBJECTID":162,"id":181315110,"latitude":43.030967699999998,"longitude":-91.148242400100003,"species_guess":"Great Blue Heron"}},{"type":"Feature","id":163,"geometry":{"type":"Point","coordinates":[-90.06275646499995,43.13509788600004]},"properties":{"OBJECTID":163,"id":182385589,"latitude":43.135097886499999,"longitude":-90.0627564654,"species_guess":"Great Blue Heron"}},{"type":"Feature","id":164,"geometry":{"type":"Point","coordinates":[-91.809171666999987,43.304778333000058]},"properties":{"OBJECTID":164,"id":182400832,"latitude":43.3047783333,"longitude":-91.809171666699996,"species_guess":"Great Blue Heron"}},{"type":"Feature","id":165,"geometry":{"type":"Point","coordinates":[-91.240206433999958,43.883475584000053]},"properties":{"OBJECTID":165,"id":183095879,"latitude":43.883475583699997,"longitude":-91.240206434000001,"species_guess":"Great Blue Heron"}},{"type":"Feature","id":166,"geometry":{"type":"Point","coordinates":[-91.638055357999974,44.035059831000069]},"properties":{"OBJECTID":166,"id":183572475,"latitude":44.035059831200002,"longitude":-91.638055358299994,"species_guess":"Great Blue Heron"}},{"type":"Feature","id":167,"geometry":{"type":"Point","coordinates":[-92.283821666999984,44.461503333000053]},"properties":{"OBJECTID":167,"id":184564703,"latitude":44.461503333300001,"longitude":-92.283821666700007,"species_guess":"Great Blue Heron"}},{"type":"Feature","id":168,"geometry":{"type":"Point","coordinates":[-90.107723189999945,43.014676597000062]},"properties":{"OBJECTID":168,"id":184781767,"latitude":43.014676597099999,"longitude":-90.107723189699996,"species_guess":"Great Blue Heron"}},{"type":"Feature","id":169,"geometry":{"type":"Point","coordinates":[-91.219723999999985,43.745795000000044]},"properties":{"OBJECTID":169,"id":185155221,"latitude":43.745795000000001,"longitude":-91.219723999999999,"species_guess":"Great Blue Heron"}},{"type":"Feature","id":170,"geometry":{"type":"Point","coordinates":[-91.059730239999965,42.758297545000062]},"properties":{"OBJECTID":170,"id":185507899,"latitude":42.758297544599998,"longitude":-91.059730239999993,"species_guess":"Great Blue Heron"}},{"type":"Feature","id":171,"geometry":{"type":"Point","coordinates":[-91.061301094999976,42.759875695000062]},"properties":{"OBJECTID":171,"id":185510148,"latitude":42.7598756955,"longitude":-91.061301094800001,"species_guess":"Great Blue Heron"}},{"type":"Feature","id":172,"geometry":{"type":"Point","coordinates":[-91.225414499999943,43.821355200000028]},"properties":{"OBJECTID":172,"id":185922851,"latitude":43.821355199999999,"longitude":-91.225414499999999,"species_guess":"Great Blue Heron"}},{"type":"Feature","id":173,"geometry":{"type":"Point","coordinates":[-91.225414499999943,43.821355200000028]},"properties":{"OBJECTID":173,"id":185922866,"latitude":43.821355199999999,"longitude":-91.225414499999999,"species_guess":"Great Blue Heron"}},{"type":"Feature","id":174,"geometry":{"type":"Point","coordinates":[-91.225414499999943,43.821355200000028]},"properties":{"OBJECTID":174,"id":185923550,"latitude":43.821355199999999,"longitude":-91.225414499999999,"species_guess":"Great Blue Heron"}},{"type":"Feature","id":175,"geometry":{"type":"Point","coordinates":[-92.310242375999962,44.512645651000071]},"properties":{"OBJECTID":175,"id":186581072,"latitude":44.512645650800003,"longitude":-92.3102423757,"species_guess":"Great Blue Heron"}},{"type":"Feature","id":176,"geometry":{"type":"Point","coordinates":[-92.317924864999952,44.514305439000054]},"properties":{"OBJECTID":176,"id":187808081,"latitude":44.514305439200001,"longitude":-92.317924865099997,"species_guess":"Great Blue Heron"}},{"type":"Feature","id":177,"geometry":{"type":"Point","coordinates":[-91.279808633999949,43.49574135000006]},"properties":{"OBJECTID":177,"id":188104590,"latitude":43.495741350000003,"longitude":-91.279808633800002,"species_guess":"Great Blue Heron"}},{"type":"Feature","id":178,"geometry":{"type":"Point","coordinates":[-91.536484186999985,44.04508074000006]},"properties":{"OBJECTID":178,"id":196962997,"latitude":44.045080740099998,"longitude":-91.536484187300005,"species_guess":"Great Blue Heron"}},{"type":"Feature","id":179,"geometry":{"type":"Point","coordinates":[-91.061813832999974,43.904350000000079]},"properties":{"OBJECTID":179,"id":201495314,"latitude":43.904350000000001,"longitude":-91.061813833299993,"species_guess":"Great Blue Heron"}},{"type":"Feature","id":180,"geometry":{"type":"Point","coordinates":[-90.912229667999952,42.693170739000038]},"properties":{"OBJECTID":180,"id":203632749,"latitude":42.693170739499998,"longitude":-90.9122296675,"species_guess":"Great Blue Heron"}},{"type":"Feature","id":181,"geometry":{"type":"Point","coordinates":[-91.22685992199996,43.82857584900006]},"properties":{"OBJECTID":181,"id":208507567,"latitude":43.828575848600003,"longitude":-91.226859921699997,"species_guess":"Great Blue Heron"}},{"type":"Feature","id":182,"geometry":{"type":"Point","coordinates":[-91.259873569999968,43.84755845400008]},"properties":{"OBJECTID":182,"id":209300755,"latitude":43.847558454400001,"longitude":-91.259873569999996,"species_guess":"Great Blue Heron"}},{"type":"Feature","id":183,"geometry":{"type":"Point","coordinates":[-92.003663399999937,44.120382000000063]},"properties":{"OBJECTID":183,"id":214566206,"latitude":44.120381999999999,"longitude":-92.003663399999994,"species_guess":"Great Blue Heron"}},{"type":"Feature","id":184,"geometry":{"type":"Point","coordinates":[-91.753149999999948,42.874303333000057]},"properties":{"OBJECTID":184,"id":215567300,"latitude":42.874303333299999,"longitude":-91.753150000000005,"species_guess":"Great Blue Heron"}},{"type":"Feature","id":185,"geometry":{"type":"Point","coordinates":[-90.644406079999953,42.53676329700005]},"properties":{"OBJECTID":185,"id":216244932,"latitude":42.536763297,"longitude":-90.6444060802,"species_guess":"Great Blue Heron"}},{"type":"Feature","id":186,"geometry":{"type":"Point","coordinates":[-90.694860778999953,42.543964276000054]},"properties":{"OBJECTID":186,"id":219139385,"latitude":42.543964275599997,"longitude":-90.694860778700004,"species_guess":"Great Blue Heron"}},{"type":"Feature","id":187,"geometry":{"type":"Point","coordinates":[-91.187409183999989,43.086897389000058]},"properties":{"OBJECTID":187,"id":221971091,"latitude":43.086897389299999,"longitude":-91.187409183900002,"species_guess":"Great Blue Heron"}},{"type":"Feature","id":188,"geometry":{"type":"Point","coordinates":[-91.183577777999972,43.388622222000038]},"properties":{"OBJECTID":188,"id":223472231,"latitude":43.388622222199999,"longitude":-91.183577777799997,"species_guess":"Great Blue Heron"}},{"type":"Feature","id":189,"geometry":{"type":"Point","coordinates":[-91.056544594999991,43.247286411000061]},"properties":{"OBJECTID":189,"id":224403400,"latitude":43.247286410999997,"longitude":-91.056544594499996,"species_guess":"Great Blue Heron"}},{"type":"Feature","id":190,"geometry":{"type":"Point","coordinates":[-91.275247646999958,43.609776704000069]},"properties":{"OBJECTID":190,"id":227221725,"latitude":43.609776703800001,"longitude":-91.275247647300006,"species_guess":"Great Blue Heron"}},{"type":"Feature","id":191,"geometry":{"type":"Point","coordinates":[-91.275247646999958,43.609776704000069]},"properties":{"OBJECTID":191,"id":227221728,"latitude":43.609776703800001,"longitude":-91.275247647300006,"species_guess":"Great Blue Heron"}},{"type":"Feature","id":192,"geometry":{"type":"Point","coordinates":[-90.650954357999979,42.512721332000069]},"properties":{"OBJECTID":192,"id":227901475,"latitude":42.512721332200002,"longitude":-90.650954358299998,"species_guess":"Great Blue Heron"}},{"type":"Feature","id":193,"geometry":{"type":"Point","coordinates":[-90.655028633999962,42.505876382000054]},"properties":{"OBJECTID":193,"id":227911163,"latitude":42.505876382099999,"longitude":-90.655028633800001,"species_guess":"Great Blue Heron"}},{"type":"Feature","id":194,"geometry":{"type":"Point","coordinates":[-90.634438332999991,42.460421667000048]},"properties":{"OBJECTID":194,"id":228219445,"latitude":42.4604216667,"longitude":-90.634438333299997,"species_guess":"Great Blue Heron"}},{"type":"Feature","id":195,"geometry":{"type":"Point","coordinates":[-91.925157866999939,44.320383473000049]},"properties":{"OBJECTID":195,"id":230108250,"latitude":44.320383472800003,"longitude":-91.925157867400003,"species_guess":"Great Blue Heron"}},{"type":"Feature","id":196,"geometry":{"type":"Point","coordinates":[-91.63974380999997,44.038897753000072]},"properties":{"OBJECTID":196,"id":230601271,"latitude":44.038897753000001,"longitude":-91.639743809600006,"species_guess":"Great Blue Heron"}},{"type":"Feature","id":197,"geometry":{"type":"Point","coordinates":[-91.262627670999962,43.807464073000062]},"properties":{"OBJECTID":197,"id":230669855,"latitude":43.807464073299997,"longitude":-91.262627671399997,"species_guess":"Great Blue Heron"}},{"type":"Feature","id":198,"geometry":{"type":"Point","coordinates":[-89.737417341999958,43.415577961000054]},"properties":{"OBJECTID":198,"id":230858223,"latitude":43.4155779608,"longitude":-89.737417342399993,"species_guess":"Great Blue Heron"}},{"type":"Feature","id":199,"geometry":{"type":"Point","coordinates":[-89.749443987999939,43.143454657000063]},"properties":{"OBJECTID":199,"id":230922197,"latitude":43.143454656800003,"longitude":-89.749443987500001,"species_guess":"Great Blue Heron"}},{"type":"Feature","id":200,"geometry":{"type":"Point","coordinates":[-91.304547799999966,43.859449400000074]},"properties":{"OBJECTID":200,"id":231260896,"latitude":43.859449400000003,"longitude":-91.304547799999995,"species_guess":"Great Blue Heron"}},{"type":"Feature","id":201,"geometry":{"type":"Point","coordinates":[-91.668993239999963,44.061615883000059]},"properties":{"OBJECTID":201,"id":231315730,"latitude":44.061615883400002,"longitude":-91.668993240299997,"species_guess":"Great Blue Heron"}},{"type":"Feature","id":202,"geometry":{"type":"Point","coordinates":[-91.350177871999961,43.96522175900003]},"properties":{"OBJECTID":202,"id":233200604,"latitude":43.965221759499997,"longitude":-91.3501778718,"species_guess":"Great Blue Heron"}},{"type":"Feature","id":203,"geometry":{"type":"Point","coordinates":[-91.265835750999941,43.49073115200008]},"properties":{"OBJECTID":203,"id":235413396,"latitude":43.490731152099997,"longitude":-91.265835750899996,"species_guess":"Great Blue Heron"}},{"type":"Feature","id":204,"geometry":{"type":"Point","coordinates":[-91.162116666999964,43.094627833000061]},"properties":{"OBJECTID":204,"id":235616073,"latitude":43.094627833300002,"longitude":-91.162116666700001,"species_guess":"Great Blue Heron"}},{"type":"Feature","id":205,"geometry":{"type":"Point","coordinates":[-90.11625547899996,43.012315221000051]},"properties":{"OBJECTID":205,"id":236284102,"latitude":43.012315220600001,"longitude":-90.116255479000003,"species_guess":"Great Blue Heron"}},{"type":"Feature","id":206,"geometry":{"type":"Point","coordinates":[-90.732021699999962,42.660960952000039]},"properties":{"OBJECTID":206,"id":236431749,"latitude":42.660960952400004,"longitude":-90.732021700399997,"species_guess":"Great Blue Heron"}},{"type":"Feature","id":207,"geometry":{"type":"Point","coordinates":[-90.250015304999977,42.976858744000026]},"properties":{"OBJECTID":207,"id":237025671,"latitude":42.976858743999998,"longitude":-90.250015304900003,"species_guess":"Great Blue Heron"}},{"type":"Feature","id":208,"geometry":{"type":"Point","coordinates":[-90.04922389799998,43.16748134900007]},"properties":{"OBJECTID":208,"id":238994339,"latitude":43.167481348800003,"longitude":-90.049223897900006,"species_guess":"Great Blue Heron"}},{"type":"Feature","id":209,"geometry":{"type":"Point","coordinates":[-90.048049999999989,43.168080000000032]},"properties":{"OBJECTID":209,"id":239237272,"latitude":43.168080000000003,"longitude":-90.048050000000003,"species_guess":"Great Herons and Egrets"}},{"type":"Feature","id":210,"geometry":{"type":"Point","coordinates":[-91.256804999999986,43.852055000000064]},"properties":{"OBJECTID":210,"id":239287267,"latitude":43.852055,"longitude":-91.256805,"species_guess":"Great Blue Heron"}},{"type":"Feature","id":211,"geometry":{"type":"Point","coordinates":[-91.256758332999937,43.847255000000075]},"properties":{"OBJECTID":211,"id":239289822,"latitude":43.847254999999997,"longitude":-91.256758333299999,"species_guess":"Great Blue Heron"}},{"type":"Feature","id":212,"geometry":{"type":"Point","coordinates":[-90.952924699999983,43.537241000000051]},"properties":{"OBJECTID":212,"id":239464309,"latitude":43.537241000000002,"longitude":-90.952924699700006,"species_guess":"Great Blue Heron"}},{"type":"Feature","id":213,"geometry":{"type":"Point","coordinates":[-91.228817099999958,43.824436320000075]},"properties":{"OBJECTID":213,"id":240150311,"latitude":43.824436319999997,"longitude":-91.228817100000001,"species_guess":"Great Blue Heron"}},{"type":"Feature","id":214,"geometry":{"type":"Point","coordinates":[-91.238004999999987,43.883908333000079]},"properties":{"OBJECTID":214,"id":240433637,"latitude":43.883908333299999,"longitude":-91.238005000000001,"species_guess":"Great Blue Heron"}},{"type":"Feature","id":215,"geometry":{"type":"Point","coordinates":[-91.914863332999971,43.404655000000048]},"properties":{"OBJECTID":215,"id":240589204,"latitude":43.404654999999998,"longitude":-91.914863333300005,"species_guess":"Great Blue Heron"}},{"type":"Feature","id":216,"geometry":{"type":"Point","coordinates":[-91.949919999999963,43.408296667000059]},"properties":{"OBJECTID":216,"id":240589356,"latitude":43.408296666699997,"longitude":-91.949920000000006,"species_guess":"Great Blue Heron"}},{"type":"Feature","id":217,"geometry":{"type":"Point","coordinates":[-89.973557946999961,42.764747410000041]},"properties":{"OBJECTID":217,"id":241169061,"latitude":42.764747409999998,"longitude":-89.973557947399996,"species_guess":"Great Blue Heron"}},{"type":"Feature","id":218,"geometry":{"type":"Point","coordinates":[-89.973557946999961,42.764747410000041]},"properties":{"OBJECTID":218,"id":241173671,"latitude":42.764747409999998,"longitude":-89.973557947399996,"species_guess":"Great Blue Heron"}},{"type":"Feature","id":219,"geometry":{"type":"Point","coordinates":[-91.226621666999961,43.447855000000061]},"properties":{"OBJECTID":219,"id":241193519,"latitude":43.447854999999997,"longitude":-91.226621666699998,"species_guess":"Great Blue Heron"}},{"type":"Feature","id":220,"geometry":{"type":"Point","coordinates":[-91.228729999999985,43.825321667000026]},"properties":{"OBJECTID":220,"id":241194105,"latitude":43.825321666699999,"longitude":-91.228729999999999,"species_guess":"Great Blue Heron"}},{"type":"Feature","id":221,"geometry":{"type":"Point","coordinates":[-91.713884286999985,44.094666112000027]},"properties":{"OBJECTID":221,"id":241335534,"latitude":44.094666112299997,"longitude":-91.713884286699994,"species_guess":"Great Blue Heron"}},{"type":"Feature","id":222,"geometry":{"type":"Point","coordinates":[-91.719493497999963,44.092539067000075]},"properties":{"OBJECTID":222,"id":241339713,"latitude":44.092539066599997,"longitude":-91.7194934977,"species_guess":"Great Blue Heron"}},{"type":"Feature","id":223,"geometry":{"type":"Point","coordinates":[-89.973179799999969,42.765008800000032]},"properties":{"OBJECTID":223,"id":245482102,"latitude":42.765008799999997,"longitude":-89.973179799999997,"species_guess":"Great Blue Heron"}},{"type":"Feature","id":224,"geometry":{"type":"Point","coordinates":[-90.041297166999982,43.167938333000052]},"properties":{"OBJECTID":224,"id":248187371,"latitude":43.1679383333,"longitude":-90.041297166700005,"species_guess":"Great Blue Heron"}},{"type":"Feature","id":225,"geometry":{"type":"Point","coordinates":[-92.248656078999943,44.43244465600003]},"properties":{"OBJECTID":225,"id":249419247,"latitude":44.432444656400001,"longitude":-92.248656079200003,"species_guess":"Great Blue Heron"}},{"type":"Feature","id":226,"geometry":{"type":"Point","coordinates":[-91.271684992999951,43.65280546200006]},"properties":{"OBJECTID":226,"id":249826451,"latitude":43.652805462499998,"longitude":-91.271684992499999,"species_guess":"Great Blue Heron"}},{"type":"Feature","id":227,"geometry":{"type":"Point","coordinates":[-91.27150654999997,43.652208375000043]},"properties":{"OBJECTID":227,"id":249828855,"latitude":43.652208375299999,"longitude":-91.271506549799994,"species_guess":"Great Blue Heron"}},{"type":"Feature","id":228,"geometry":{"type":"Point","coordinates":[-92.315600266999979,44.513282261000029]},"properties":{"OBJECTID":228,"id":251491407,"latitude":44.513282261100002,"longitude":-92.315600267199997,"species_guess":"Great Blue Heron"}},{"type":"Feature","id":229,"geometry":{"type":"Point","coordinates":[-89.949233960999948,43.336548869000069]},"properties":{"OBJECTID":229,"id":252885791,"latitude":43.3365488687,"longitude":-89.949233961000004,"species_guess":"Great Blue Heron"}},{"type":"Feature","id":230,"geometry":{"type":"Point","coordinates":[-89.904366666999977,43.187141667000049]},"properties":{"OBJECTID":230,"id":253118600,"latitude":43.187141666700001,"longitude":-89.9043666667,"species_guess":"Great Blue Heron"}},{"type":"Feature","id":231,"geometry":{"type":"Point","coordinates":[-91.917023299999983,44.324310900000057]},"properties":{"OBJECTID":231,"id":255248033,"latitude":44.3243109,"longitude":-91.917023299999997,"species_guess":"Great Blue Heron"}},{"type":"Feature","id":232,"geometry":{"type":"Point","coordinates":[-89.887328921999938,42.910644299000069]},"properties":{"OBJECTID":232,"id":255588760,"latitude":42.910644299300003,"longitude":-89.887328922199998,"species_guess":"Great Blue Heron"}},{"type":"Feature","id":233,"geometry":{"type":"Point","coordinates":[-92.314276501999984,44.514970124000058]},"properties":{"OBJECTID":233,"id":257062141,"latitude":44.514970124400001,"longitude":-92.314276501899997,"species_guess":"Great Blue Heron"}},{"type":"Feature","id":234,"geometry":{"type":"Point","coordinates":[-92.319231034999973,44.509574859000054]},"properties":{"OBJECTID":234,"id":258812831,"latitude":44.509574859300002,"longitude":-92.319231034599994,"species_guess":"Great Blue Heron"}},{"type":"Feature","id":235,"geometry":{"type":"Point","coordinates":[-90.65176572699994,42.511398866000036]},"properties":{"OBJECTID":235,"id":268558205,"latitude":42.511398865700002,"longitude":-90.651765726500003,"species_guess":"Great Blue Heron"}},{"type":"Feature","id":236,"geometry":{"type":"Point","coordinates":[-91.295626393999953,43.825024216000031]},"properties":{"OBJECTID":236,"id":268891488,"latitude":43.825024215799999,"longitude":-91.295626394300001,"species_guess":"Great Blue Heron"}},{"type":"Feature","id":237,"geometry":{"type":"Point","coordinates":[-90.63236999999998,42.460266667000042]},"properties":{"OBJECTID":237,"id":269148496,"latitude":42.460266666700001,"longitude":-90.632369999999995,"species_guess":"Great Blue Heron"}},{"type":"Feature","id":238,"geometry":{"type":"Point","coordinates":[-91.213588054999946,43.728297971000075]},"properties":{"OBJECTID":238,"id":269217505,"latitude":43.728297970500002,"longitude":-91.213588054799999,"species_guess":"Great Blue Heron"}},{"type":"Feature","id":239,"geometry":{"type":"Point","coordinates":[-91.297156080999969,43.82501097800008]},"properties":{"OBJECTID":239,"id":269555981,"latitude":43.825010977700003,"longitude":-91.297156080799994,"species_guess":"Great Blue Heron"}},{"type":"Feature","id":240,"geometry":{"type":"Point","coordinates":[-91.263621691999958,43.810218559000077]},"properties":{"OBJECTID":240,"id":269724851,"latitude":43.810218558700001,"longitude":-91.263621691699996,"species_guess":"Great Blue Heron"}},{"type":"Feature","id":241,"geometry":{"type":"Point","coordinates":[-91.82228833299996,43.31647166700003]},"properties":{"OBJECTID":241,"id":270078434,"latitude":43.316471666699996,"longitude":-91.822288333299994,"species_guess":"Great Blue Heron"}},{"type":"Feature","id":242,"geometry":{"type":"Point","coordinates":[-90.733078224999986,42.659060303000047]},"properties":{"OBJECTID":242,"id":271334326,"latitude":42.659060303300002,"longitude":-90.733078225,"species_guess":"Great Blue Heron"}},{"type":"Feature","id":243,"geometry":{"type":"Point","coordinates":[-91.30489429499994,43.867198409000025]},"properties":{"OBJECTID":243,"id":271335952,"latitude":43.867198408599997,"longitude":-91.304894294899995,"species_guess":"Great Blue Heron"}},{"type":"Feature","id":244,"geometry":{"type":"Point","coordinates":[-91.467500254999948,44.018610046000049]},"properties":{"OBJECTID":244,"id":277365595,"latitude":44.018610045599999,"longitude":-91.467500254499996,"species_guess":"Great Blue Heron"}},{"type":"Feature","id":245,"geometry":{"type":"Point","coordinates":[-89.740646666999965,43.413321667000048]},"properties":{"OBJECTID":245,"id":277538795,"latitude":43.4133216667,"longitude":-89.740646666700002,"species_guess":"Great Blue Heron"}},{"type":"Feature","id":246,"geometry":{"type":"Point","coordinates":[-90.732762083999944,42.659726496000076]},"properties":{"OBJECTID":246,"id":277966791,"latitude":42.659726495500003,"longitude":-90.732762083899999,"species_guess":"Great Blue Heron"}},{"type":"Feature","id":247,"geometry":{"type":"Point","coordinates":[-90.734051844999954,42.661108834000061]},"properties":{"OBJECTID":247,"id":277967010,"latitude":42.661108834399997,"longitude":-90.734051844500001,"species_guess":"Great Blue Heron"}},{"type":"Feature","id":248,"geometry":{"type":"Point","coordinates":[-89.739068557999985,43.413414817000046]},"properties":{"OBJECTID":248,"id":280095462,"latitude":43.413414816900001,"longitude":-89.739068557600007,"species_guess":"Great Blue Heron"}},{"type":"Feature","id":249,"geometry":{"type":"Point","coordinates":[-91.227208386999962,43.822770397000056]},"properties":{"OBJECTID":249,"id":281781476,"latitude":43.822770397500001,"longitude":-91.227208387000005,"species_guess":"Great Blue Heron"}},{"type":"Feature","id":250,"geometry":{"type":"Point","coordinates":[-91.229744812999968,43.823595625000053]},"properties":{"OBJECTID":250,"id":281790208,"latitude":43.823595625000003,"longitude":-91.229744813099998,"species_guess":"Great Blue Heron"}},{"type":"Feature","id":251,"geometry":{"type":"Point","coordinates":[-91.228533732999949,43.823997784000028]},"properties":{"OBJECTID":251,"id":281801610,"latitude":43.823997784200003,"longitude":-91.228533732499997,"species_guess":"Great Blue Heron"}},{"type":"Feature","id":252,"geometry":{"type":"Point","coordinates":[-91.186835197999983,43.086348462000046]},"properties":{"OBJECTID":252,"id":282276247,"latitude":43.0863484622,"longitude":-91.186835198300003,"species_guess":"Great Blue Heron"}},{"type":"Feature","id":253,"geometry":{"type":"Point","coordinates":[-91.185963926999989,43.087942557000076]},"properties":{"OBJECTID":253,"id":283443876,"latitude":43.087942556500003,"longitude":-91.185963927200007,"species_guess":"Great Blue Heron"}},{"type":"Feature","id":254,"geometry":{"type":"Point","coordinates":[-90.68597297499997,42.571968426000069]},"properties":{"OBJECTID":254,"id":283524552,"latitude":42.571968425800002,"longitude":-90.685972974999999,"species_guess":"Great Blue Heron"}},{"type":"Feature","id":255,"geometry":{"type":"Point","coordinates":[-90.663933332999989,42.459736667000072]},"properties":{"OBJECTID":255,"id":283803164,"latitude":42.459736666700003,"longitude":-90.663933333299994,"species_guess":"Great Blue Heron"}},{"type":"Feature","id":256,"geometry":{"type":"Point","coordinates":[-91.36438888899994,43.976938889000053]},"properties":{"OBJECTID":256,"id":284986539,"latitude":43.976938888900001,"longitude":-91.364388888899995,"species_guess":"Great Blue Heron"}},{"type":"Feature","id":257,"geometry":{"type":"Point","coordinates":[-90.661390833999974,42.509547464000036]},"properties":{"OBJECTID":257,"id":285198208,"latitude":42.509547464400001,"longitude":-90.661390833599995,"species_guess":"Great Blue Heron"}},{"type":"Feature","id":258,"geometry":{"type":"Point","coordinates":[-90.661936110999989,42.509897222000063]},"properties":{"OBJECTID":258,"id":286621357,"latitude":42.509897222200003,"longitude":-90.661936111100005,"species_guess":"Great Blue Heron"}},{"type":"Feature","id":259,"geometry":{"type":"Point","coordinates":[-91.226649702999964,43.823914212000034]},"properties":{"OBJECTID":259,"id":288879306,"latitude":43.823914211800002,"longitude":-91.226649702700001,"species_guess":"Great Blue Heron"}},{"type":"Feature","id":260,"geometry":{"type":"Point","coordinates":[-91.225909974999979,43.822898431000056]},"properties":{"OBJECTID":260,"id":289122172,"latitude":43.8228984307,"longitude":-91.225909974700002,"species_guess":"Great Blue Heron"}},{"type":"Feature","id":261,"geometry":{"type":"Point","coordinates":[-91.228769443999965,43.824811111000031]},"properties":{"OBJECTID":261,"id":290478122,"latitude":43.824811111099997,"longitude":-91.228769444400001,"species_guess":"Great Blue Heron"}},{"type":"Feature","id":262,"geometry":{"type":"Point","coordinates":[-91.223812990999988,43.823329601000069]},"properties":{"OBJECTID":262,"id":291189443,"latitude":43.823329601300003,"longitude":-91.223812990799999,"species_guess":"Great Blue Heron"}},{"type":"Feature","id":263,"geometry":{"type":"Point","coordinates":[-91.225065134999966,43.825136718000067]},"properties":{"OBJECTID":263,"id":291189450,"latitude":43.825136717699998,"longitude":-91.225065134499999,"species_guess":"Great Blue Heron"}},{"type":"Feature","id":264,"geometry":{"type":"Point","coordinates":[-91.227880468999956,43.825622796000061]},"properties":{"OBJECTID":264,"id":292443542,"latitude":43.825622795800001,"longitude":-91.227880468500004,"species_guess":"Great Blue Heron"}},{"type":"Feature","id":265,"geometry":{"type":"Point","coordinates":[-90.624138973999948,42.544841676000033]},"properties":{"OBJECTID":265,"id":292674232,"latitude":42.544841675999997,"longitude":-90.624138973699999,"species_guess":"Great Blue Heron"}},{"type":"Feature","id":266,"geometry":{"type":"Point","coordinates":[-90.638236999999947,42.540812992000042]},"properties":{"OBJECTID":266,"id":293803969,"latitude":42.540812992399999,"longitude":-90.638236999499995,"species_guess":"Great Blue Heron"}},{"type":"Feature","id":267,"geometry":{"type":"Point","coordinates":[-90.638236999999947,42.540812992000042]},"properties":{"OBJECTID":267,"id":293815233,"latitude":42.540812992399999,"longitude":-90.638236999499995,"species_guess":"Great Blue Heron"}},{"type":"Feature","id":268,"geometry":{"type":"Point","coordinates":[-91.086092730999951,42.810700098000041]},"properties":{"OBJECTID":268,"id":297744405,"latitude":42.810700097599998,"longitude":-91.086092731099995,"species_guess":"Great Blue Heron"}},{"type":"Feature","id":269,"geometry":{"type":"Point","coordinates":[-91.084590578999951,42.790852018000066]},"properties":{"OBJECTID":269,"id":297744406,"latitude":42.790852018400003,"longitude":-91.0845905794,"species_guess":"Great Blue Heron"}},{"type":"Feature","id":270,"geometry":{"type":"Point","coordinates":[-91.088444807999963,42.781443132000049]},"properties":{"OBJECTID":270,"id":297744412,"latitude":42.7814431324,"longitude":-91.088444807599998,"species_guess":"Great Blue Heron"}},{"type":"Feature","id":271,"geometry":{"type":"Point","coordinates":[-91.225583596999968,43.823078185000043]},"properties":{"OBJECTID":271,"id":298319976,"latitude":43.823078185100002,"longitude":-91.225583596800007,"species_guess":"Great Blue Heron"}},{"type":"Feature","id":272,"geometry":{"type":"Point","coordinates":[-90.303436666999971,43.279063333000067]},"properties":{"OBJECTID":272,"id":299366222,"latitude":43.279063333300002,"longitude":-90.303436666699994,"species_guess":"Great Blue Heron"}},{"type":"Feature","id":273,"geometry":{"type":"Point","coordinates":[-91.229762699999981,43.82359579000007]},"properties":{"OBJECTID":273,"id":299636026,"latitude":43.823595789800002,"longitude":-91.229762699899993,"species_guess":"Great Blue Heron"}},{"type":"Feature","id":274,"geometry":{"type":"Point","coordinates":[-89.860002554999937,43.339044448000038]},"properties":{"OBJECTID":274,"id":299702671,"latitude":43.339044448199999,"longitude":-89.860002555199998,"species_guess":"Great Blue Heron"}},{"type":"Feature","id":275,"geometry":{"type":"Point","coordinates":[-91.757394443999942,43.805694444000039]},"properties":{"OBJECTID":275,"id":301939738,"latitude":43.805694444399997,"longitude":-91.757394444400006,"species_guess":"Great Blue Heron"}},{"type":"Feature","id":276,"geometry":{"type":"Point","coordinates":[-91.229121428999974,43.82635829600008]},"properties":{"OBJECTID":276,"id":302072797,"latitude":43.826358296000002,"longitude":-91.229121429000003,"species_guess":"Great Blue Heron"}},{"type":"Feature","id":277,"geometry":{"type":"Point","coordinates":[-91.631506753999986,44.03731192500004]},"properties":{"OBJECTID":277,"id":302193089,"latitude":44.037311924599997,"longitude":-91.631506753899998,"species_guess":"Great Blue Heron"}},{"type":"Feature","id":278,"geometry":{"type":"Point","coordinates":[-91.228830484999946,43.826414008000029]},"properties":{"OBJECTID":278,"id":302867388,"latitude":43.826414008299999,"longitude":-91.228830485299994,"species_guess":"Great Blue Heron"}},{"type":"Feature","id":279,"geometry":{"type":"Point","coordinates":[-91.644383999999945,44.037094400000058]},"properties":{"OBJECTID":279,"id":303486430,"latitude":44.037094400000001,"longitude":-91.644384000000002,"species_guess":"Great Blue Heron"}},{"type":"Feature","id":280,"geometry":{"type":"Point","coordinates":[-91.640729999999962,44.039986167000052]},"properties":{"OBJECTID":280,"id":303730064,"latitude":44.039986166699997,"longitude":-91.640730000000005,"species_guess":"Great Blue Heron"}},{"type":"Feature","id":281,"geometry":{"type":"Point","coordinates":[-92.005635536999989,43.552220778000049]},"properties":{"OBJECTID":281,"id":304096958,"latitude":43.552220777599999,"longitude":-92.005635537200007,"species_guess":"Great Blue Heron"}},{"type":"Feature","id":282,"geometry":{"type":"Point","coordinates":[-91.227798230999952,43.825370594000049]},"properties":{"OBJECTID":282,"id":306329544,"latitude":43.825370594299997,"longitude":-91.227798231400001,"species_guess":"Great Blue Heron"}},{"type":"Feature","id":283,"geometry":{"type":"Point","coordinates":[-91.227753926999981,43.825284072000045]},"properties":{"OBJECTID":283,"id":306329547,"latitude":43.825284072099997,"longitude":-91.227753927099997,"species_guess":"Great Blue Heron"}},{"type":"Feature","id":284,"geometry":{"type":"Point","coordinates":[-91.229754281999988,43.823526019000042]},"properties":{"OBJECTID":284,"id":306329591,"latitude":43.823526019100001,"longitude":-91.229754281799998,"species_guess":"Great Blue Heron"}},{"type":"Feature","id":285,"geometry":{"type":"Point","coordinates":[-91.226320536999935,43.82417928600006]},"properties":{"OBJECTID":285,"id":306329643,"latitude":43.824179285900001,"longitude":-91.226320537000007,"species_guess":"Great Blue Heron"}},{"type":"Feature","id":286,"geometry":{"type":"Point","coordinates":[-91.223771896999949,43.824125790000039]},"properties":{"OBJECTID":286,"id":307084004,"latitude":43.824125789599996,"longitude":-91.223771897199995,"species_guess":"Great Blue Heron"}},{"type":"Feature","id":287,"geometry":{"type":"Point","coordinates":[-91.228380676999961,43.827759091000075]},"properties":{"OBJECTID":287,"id":307084040,"latitude":43.827759091499999,"longitude":-91.228380677199993,"species_guess":"Great Blue Heron"}},{"type":"Feature","id":288,"geometry":{"type":"Point","coordinates":[-91.229208987999982,43.828050096000027]},"properties":{"OBJECTID":288,"id":307084046,"latitude":43.8280500965,"longitude":-91.229208987800007,"species_guess":"Great Blue Heron"}},{"type":"Feature","id":289,"geometry":{"type":"Point","coordinates":[-91.246632104999946,43.823011694000058]},"properties":{"OBJECTID":289,"id":307650606,"latitude":43.823011693700003,"longitude":-91.246632105100005,"species_guess":"Great Blue Heron"}},{"type":"Feature","id":290,"geometry":{"type":"Point","coordinates":[-91.226577493999969,43.822684098000025]},"properties":{"OBJECTID":290,"id":308590953,"latitude":43.8226840982,"longitude":-91.226577494400004,"species_guess":"Great Blue Heron"}},{"type":"Feature","id":291,"geometry":{"type":"Point","coordinates":[-91.756205555999941,43.805350000000033]},"properties":{"OBJECTID":291,"id":308755993,"latitude":43.805349999999997,"longitude":-91.756205555600005,"species_guess":"Great Blue Heron"}},{"type":"Feature","id":292,"geometry":{"type":"Point","coordinates":[-91.640199911999957,44.039895091000062]},"properties":{"OBJECTID":292,"id":310398069,"latitude":44.039895091399998,"longitude":-91.640199911500005,"species_guess":"Great Blue Heron"}},{"type":"Feature","id":293,"geometry":{"type":"Point","coordinates":[-91.218693332999976,43.520520000000033]},"properties":{"OBJECTID":293,"id":311023867,"latitude":43.520519999999998,"longitude":-91.218693333299996,"species_guess":"Great Blue Heron"}},{"type":"Feature","id":294,"geometry":{"type":"Point","coordinates":[-90.290021895999985,43.015514075000056]},"properties":{"OBJECTID":294,"id":311157152,"latitude":43.015514075399999,"longitude":-90.290021896400006,"species_guess":"Great Blue Heron"}},{"type":"Feature","id":295,"geometry":{"type":"Point","coordinates":[-89.73966999999999,43.413600000000031]},"properties":{"OBJECTID":295,"id":312051207,"latitude":43.413600000000002,"longitude":-89.739670000000004,"species_guess":"Great Blue Heron"}},{"type":"Feature","id":296,"geometry":{"type":"Point","coordinates":[-91.224260704999949,43.823633244000064]},"properties":{"OBJECTID":296,"id":312067041,"latitude":43.823633244200003,"longitude":-91.224260704700001,"species_guess":"Great Blue Heron"}},{"type":"Feature","id":297,"geometry":{"type":"Point","coordinates":[-91.222756101999948,43.823871736000058]},"properties":{"OBJECTID":297,"id":312330354,"latitude":43.823871735799997,"longitude":-91.2227561017,"species_guess":"Great Blue Heron"}},{"type":"Feature","id":298,"geometry":{"type":"Point","coordinates":[-91.224464333999947,43.822899461000077]},"properties":{"OBJECTID":298,"id":313993064,"latitude":43.822899460899997,"longitude":-91.224464334000004,"species_guess":"Great Blue Heron"}},{"type":"Feature","id":299,"geometry":{"type":"Point","coordinates":[-91.224573644999964,43.825237027000071]},"properties":{"OBJECTID":299,"id":314238882,"latitude":43.825237026899998,"longitude":-91.224573645199996,"species_guess":"Great Blue Heron"}},{"type":"Feature","id":300,"geometry":{"type":"Point","coordinates":[-92.317823586999964,44.510569967000038]},"properties":{"OBJECTID":300,"id":314462480,"latitude":44.5105699673,"longitude":-92.317823587199996,"species_guess":"Great Blue Heron"}},{"type":"Feature","id":301,"geometry":{"type":"Point","coordinates":[-90.054519499999969,42.447796667000034]},"properties":{"OBJECTID":301,"id":314495034,"latitude":42.4477966667,"longitude":-90.054519499999998,"species_guess":"Great Blue Heron"}},{"type":"Feature","id":302,"geometry":{"type":"Point","coordinates":[-91.226868804999981,43.824301805000061]},"properties":{"OBJECTID":302,"id":315695964,"latitude":43.824301804599997,"longitude":-91.226868805099997,"species_guess":"Great Blue Heron"}},{"type":"Feature","id":303,"geometry":{"type":"Point","coordinates":[-91.228466498999978,43.823181461000047]},"properties":{"OBJECTID":303,"id":318125539,"latitude":43.823181461499999,"longitude":-91.228466499500001,"species_guess":"Great Blue Heron"}},{"type":"Feature","id":304,"geometry":{"type":"Point","coordinates":[-91.225036553999985,43.825725750000061]},"properties":{"OBJECTID":304,"id":318281492,"latitude":43.825725749900002,"longitude":-91.225036553899997,"species_guess":"Great Blue Heron"}},{"type":"Feature","id":305,"geometry":{"type":"Point","coordinates":[-91.225765648999982,43.825923543000044]},"properties":{"OBJECTID":305,"id":318281939,"latitude":43.825923543499997,"longitude":-91.225765648899994,"species_guess":"Great Blue Heron"}},{"type":"Feature","id":306,"geometry":{"type":"Point","coordinates":[-89.738390210999967,43.017304376000027]},"properties":{"OBJECTID":306,"id":318738877,"latitude":43.0173043757,"longitude":-89.7383902105,"species_guess":"Great Blue Heron"}},{"type":"Feature","id":307,"geometry":{"type":"Point","coordinates":[-89.759679999999946,43.147650000000056]},"properties":{"OBJECTID":307,"id":319651692,"latitude":43.147649999999999,"longitude":-89.759680000000003,"species_guess":"Great Blue Heron"}},{"type":"Feature","id":308,"geometry":{"type":"Point","coordinates":[-91.477032009999959,44.045440666000047]},"properties":{"OBJECTID":308,"id":319676585,"latitude":44.045440665900003,"longitude":-91.477032009799998,"species_guess":"Great Blue Heron"}},{"type":"Feature","id":309,"geometry":{"type":"Point","coordinates":[-91.437763565999944,43.998165569000037]},"properties":{"OBJECTID":309,"id":319679688,"latitude":43.998165569400001,"longitude":-91.437763565899999,"species_guess":"Great Blue Heron"}},{"type":"Feature","id":310,"geometry":{"type":"Point","coordinates":[-91.540046666999956,44.046555500000068]},"properties":{"OBJECTID":310,"id":320070807,"latitude":44.046555499999997,"longitude":-91.540046666699993,"species_guess":"Great Blue Heron"}},{"type":"Feature","id":311,"geometry":{"type":"Point","coordinates":[-91.520004999999969,44.050430500000061]},"properties":{"OBJECTID":311,"id":323712399,"latitude":44.050430499999997,"longitude":-91.520004999999998,"species_guess":"Great Blue Heron"}},{"type":"Feature","id":312,"geometry":{"type":"Point","coordinates":[-91.228353130999949,43.826150579000057]},"properties":{"OBJECTID":312,"id":324540374,"latitude":43.826150579,"longitude":-91.228353130599999,"species_guess":"Great Blue Heron"}},{"type":"Feature","id":313,"geometry":{"type":"Point","coordinates":[-91.228341256999954,43.827592774000038]},"properties":{"OBJECTID":313,"id":325218649,"latitude":43.827592774400003,"longitude":-91.228341256799993,"species_guess":"Great Blue Heron"}},{"type":"Feature","id":314,"geometry":{"type":"Point","coordinates":[-90.094158801999981,43.033393359000058]},"properties":{"OBJECTID":314,"id":325758604,"latitude":43.033393359199998,"longitude":-90.094158802400003,"species_guess":"Great Blue Heron"}},{"type":"Feature","id":315,"geometry":{"type":"Point","coordinates":[-92.318388230999972,44.51021127100006]},"properties":{"OBJECTID":315,"id":328291719,"latitude":44.510211271499998,"longitude":-92.318388230699995,"species_guess":"Great Blue Heron"}},{"type":"Feature","id":316,"geometry":{"type":"Point","coordinates":[-91.22566166699994,43.825828333000061]},"properties":{"OBJECTID":316,"id":331305468,"latitude":43.825828333300002,"longitude":-91.225661666700006,"species_guess":"Great Blue Heron"}},{"type":"Feature","id":317,"geometry":{"type":"Point","coordinates":[-91.371185748999949,43.930631798000036]},"properties":{"OBJECTID":317,"id":334977450,"latitude":43.930631798100002,"longitude":-91.371185749199995,"species_guess":"Great Blue Heron"}},{"type":"Feature","id":318,"geometry":{"type":"Point","coordinates":[-91.255657166999981,43.856373178000069]},"properties":{"OBJECTID":318,"id":343695046,"latitude":43.856373177999998,"longitude":-91.255657167500004,"species_guess":"Great Blue Heron"}},{"type":"Feature","id":319,"geometry":{"type":"Point","coordinates":[-92.313819219999971,44.510982880000029]},"properties":{"OBJECTID":319,"id":344257939,"latitude":44.51098288,"longitude":-92.313819219999999,"species_guess":"Great Blue Heron"}},{"type":"Feature","id":320,"geometry":{"type":"Point","coordinates":[-91.290327207999951,43.830903515000045]},"properties":{"OBJECTID":320,"id":344618071,"latitude":43.830903514699997,"longitude":-91.290327207700003,"species_guess":"Great Blue Heron"}},{"type":"Feature","id":321,"geometry":{"type":"Point","coordinates":[-91.286797820999936,43.83023598300008]},"properties":{"OBJECTID":321,"id":345530312,"latitude":43.8302359833,"longitude":-91.286797821500002,"species_guess":"Great Blue Heron"}},{"type":"Feature","id":322,"geometry":{"type":"Point","coordinates":[-90.696111110999936,42.546772222000072]},"properties":{"OBJECTID":322,"id":346474989,"latitude":42.546772222199998,"longitude":-90.696111111099995,"species_guess":"Great Blue Heron"}},{"type":"Feature","id":323,"geometry":{"type":"Point","coordinates":[-91.228190600999937,43.823104866000051]},"properties":{"OBJECTID":323,"id":347565164,"latitude":43.823104866100003,"longitude":-91.228190600900007,"species_guess":"Great Blue Heron"}},{"type":"Feature","id":324,"geometry":{"type":"Point","coordinates":[-91.214570214999981,43.726471372000049]},"properties":{"OBJECTID":324,"id":348402362,"latitude":43.726471372200002,"longitude":-91.2145702153,"species_guess":"Great Blue Heron"}},{"type":"Feature","id":325,"geometry":{"type":"Point","coordinates":[-91.291213988999971,43.830703735000043]},"properties":{"OBJECTID":325,"id":348581558,"latitude":43.8307037354,"longitude":-91.291213989300005,"species_guess":"Great Blue Heron"}},{"type":"Feature","id":326,"geometry":{"type":"Point","coordinates":[-91.514240753999957,44.047717127000055]},"properties":{"OBJECTID":326,"id":348815836,"latitude":44.0477171275,"longitude":-91.514240753600006,"species_guess":"Great Blue Heron"}},{"type":"Feature","id":327,"geometry":{"type":"Point","coordinates":[-90.764128826999979,42.420349650000048]},"properties":{"OBJECTID":327,"id":349922542,"latitude":42.420349650399999,"longitude":-90.7641288266,"species_guess":"Great Blue Heron"}},{"type":"Feature","id":328,"geometry":{"type":"Point","coordinates":[-91.239693129999978,43.823326522000059]},"properties":{"OBJECTID":328,"id":350405985,"latitude":43.8233265219,"longitude":-91.239693130299997,"species_guess":"Great Blue Heron"}},{"type":"Feature","id":329,"geometry":{"type":"Point","coordinates":[-91.268784775999961,43.930088880000028]},"properties":{"OBJECTID":329,"id":354807341,"latitude":43.93008888,"longitude":-91.268784776299995,"species_guess":"Great Blue Heron"}}]}