{"type":"FeatureCollection","features":[{"type":"Feature","id":1,"geometry":{"type":"Point","coordinates":[-90.109275942999943,42.06977046600008]},"properties":{"OBJECTID":1,"id":51030964,"latitude":42.069770466500003,"longitude":-90.109275942899998,"common_name":"Green Heron"}},{"type":"Feature","id":2,"geometry":{"type":"Point","coordinates":[-90.299471353999991,42.126518324000074]},"properties":{"OBJECTID":2,"id":199115285,"latitude":42.126518324499997,"longitude":-90.299471354399998,"common_name":"Green Heron"}},{"type":"Feature","id":3,"geometry":{"type":"Point","coordinates":[-90.29324780799999,42.161642039000071]},"properties":{"OBJECTID":3,"id":27827704,"latitude":42.161642039299998,"longitude":-90.293247808399997,"common_name":"Green Heron"}},{"type":"Feature","id":4,"geometry":{"type":"Point","coordinates":[-90.29324780799999,42.161642039000071]},"properties":{"OBJECTID":4,"id":165144402,"latitude":42.161642039299998,"longitude":-90.293247808399997,"common_name":"Green Heron"}},{"type":"Feature","id":5,"geometry":{"type":"Point","coordinates":[-90.294879711999954,42.161827801000072]},"properties":{"OBJECTID":5,"id":133397503,"latitude":42.161827801199998,"longitude":-90.2948797122,"common_name":"Green Heron"}},{"type":"Feature","id":6,"geometry":{"type":"Point","coordinates":[-90.294879711999954,42.161827801000072]},"properties":{"OBJECTID":6,"id":172400801,"latitude":42.161827801199998,"longitude":-90.2948797122,"common_name":"Green Heron"}},{"type":"Feature","id":7,"geometry":{"type":"Point","coordinates":[-90.686027593999938,42.57091919100003]},"properties":{"OBJECTID":7,"id":329653351,"latitude":42.570919191199998,"longitude":-90.686027593899993,"common_name":"Green Heron"}},{"type":"Feature","id":8,"geometry":{"type":"Point","coordinates":[-90.500666698999964,42.729084779000061]},"properties":{"OBJECTID":8,"id":301257901,"latitude":42.729084778800001,"longitude":-90.500666698900005,"common_name":"Green Heron"}},{"type":"Feature","id":9,"geometry":{"type":"Point","coordinates":[-89.634232520999944,42.78782669800006]},"properties":{"OBJECTID":9,"id":287952233,"latitude":42.7878266978,"longitude":-89.634232521100003,"common_name":"Green Heron"}},{"type":"Feature","id":10,"geometry":{"type":"Point","coordinates":[-91.623824099999979,42.824456970000028]},"properties":{"OBJECTID":10,"id":227542491,"latitude":42.82445697,"longitude":-91.623824099999993,"common_name":"Green Heron"}},{"type":"Feature","id":11,"geometry":{"type":"Point","coordinates":[-89.523178332999976,42.969505000000026]},"properties":{"OBJECTID":11,"id":311466196,"latitude":42.969504999999998,"longitude":-89.523178333299995,"common_name":"Green Heron"}},{"type":"Feature","id":12,"geometry":{"type":"Point","coordinates":[-89.568134722999957,42.99601739600007]},"properties":{"OBJECTID":12,"id":133317558,"latitude":42.996017395700001,"longitude":-89.568134722899998,"common_name":"Green Heron"}},{"type":"Feature","id":13,"geometry":{"type":"Point","coordinates":[-89.740814457999988,43.018860216000064]},"properties":{"OBJECTID":13,"id":348143827,"latitude":43.0188602164,"longitude":-89.740814458299994,"common_name":"Green Heron"}},{"type":"Feature","id":14,"geometry":{"type":"Point","coordinates":[-89.741853728999956,43.01891347000003]},"properties":{"OBJECTID":14,"id":188859009,"latitude":43.018913469600001,"longitude":-89.741853728799995,"common_name":"Green Heron"}},{"type":"Feature","id":15,"geometry":{"type":"Point","coordinates":[-89.616944443999955,43.021666667000034]},"properties":{"OBJECTID":15,"id":176215479,"latitude":43.0216666667,"longitude":-89.616944444400005,"common_name":"Green Heron"}},{"type":"Feature","id":16,"geometry":{"type":"Point","coordinates":[-90.287212281999984,43.02566364900008]},"properties":{"OBJECTID":16,"id":310920484,"latitude":43.025663648799998,"longitude":-90.287212282400006,"common_name":"Green Heron"}},{"type":"Feature","id":17,"geometry":{"type":"Point","coordinates":[-90.08699166699995,43.032569444000046]},"properties":{"OBJECTID":17,"id":85783611,"latitude":43.032569444400004,"longitude":-90.086991666700001,"common_name":"Green Heron"}},{"type":"Feature","id":18,"geometry":{"type":"Point","coordinates":[-91.364270299999987,43.132458900000074]},"properties":{"OBJECTID":18,"id":86994592,"latitude":43.132458900000003,"longitude":-91.364270300000001,"common_name":"Green Heron"}},{"type":"Feature","id":19,"geometry":{"type":"Point","coordinates":[-90.046813832999987,43.135208333000037]},"properties":{"OBJECTID":19,"id":294046865,"latitude":43.1352083333,"longitude":-90.046813833300007,"common_name":"Green Heron"}},{"type":"Feature","id":20,"geometry":{"type":"Point","coordinates":[-90.066624499999989,43.150641800000074]},"properties":{"OBJECTID":20,"id":175859393,"latitude":43.150641800000002,"longitude":-90.066624500100005,"common_name":"Green Heron"}},{"type":"Feature","id":21,"geometry":{"type":"Point","coordinates":[-90.11057969999996,43.163689900000065]},"properties":{"OBJECTID":21,"id":175865169,"latitude":43.163689900000001,"longitude":-90.110579700000002,"common_name":"Green Heron"}},{"type":"Feature","id":22,"geometry":{"type":"Point","coordinates":[-91.221419999999966,43.174350000000061]},"properties":{"OBJECTID":22,"id":225627609,"latitude":43.174349999999997,"longitude":-91.221419999999995,"common_name":"Green Heron"}},{"type":"Feature","id":23,"geometry":{"type":"Point","coordinates":[-91.450308332999953,43.310722222000038]},"properties":{"OBJECTID":23,"id":227433759,"latitude":43.310722222199999,"longitude":-91.450308333300001,"common_name":"Green Heron"}},{"type":"Feature","id":24,"geometry":{"type":"Point","coordinates":[-90.232788085999971,43.401618957000039]},"properties":{"OBJECTID":24,"id":293230254,"latitude":43.401618957499998,"longitude":-90.232788085899998,"common_name":"Green Heron"}},{"type":"Feature","id":25,"geometry":{"type":"Point","coordinates":[-89.879983299999935,43.42787880000003]},"properties":{"OBJECTID":25,"id":299394729,"latitude":43.4278787999,"longitude":-89.879983300399999,"common_name":"Green Heron"}},{"type":"Feature","id":26,"geometry":{"type":"Point","coordinates":[-89.826533332999986,43.563619444000039]},"properties":{"OBJECTID":26,"id":130670130,"latitude":43.563619444399997,"longitude":-89.826533333300006,"common_name":"Green Heron"}},{"type":"Feature","id":27,"geometry":{"type":"Point","coordinates":[-90.674126967999939,43.563691013000039]},"properties":{"OBJECTID":27,"id":312300221,"latitude":43.5636910132,"longitude":-90.674126967800007,"common_name":"Green Heron"}},{"type":"Feature","id":28,"geometry":{"type":"Point","coordinates":[-89.812691669999936,43.568275000000028]},"properties":{"OBJECTID":28,"id":75998542,"latitude":43.568275,"longitude":-89.812691670000007,"common_name":"Green Heron"}},{"type":"Feature","id":29,"geometry":{"type":"Point","coordinates":[-89.813329999999951,43.571005000000071]},"properties":{"OBJECTID":29,"id":313380338,"latitude":43.571005,"longitude":-89.813329999999993,"common_name":"Green Heron"}},{"type":"Feature","id":30,"geometry":{"type":"Point","coordinates":[-91.227821999999946,43.651081000000033]},"properties":{"OBJECTID":30,"id":306944869,"latitude":43.651080999999998,"longitude":-91.227822000000003,"common_name":"Green Heron"}},{"type":"Feature","id":31,"geometry":{"type":"Point","coordinates":[-91.25204999999994,43.789755556000046]},"properties":{"OBJECTID":31,"id":287709185,"latitude":43.789755555600003,"longitude":-91.252049999999997,"common_name":"Green Heron"}},{"type":"Feature","id":32,"geometry":{"type":"Point","coordinates":[-91.277011096999956,43.820426964000035]},"properties":{"OBJECTID":32,"id":84803582,"latitude":43.820426964299998,"longitude":-91.277011097400006,"common_name":"Green Heron"}},{"type":"Feature","id":33,"geometry":{"type":"Point","coordinates":[-91.277953503999981,43.821220076000031]},"properties":{"OBJECTID":33,"id":313985656,"latitude":43.821220075799999,"longitude":-91.277953503800006,"common_name":"Green Heron"}},{"type":"Feature","id":34,"geometry":{"type":"Point","coordinates":[-91.254953332999946,43.821808333000035]},"properties":{"OBJECTID":34,"id":236688275,"latitude":43.821808333299998,"longitude":-91.254953333299994,"common_name":"Green Heron"}},{"type":"Feature","id":35,"geometry":{"type":"Point","coordinates":[-91.220844443999965,43.821886111000026]},"properties":{"OBJECTID":35,"id":182822987,"latitude":43.8218861111,"longitude":-91.220844444400001,"common_name":"Green Heron"}},{"type":"Feature","id":36,"geometry":{"type":"Point","coordinates":[-91.225424999999973,43.82208055600006]},"properties":{"OBJECTID":36,"id":174121203,"latitude":43.822080555600003,"longitude":-91.225425000000001,"common_name":"Green Heron"}},{"type":"Feature","id":37,"geometry":{"type":"Point","coordinates":[-91.224475913999981,43.823374800000067]},"properties":{"OBJECTID":37,"id":307859545,"latitude":43.823374800000003,"longitude":-91.224475914199999,"common_name":"Green Heron"}},{"type":"Feature","id":38,"geometry":{"type":"Point","coordinates":[-91.224563332999935,43.82523666700007]},"properties":{"OBJECTID":38,"id":220186756,"latitude":43.8252366667,"longitude":-91.224563333299997,"common_name":"Green Heron"}},{"type":"Feature","id":39,"geometry":{"type":"Point","coordinates":[-91.223802207999938,43.825391766000052]},"properties":{"OBJECTID":39,"id":307084023,"latitude":43.825391766199999,"longitude":-91.223802208199999,"common_name":"Green Heron"}},{"type":"Feature","id":40,"geometry":{"type":"Point","coordinates":[-91.228729999999985,43.825870000000066]},"properties":{"OBJECTID":40,"id":134599634,"latitude":43.825870000000002,"longitude":-91.228729999999999,"common_name":"Green Heron"}},{"type":"Feature","id":41,"geometry":{"type":"Point","coordinates":[-91.228718802999936,43.826672854000037]},"properties":{"OBJECTID":41,"id":299637939,"latitude":43.8266728543,"longitude":-91.2287188026,"common_name":"Green Heron"}},{"type":"Feature","id":42,"geometry":{"type":"Point","coordinates":[-91.228769443999965,43.826713889000075]},"properties":{"OBJECTID":42,"id":312428001,"latitude":43.826713888900002,"longitude":-91.228769444400001,"common_name":"Green Heron"}},{"type":"Feature","id":43,"geometry":{"type":"Point","coordinates":[-91.228795306999984,43.827017997000041]},"properties":{"OBJECTID":43,"id":309752702,"latitude":43.827017996899997,"longitude":-91.228795306699993,"common_name":"Green Heron"}},{"type":"Feature","id":44,"geometry":{"type":"Point","coordinates":[-91.228577774999962,43.827821712000059]},"properties":{"OBJECTID":44,"id":167417747,"latitude":43.827821712499997,"longitude":-91.228577775399998,"common_name":"Green Heron"}},{"type":"Feature","id":45,"geometry":{"type":"Point","coordinates":[-91.228521666999939,43.827883333000045]},"properties":{"OBJECTID":45,"id":180494132,"latitude":43.827883333300001,"longitude":-91.228521666700004,"common_name":"Green Heron"}},{"type":"Feature","id":46,"geometry":{"type":"Point","coordinates":[-91.22766166699995,43.828411667000069]},"properties":{"OBJECTID":46,"id":180494304,"latitude":43.828411666699999,"longitude":-91.227661666700001,"common_name":"Green Heron"}},{"type":"Feature","id":47,"geometry":{"type":"Point","coordinates":[-91.293204167999988,43.83005898600004]},"properties":{"OBJECTID":47,"id":299689545,"latitude":43.830058985900003,"longitude":-91.293204167799999,"common_name":"Green Heron"}},{"type":"Feature","id":48,"geometry":{"type":"Point","coordinates":[-90.724761709999939,43.950272598000026]},"properties":{"OBJECTID":48,"id":183030555,"latitude":43.9502725985,"longitude":-90.724761709600003,"common_name":"Green Heron"}},{"type":"Feature","id":49,"geometry":{"type":"Point","coordinates":[-91.63618839999998,44.037012000000061]},"properties":{"OBJECTID":49,"id":237341449,"latitude":44.037011999999997,"longitude":-91.636188399999995,"common_name":"Green Heron"}},{"type":"Feature","id":50,"geometry":{"type":"Point","coordinates":[-91.634361266999974,44.038017273000037]},"properties":{"OBJECTID":50,"id":170356121,"latitude":44.038017272899999,"longitude":-91.634361267100005,"common_name":"Green Heron"}},{"type":"Feature","id":51,"geometry":{"type":"Point","coordinates":[-91.525380218999942,44.038904828000057]},"properties":{"OBJECTID":51,"id":134686600,"latitude":44.0389048276,"longitude":-91.525380219400006,"common_name":"Green Heron"}},{"type":"Feature","id":52,"geometry":{"type":"Point","coordinates":[-91.64917755099998,44.041603088000045]},"properties":{"OBJECTID":52,"id":183571954,"latitude":44.041603088400002,"longitude":-91.649177551299999,"common_name":"Green Heron"}},{"type":"Feature","id":53,"geometry":{"type":"Point","coordinates":[-91.525704478999955,44.043440771000064]},"properties":{"OBJECTID":53,"id":308464288,"latitude":44.043440771299998,"longitude":-91.525704478600005,"common_name":"Green Heron"}},{"type":"Feature","id":54,"geometry":{"type":"Point","coordinates":[-91.544931308999935,44.064879475000055]},"properties":{"OBJECTID":54,"id":308459131,"latitude":44.064879474800001,"longitude":-91.544931309099994,"common_name":"Green Heron"}}]}