{"type":"FeatureCollection","features":[{"type":"Feature","id":1,"geometry":{"type":"Point","coordinates":[-91.224952962999964,43.811649456000055]},"properties":{"OBJECTID":1,"id":7088243,"latitude":43.811649455599998,"longitude":-91.2249529626,"common_name":"Northern Cardinal"}},{"type":"Feature","id":2,"geometry":{"type":"Point","coordinates":[-91.217079162999937,43.863742736000063]},"properties":{"OBJECTID":2,"id":7565628,"latitude":43.863742736100001,"longitude":-91.217079162600001,"common_name":"Northern Cardinal"}},{"type":"Feature","id":3,"geometry":{"type":"Point","coordinates":[-91.243309020999959,43.833339691000049]},"properties":{"OBJECTID":3,"id":28900427,"latitude":43.833339691200003,"longitude":-91.243309021000002,"common_name":"Northern Cardinal"}},{"type":"Feature","id":4,"geometry":{"type":"Point","coordinates":[-91.186330345999977,43.842501363000054]},"properties":{"OBJECTID":4,"id":30612186,"latitude":43.842501362999997,"longitude":-91.1863303457,"common_name":"Northern Cardinal"}},{"type":"Feature","id":5,"geometry":{"type":"Point","coordinates":[-91.183239557999968,43.838042519000055]},"properties":{"OBJECTID":5,"id":30614183,"latitude":43.838042518899996,"longitude":-91.183239557700006,"common_name":"Northern Cardinal"}},{"type":"Feature","id":6,"geometry":{"type":"Point","coordinates":[-91.183239557999968,43.838042519000055]},"properties":{"OBJECTID":6,"id":30614197,"latitude":43.838042518899996,"longitude":-91.183239557700006,"common_name":"Northern Cardinal"}},{"type":"Feature","id":7,"geometry":{"type":"Point","coordinates":[-91.183239557999968,43.838042519000055]},"properties":{"OBJECTID":7,"id":30614210,"latitude":43.838042518899996,"longitude":-91.183239557700006,"common_name":"Northern Cardinal"}},{"type":"Feature","id":8,"geometry":{"type":"Point","coordinates":[-91.183239557999968,43.838042519000055]},"properties":{"OBJECTID":8,"id":30614215,"latitude":43.838042518899996,"longitude":-91.183239557700006,"common_name":"Northern Cardinal"}},{"type":"Feature","id":9,"geometry":{"type":"Point","coordinates":[-91.183239557999968,43.838042519000055]},"properties":{"OBJECTID":9,"id":30614216,"latitude":43.838042518899996,"longitude":-91.183239557700006,"common_name":"Northern Cardinal"}},{"type":"Feature","id":10,"geometry":{"type":"Point","coordinates":[-91.183239557999968,43.838042519000055]},"properties":{"OBJECTID":10,"id":30614229,"latitude":43.838042518899996,"longitude":-91.183239557700006,"common_name":"Northern Cardinal"}},{"type":"Feature","id":11,"geometry":{"type":"Point","coordinates":[-91.076911166999992,43.898808333000034]},"properties":{"OBJECTID":11,"id":30713814,"latitude":43.898808333300003,"longitude":-91.0769111667,"common_name":"Northern Cardinal"}},{"type":"Feature","id":12,"geometry":{"type":"Point","coordinates":[-91.15647263599999,43.83556505100006]},"properties":{"OBJECTID":12,"id":35472980,"latitude":43.835565050600003,"longitude":-91.156472635599997,"common_name":"Northern Cardinal"}},{"type":"Feature","id":13,"geometry":{"type":"Point","coordinates":[-91.15647263599999,43.83556505100006]},"properties":{"OBJECTID":13,"id":35472990,"latitude":43.835565050600003,"longitude":-91.156472635599997,"common_name":"Northern Cardinal"}},{"type":"Feature","id":14,"geometry":{"type":"Point","coordinates":[-91.19923332999997,43.794371670000032]},"properties":{"OBJECTID":14,"id":48534264,"latitude":43.794371669999997,"longitude":-91.199233329999998,"common_name":"Northern Cardinal"}},{"type":"Feature","id":15,"geometry":{"type":"Point","coordinates":[-91.397818591999965,43.745594281000081]},"properties":{"OBJECTID":15,"id":51006947,"latitude":43.745594280699997,"longitude":-91.397818591499998,"common_name":"Northern Cardinal"}},{"type":"Feature","id":16,"geometry":{"type":"Point","coordinates":[-91.250834759999975,43.678853442000047]},"properties":{"OBJECTID":16,"id":51008936,"latitude":43.678853441800001,"longitude":-91.250834760199993,"common_name":"Northern Cardinal"}},{"type":"Feature","id":17,"geometry":{"type":"Point","coordinates":[-91.39815368699999,43.715755008000031]},"properties":{"OBJECTID":17,"id":51009890,"latitude":43.715755007600002,"longitude":-91.398153687499999,"common_name":"Northern Cardinal"}},{"type":"Feature","id":18,"geometry":{"type":"Point","coordinates":[-90.482632652999939,42.736234995000075]},"properties":{"OBJECTID":18,"id":52742096,"latitude":42.7362349952,"longitude":-90.482632652700005,"common_name":"Northern Cardinal"}},{"type":"Feature","id":19,"geometry":{"type":"Point","coordinates":[-90.885775674999991,43.363284705000069]},"properties":{"OBJECTID":19,"id":55353214,"latitude":43.3632847047,"longitude":-90.885775675399998,"common_name":"Northern Cardinal"}},{"type":"Feature","id":20,"geometry":{"type":"Point","coordinates":[-91.639842099999953,44.034347900000057]},"properties":{"OBJECTID":20,"id":55544759,"latitude":44.0343479,"longitude":-91.639842099999996,"common_name":"Northern Cardinal"}},{"type":"Feature","id":21,"geometry":{"type":"Point","coordinates":[-90.095240357999955,42.300782039000069]},"properties":{"OBJECTID":21,"id":56380516,"latitude":42.300782038999998,"longitude":-90.0952403581,"common_name":"Northern Cardinal"}},{"type":"Feature","id":22,"geometry":{"type":"Point","coordinates":[-91.162644658999966,43.831109070000025]},"properties":{"OBJECTID":22,"id":66357891,"latitude":43.831109069999997,"longitude":-91.162644658600001,"common_name":"Northern Cardinal"}},{"type":"Feature","id":23,"geometry":{"type":"Point","coordinates":[-91.162644658999966,43.831109070000025]},"properties":{"OBJECTID":23,"id":66357900,"latitude":43.831109069999997,"longitude":-91.162644658600001,"common_name":"Northern Cardinal"}},{"type":"Feature","id":24,"geometry":{"type":"Point","coordinates":[-91.162644658999966,43.831109070000025]},"properties":{"OBJECTID":24,"id":66357908,"latitude":43.831109069999997,"longitude":-91.162644658600001,"common_name":"Northern Cardinal"}},{"type":"Feature","id":25,"geometry":{"type":"Point","coordinates":[-90.398332399999958,42.401719620000051]},"properties":{"OBJECTID":25,"id":82853554,"latitude":42.401719620000001,"longitude":-90.398332400000001,"common_name":"Northern Cardinal"}},{"type":"Feature","id":26,"geometry":{"type":"Point","coordinates":[-91.26481416699994,43.624092082000061]},"properties":{"OBJECTID":26,"id":85368454,"latitude":43.624092081699999,"longitude":-91.264814167500006,"common_name":"Northern Cardinal"}},{"type":"Feature","id":27,"geometry":{"type":"Point","coordinates":[-91.443269560999966,44.00824078800008]},"properties":{"OBJECTID":27,"id":85640332,"latitude":44.0082407883,"longitude":-91.443269561199997,"common_name":"Northern Cardinal"}},{"type":"Feature","id":28,"geometry":{"type":"Point","coordinates":[-89.723498653999968,43.417430239000055]},"properties":{"OBJECTID":28,"id":88337986,"latitude":43.4174302387,"longitude":-89.723498653799993,"common_name":"Northern Cardinal"}},{"type":"Feature","id":29,"geometry":{"type":"Point","coordinates":[-91.163219154999979,42.996933249000051]},"properties":{"OBJECTID":29,"id":88420116,"latitude":42.996933249100003,"longitude":-91.163219155099995,"common_name":"Northern Cardinal"}},{"type":"Feature","id":30,"geometry":{"type":"Point","coordinates":[-91.188036666999949,43.821336667000025]},"properties":{"OBJECTID":30,"id":88581293,"latitude":43.821336666699999,"longitude":-91.1880366667,"common_name":"Northern Cardinal"}},{"type":"Feature","id":31,"geometry":{"type":"Point","coordinates":[-90.909765403999984,43.703736087000038]},"properties":{"OBJECTID":31,"id":89383457,"latitude":43.703736086799999,"longitude":-90.909765403799994,"common_name":"Northern Cardinal"}},{"type":"Feature","id":32,"geometry":{"type":"Point","coordinates":[-91.701863347999961,44.127596039000025]},"properties":{"OBJECTID":32,"id":89973306,"latitude":44.127596038900002,"longitude":-91.701863347699998,"common_name":"Northern Cardinal"}},{"type":"Feature","id":33,"geometry":{"type":"Point","coordinates":[-90.791881687999989,42.437341900000035]},"properties":{"OBJECTID":33,"id":90263948,"latitude":42.4373419004,"longitude":-90.791881687599997,"common_name":"Northern Cardinal"}},{"type":"Feature","id":34,"geometry":{"type":"Point","coordinates":[-90.097333584999944,42.296765811000057]},"properties":{"OBJECTID":34,"id":95103767,"latitude":42.296765810799997,"longitude":-90.097333584599994,"common_name":"Northern Cardinal"}},{"type":"Feature","id":35,"geometry":{"type":"Point","coordinates":[-91.077070130999971,43.898717954000062]},"properties":{"OBJECTID":35,"id":96232004,"latitude":43.898717954299997,"longitude":-91.077070131100001,"common_name":"Northern Cardinal"}},{"type":"Feature","id":36,"geometry":{"type":"Point","coordinates":[-89.836570739999956,43.415039062000062]},"properties":{"OBJECTID":36,"id":96509368,"latitude":43.4150390625,"longitude":-89.836570739699994,"common_name":"Northern Cardinal"}},{"type":"Feature","id":37,"geometry":{"type":"Point","coordinates":[-90.113964138999961,43.006083139000054]},"properties":{"OBJECTID":37,"id":99732170,"latitude":43.006083138900003,"longitude":-90.113964138900002,"common_name":"Northern Cardinal"}},{"type":"Feature","id":38,"geometry":{"type":"Point","coordinates":[-89.647004106999987,43.114025139000034]},"properties":{"OBJECTID":38,"id":111361932,"latitude":43.114025138999999,"longitude":-89.647004106799997,"common_name":"Northern Cardinal"}},{"type":"Feature","id":39,"geometry":{"type":"Point","coordinates":[-91.076773311999943,43.898828016000039]},"properties":{"OBJECTID":39,"id":122473591,"latitude":43.898828015699998,"longitude":-91.076773312,"common_name":"Northern Cardinal"}},{"type":"Feature","id":40,"geometry":{"type":"Point","coordinates":[-91.48553095799997,44.024761161000072]},"properties":{"OBJECTID":40,"id":122531983,"latitude":44.024761161299999,"longitude":-91.485530957500004,"common_name":"Northern Cardinal"}},{"type":"Feature","id":41,"geometry":{"type":"Point","coordinates":[-90.192858332999947,43.174608333000037]},"properties":{"OBJECTID":41,"id":125474043,"latitude":43.1746083333,"longitude":-90.192858333299995,"common_name":"Northern Cardinal"}},{"type":"Feature","id":42,"geometry":{"type":"Point","coordinates":[-89.985682703999942,42.770830149000062]},"properties":{"OBJECTID":42,"id":125660536,"latitude":42.7708301491,"longitude":-89.985682703600006,"common_name":"Northern Cardinal"}},{"type":"Feature","id":43,"geometry":{"type":"Point","coordinates":[-91.524865928999986,44.040996012000051]},"properties":{"OBJECTID":43,"id":126003222,"latitude":44.040996011799997,"longitude":-91.524865929100002,"common_name":"Northern Cardinal"}},{"type":"Feature","id":44,"geometry":{"type":"Point","coordinates":[-91.076823016999981,43.898775713000077]},"properties":{"OBJECTID":44,"id":126256847,"latitude":43.898775712599999,"longitude":-91.076823016700004,"common_name":"Northern Cardinal"}},{"type":"Feature","id":45,"geometry":{"type":"Point","coordinates":[-91.214394999999968,43.885180000000048]},"properties":{"OBJECTID":45,"id":126572442,"latitude":43.885179999999998,"longitude":-91.214394999999996,"common_name":"Northern Cardinal"}},{"type":"Feature","id":46,"geometry":{"type":"Point","coordinates":[-91.07696397999996,43.898813063000034]},"properties":{"OBJECTID":46,"id":126998480,"latitude":43.898813062999999,"longitude":-91.076963979799999,"common_name":"Northern Cardinal"}},{"type":"Feature","id":47,"geometry":{"type":"Point","coordinates":[-91.076875319999942,43.89878363300005]},"properties":{"OBJECTID":47,"id":127014358,"latitude":43.898783633500003,"longitude":-91.076875319799996,"common_name":"Northern Cardinal"}},{"type":"Feature","id":48,"geometry":{"type":"Point","coordinates":[-90.45844780799996,42.740678689000049]},"properties":{"OBJECTID":48,"id":128620274,"latitude":42.740678689100001,"longitude":-90.458447807900001,"common_name":"Northern Cardinal"}},{"type":"Feature","id":49,"geometry":{"type":"Point","coordinates":[-90.636906650999947,42.54138707900006]},"properties":{"OBJECTID":49,"id":128687585,"latitude":42.541387078900001,"longitude":-90.636906651299995,"common_name":"Northern Cardinal"}},{"type":"Feature","id":50,"geometry":{"type":"Point","coordinates":[-91.915834257999961,43.401219444000048]},"properties":{"OBJECTID":50,"id":129337121,"latitude":43.401219444399999,"longitude":-91.915834257499995,"common_name":"Northern Cardinal"}},{"type":"Feature","id":51,"geometry":{"type":"Point","coordinates":[-91.076453541999967,43.898902908000025]},"properties":{"OBJECTID":51,"id":129472741,"latitude":43.898902907999997,"longitude":-91.076453542400003,"common_name":"Northern Cardinal"}},{"type":"Feature","id":52,"geometry":{"type":"Point","coordinates":[-90.89496749999995,43.549803200000042]},"properties":{"OBJECTID":52,"id":129732339,"latitude":43.549803199999999,"longitude":-90.894967500000007,"common_name":"Northern Cardinal"}},{"type":"Feature","id":53,"geometry":{"type":"Point","coordinates":[-91.076942206999945,43.898731163000036]},"properties":{"OBJECTID":53,"id":129980664,"latitude":43.898731162799997,"longitude":-91.076942207399995,"common_name":"Northern Cardinal"}},{"type":"Feature","id":54,"geometry":{"type":"Point","coordinates":[-91.221939324999937,43.805522273000065]},"properties":{"OBJECTID":54,"id":130522438,"latitude":43.805522273100003,"longitude":-91.221939325299999,"common_name":"Northern Cardinal"}},{"type":"Feature","id":55,"geometry":{"type":"Point","coordinates":[-91.076996605999966,43.898764984000081]},"properties":{"OBJECTID":55,"id":131645665,"latitude":43.8987649838,"longitude":-91.076996605900007,"common_name":"Northern Cardinal"}},{"type":"Feature","id":56,"geometry":{"type":"Point","coordinates":[-91.19570312999997,43.78568225500004]},"properties":{"OBJECTID":56,"id":132006390,"latitude":43.785682255399998,"longitude":-91.195703130300004,"common_name":"Northern Cardinal"}},{"type":"Feature","id":57,"geometry":{"type":"Point","coordinates":[-89.647004106999987,43.114025139000034]},"properties":{"OBJECTID":57,"id":136105457,"latitude":43.114025138999999,"longitude":-89.647004106799997,"common_name":"Northern Cardinal"}},{"type":"Feature","id":58,"geometry":{"type":"Point","coordinates":[-91.184857417999979,43.090683521000074]},"properties":{"OBJECTID":58,"id":143680585,"latitude":43.090683520799999,"longitude":-91.184857417800004,"common_name":"Northern Cardinal"}},{"type":"Feature","id":59,"geometry":{"type":"Point","coordinates":[-91.531594973999972,44.042676031000042]},"properties":{"OBJECTID":59,"id":144279289,"latitude":44.042676031399999,"longitude":-91.531594974399994,"common_name":"Northern Cardinal"}},{"type":"Feature","id":60,"geometry":{"type":"Point","coordinates":[-91.531594973999972,44.042676031000042]},"properties":{"OBJECTID":60,"id":144279348,"latitude":44.042676031399999,"longitude":-91.531594974399994,"common_name":"Northern Cardinal"}},{"type":"Feature","id":61,"geometry":{"type":"Point","coordinates":[-91.076705837999953,43.898622575000047]},"properties":{"OBJECTID":61,"id":168562056,"latitude":43.898622575300003,"longitude":-91.076705837700004,"common_name":"Northern Cardinal"}},{"type":"Feature","id":62,"geometry":{"type":"Point","coordinates":[-91.07678974099997,43.898747843000081]},"properties":{"OBJECTID":62,"id":169866290,"latitude":43.898747842799999,"longitude":-91.076789740600006,"common_name":"Northern Cardinal"}},{"type":"Feature","id":63,"geometry":{"type":"Point","coordinates":[-91.192213332999984,43.753730000000076]},"properties":{"OBJECTID":63,"id":172576793,"latitude":43.753729999999997,"longitude":-91.192213333300003,"common_name":"Northern Cardinal"}},{"type":"Feature","id":64,"geometry":{"type":"Point","coordinates":[-91.192213332999984,43.753730000000076]},"properties":{"OBJECTID":64,"id":172827070,"latitude":43.753729999999997,"longitude":-91.192213333300003,"common_name":"Northern Cardinal"}},{"type":"Feature","id":65,"geometry":{"type":"Point","coordinates":[-91.48632833299996,44.028419500000041]},"properties":{"OBJECTID":65,"id":172876370,"latitude":44.028419499999998,"longitude":-91.486328333299994,"common_name":"Northern Cardinal"}},{"type":"Feature","id":66,"geometry":{"type":"Point","coordinates":[-91.086012834999963,43.02286706700005]},"properties":{"OBJECTID":66,"id":173863503,"latitude":43.022867067200004,"longitude":-91.086012835000005,"common_name":"Northern Cardinal"}},{"type":"Feature","id":67,"geometry":{"type":"Point","coordinates":[-91.092311198999937,43.895142500000077]},"properties":{"OBJECTID":67,"id":174394864,"latitude":43.895142499800002,"longitude":-91.092311199500003,"common_name":"Northern Cardinal"}},{"type":"Feature","id":68,"geometry":{"type":"Point","coordinates":[-91.081246499999963,43.899132100000031]},"properties":{"OBJECTID":68,"id":174475740,"latitude":43.899132100000003,"longitude":-91.081246500000006,"common_name":"Northern Cardinal"}},{"type":"Feature","id":69,"geometry":{"type":"Point","coordinates":[-91.521728332999942,44.046496667000042]},"properties":{"OBJECTID":69,"id":174517050,"latitude":44.046496666700001,"longitude":-91.521728333300004,"common_name":"Northern Cardinal"}},{"type":"Feature","id":70,"geometry":{"type":"Point","coordinates":[-90.784127457999944,42.590671088000079]},"properties":{"OBJECTID":70,"id":177451405,"latitude":42.590671087700002,"longitude":-90.784127458100002,"common_name":"Northern Cardinal"}},{"type":"Feature","id":71,"geometry":{"type":"Point","coordinates":[-91.076742298999989,43.898774288000027]},"properties":{"OBJECTID":71,"id":178067990,"latitude":43.8987742877,"longitude":-91.076742299000003,"common_name":"Northern Cardinal"}},{"type":"Feature","id":72,"geometry":{"type":"Point","coordinates":[-91.11810399999996,42.996050400000058]},"properties":{"OBJECTID":72,"id":182003072,"latitude":42.9960503999,"longitude":-91.118104000000002,"common_name":"Northern Cardinal"}},{"type":"Feature","id":73,"geometry":{"type":"Point","coordinates":[-91.221458332999987,43.821370000000059]},"properties":{"OBJECTID":73,"id":183140575,"latitude":43.821370000000002,"longitude":-91.221458333300006,"common_name":"Northern Cardinal"}},{"type":"Feature","id":74,"geometry":{"type":"Point","coordinates":[-90.174863246999962,43.327987586000063]},"properties":{"OBJECTID":74,"id":184781797,"latitude":43.327987585700001,"longitude":-90.174863247100006,"common_name":"Northern Cardinal"}},{"type":"Feature","id":75,"geometry":{"type":"Point","coordinates":[-90.04706114399994,43.148585235000041]},"properties":{"OBJECTID":75,"id":184781833,"latitude":43.148585235200002,"longitude":-90.047061143999997,"common_name":"Northern Cardinal"}},{"type":"Feature","id":76,"geometry":{"type":"Point","coordinates":[-91.217972516999964,43.616420851000044]},"properties":{"OBJECTID":76,"id":220481623,"latitude":43.616420851100003,"longitude":-91.217972516900005,"common_name":"Northern Cardinal"}},{"type":"Feature","id":77,"geometry":{"type":"Point","coordinates":[-90.403771653999968,43.519972366000047]},"properties":{"OBJECTID":77,"id":221698691,"latitude":43.519972365999998,"longitude":-90.403771653899994,"common_name":"Northern Cardinal"}},{"type":"Feature","id":78,"geometry":{"type":"Point","coordinates":[-91.214638332999982,43.802655000000073]},"properties":{"OBJECTID":78,"id":221871017,"latitude":43.802655000000001,"longitude":-91.214638333300002,"common_name":"Northern Cardinal"}},{"type":"Feature","id":79,"geometry":{"type":"Point","coordinates":[-90.674739063999937,42.552773832000071]},"properties":{"OBJECTID":79,"id":223864753,"latitude":42.5527738324,"longitude":-90.674739063499999,"common_name":"Northern Cardinal"}},{"type":"Feature","id":80,"geometry":{"type":"Point","coordinates":[-90.672868005999987,42.530052917000035]},"properties":{"OBJECTID":80,"id":227444922,"latitude":42.530052917299997,"longitude":-90.6728680059,"common_name":"Northern Cardinal"}},{"type":"Feature","id":81,"geometry":{"type":"Point","coordinates":[-91.238263888999938,43.385616667000079]},"properties":{"OBJECTID":81,"id":227690909,"latitude":43.385616666700002,"longitude":-91.238263888899994,"common_name":"Northern Cardinal"}},{"type":"Feature","id":82,"geometry":{"type":"Point","coordinates":[-90.291482508999991,42.387195014000042]},"properties":{"OBJECTID":82,"id":228553543,"latitude":42.387195014200003,"longitude":-90.291482509399998,"common_name":"Northern Cardinal"}},{"type":"Feature","id":83,"geometry":{"type":"Point","coordinates":[-90.647705555999949,42.539455556000064]},"properties":{"OBJECTID":83,"id":229169554,"latitude":42.5394555556,"longitude":-90.647705555599998,"common_name":"Northern Cardinal"}},{"type":"Feature","id":84,"geometry":{"type":"Point","coordinates":[-90.893586666999965,43.547816667000063]},"properties":{"OBJECTID":84,"id":229391278,"latitude":43.547816666700001,"longitude":-90.893586666700003,"common_name":"Northern Cardinal"}},{"type":"Feature","id":85,"geometry":{"type":"Point","coordinates":[-90.64915625399999,42.536563335000039]},"properties":{"OBJECTID":85,"id":229985489,"latitude":42.536563334900002,"longitude":-90.649156254499999,"common_name":"Northern Cardinal"}},{"type":"Feature","id":86,"geometry":{"type":"Point","coordinates":[-90.672868005999987,42.530052917000035]},"properties":{"OBJECTID":86,"id":232309661,"latitude":42.530052917299997,"longitude":-90.6728680059,"common_name":"Northern Cardinal"}},{"type":"Feature","id":87,"geometry":{"type":"Point","coordinates":[-91.210425861999965,43.812470276000056]},"properties":{"OBJECTID":87,"id":233312167,"latitude":43.812470275700001,"longitude":-91.210425861800005,"common_name":"Northern Cardinal"}},{"type":"Feature","id":88,"geometry":{"type":"Point","coordinates":[-89.769245395999974,42.583977486000038]},"properties":{"OBJECTID":88,"id":234047164,"latitude":42.5839774863,"longitude":-89.769245396000002,"common_name":"Northern Cardinal"}},{"type":"Feature","id":89,"geometry":{"type":"Point","coordinates":[-90.502412742999979,42.730063463000079]},"properties":{"OBJECTID":89,"id":236027336,"latitude":42.730063463400001,"longitude":-90.502412742600001,"common_name":"Northern Cardinal"}},{"type":"Feature","id":90,"geometry":{"type":"Point","coordinates":[-90.503696923999939,42.732574372000045]},"properties":{"OBJECTID":90,"id":236807550,"latitude":42.7325743719,"longitude":-90.503696923999996,"common_name":"Northern Cardinal"}},{"type":"Feature","id":91,"geometry":{"type":"Point","coordinates":[-90.503668194999989,42.730492939000044]},"properties":{"OBJECTID":91,"id":236807553,"latitude":42.730492939299999,"longitude":-90.503668194799999,"common_name":"Northern Cardinal"}},{"type":"Feature","id":92,"geometry":{"type":"Point","coordinates":[-90.40740628399999,42.766767088000051]},"properties":{"OBJECTID":92,"id":237217189,"latitude":42.766767088500004,"longitude":-90.407406284000004,"common_name":"Northern Cardinal"}},{"type":"Feature","id":93,"geometry":{"type":"Point","coordinates":[-91.021228176999955,42.735479498000075]},"properties":{"OBJECTID":93,"id":237389326,"latitude":42.735479498300002,"longitude":-91.021228176600005,"common_name":"Northern Cardinal"}},{"type":"Feature","id":94,"geometry":{"type":"Point","coordinates":[-90.090592820999973,43.034736272000032]},"properties":{"OBJECTID":94,"id":237709625,"latitude":43.034736272099998,"longitude":-90.090592820599994,"common_name":"Northern Cardinal"}},{"type":"Feature","id":95,"geometry":{"type":"Point","coordinates":[-90.867819999999938,44.242895000000033]},"properties":{"OBJECTID":95,"id":239321359,"latitude":44.242894999999997,"longitude":-90.867819999999995,"common_name":"Northern Cardinal"}},{"type":"Feature","id":96,"geometry":{"type":"Point","coordinates":[-90.101239935999956,43.027470841000024]},"properties":{"OBJECTID":96,"id":239490214,"latitude":43.027470841300001,"longitude":-90.101239935600006,"common_name":"Northern Cardinal"}},{"type":"Feature","id":97,"geometry":{"type":"Point","coordinates":[-90.101241012999935,43.027613961000043]},"properties":{"OBJECTID":97,"id":239490216,"latitude":43.0276139606,"longitude":-90.101241012499997,"common_name":"Northern Cardinal"}},{"type":"Feature","id":98,"geometry":{"type":"Point","coordinates":[-90.102048460999981,43.027390335000064]},"properties":{"OBJECTID":98,"id":239490228,"latitude":43.027390335100002,"longitude":-90.102048460999995,"common_name":"Northern Cardinal"}},{"type":"Feature","id":99,"geometry":{"type":"Point","coordinates":[-90.107119956999952,42.303974432000075]},"properties":{"OBJECTID":99,"id":255465524,"latitude":42.3039744318,"longitude":-90.107119957400002,"common_name":"Northern Cardinal"}},{"type":"Feature","id":100,"geometry":{"type":"Point","coordinates":[-90.494478031999961,42.719799133000038]},"properties":{"OBJECTID":100,"id":287527825,"latitude":42.7197991333,"longitude":-90.494478031900002,"common_name":"Northern Cardinal"}},{"type":"Feature","id":101,"geometry":{"type":"Point","coordinates":[-90.494478031999961,42.719799133000038]},"properties":{"OBJECTID":101,"id":287527827,"latitude":42.7197991333,"longitude":-90.494478031900002,"common_name":"Northern Cardinal"}},{"type":"Feature","id":102,"geometry":{"type":"Point","coordinates":[-90.494478031999961,42.719799133000038]},"properties":{"OBJECTID":102,"id":287527828,"latitude":42.7197991333,"longitude":-90.494478031900002,"common_name":"Northern Cardinal"}},{"type":"Feature","id":103,"geometry":{"type":"Point","coordinates":[-91.750845999999967,42.835750000000075]},"properties":{"OBJECTID":103,"id":290003612,"latitude":42.835749999999997,"longitude":-91.750845999999996,"common_name":"Northern Cardinal"}},{"type":"Feature","id":104,"geometry":{"type":"Point","coordinates":[-90.494478031999961,42.719799133000038]},"properties":{"OBJECTID":104,"id":292235105,"latitude":42.7197991333,"longitude":-90.494478031900002,"common_name":"Northern Cardinal"}},{"type":"Feature","id":105,"geometry":{"type":"Point","coordinates":[-90.628417314999979,43.596243622000031]},"properties":{"OBJECTID":105,"id":294206798,"latitude":43.596243622099998,"longitude":-90.628417314700002,"common_name":"Northern Cardinal"}},{"type":"Feature","id":106,"geometry":{"type":"Point","coordinates":[-90.494478031999961,42.719799133000038]},"properties":{"OBJECTID":106,"id":294490880,"latitude":42.7197991333,"longitude":-90.494478031900002,"common_name":"Northern Cardinal"}},{"type":"Feature","id":107,"geometry":{"type":"Point","coordinates":[-91.102906799999971,42.789989700000035]},"properties":{"OBJECTID":107,"id":297675507,"latitude":42.7899897,"longitude":-91.1029068,"common_name":"Northern Cardinal"}},{"type":"Feature","id":108,"geometry":{"type":"Point","coordinates":[-90.500666698999964,42.729084779000061]},"properties":{"OBJECTID":108,"id":298329972,"latitude":42.729084778800001,"longitude":-90.500666698900005,"common_name":"Northern Cardinal"}},{"type":"Feature","id":109,"geometry":{"type":"Point","coordinates":[-91.679642519999959,44.074699690000045]},"properties":{"OBJECTID":109,"id":298712551,"latitude":44.074699690000003,"longitude":-91.679642520000002,"common_name":"Northern Cardinal"}},{"type":"Feature","id":110,"geometry":{"type":"Point","coordinates":[-91.226097106999987,43.822349548000034]},"properties":{"OBJECTID":110,"id":302975868,"latitude":43.822349548299997,"longitude":-91.226097106899999,"common_name":"Northern Cardinal"}},{"type":"Feature","id":111,"geometry":{"type":"Point","coordinates":[-90.767872146999991,43.440359973000056]},"properties":{"OBJECTID":111,"id":304456366,"latitude":43.440359973200003,"longitude":-90.767872146499997,"common_name":"Northern Cardinal"}},{"type":"Feature","id":112,"geometry":{"type":"Point","coordinates":[-90.64290538399996,42.492217114000027]},"properties":{"OBJECTID":112,"id":305097368,"latitude":42.492217113800002,"longitude":-90.642905384299993,"common_name":"Northern Cardinal"}},{"type":"Feature","id":113,"geometry":{"type":"Point","coordinates":[-91.112455591999947,42.546419367000055]},"properties":{"OBJECTID":113,"id":305310827,"latitude":42.546419366899997,"longitude":-91.112455591900002,"common_name":"Northern Cardinal"}},{"type":"Feature","id":114,"geometry":{"type":"Point","coordinates":[-91.330492191999952,44.023692335000078]},"properties":{"OBJECTID":114,"id":305591692,"latitude":44.0236923354,"longitude":-91.330492192199998,"common_name":"Northern Cardinal"}},{"type":"Feature","id":115,"geometry":{"type":"Point","coordinates":[-91.213904999999954,43.820970000000045]},"properties":{"OBJECTID":115,"id":306942052,"latitude":43.820970000000003,"longitude":-91.213904999999997,"common_name":"Northern Cardinal"}},{"type":"Feature","id":116,"geometry":{"type":"Point","coordinates":[-91.224571666999964,43.80627000000004]},"properties":{"OBJECTID":116,"id":307593517,"latitude":43.806269999999998,"longitude":-91.224571666700001,"common_name":"Northern Cardinal"}},{"type":"Feature","id":117,"geometry":{"type":"Point","coordinates":[-91.677959918999989,44.076163146000056]},"properties":{"OBJECTID":117,"id":311512997,"latitude":44.076163145599999,"longitude":-91.677959918499994,"common_name":"Northern Cardinal"}},{"type":"Feature","id":118,"geometry":{"type":"Point","coordinates":[-91.131283490999976,43.386945472000036]},"properties":{"OBJECTID":118,"id":313375819,"latitude":43.386945472299999,"longitude":-91.131283491000005,"common_name":"Northern Cardinal"}},{"type":"Feature","id":119,"geometry":{"type":"Point","coordinates":[-89.644262301999959,43.116756710000061]},"properties":{"OBJECTID":119,"id":314962871,"latitude":43.116756710099999,"longitude":-89.644262301500007,"common_name":"Northern Cardinal"}},{"type":"Feature","id":120,"geometry":{"type":"Point","coordinates":[-91.484272221999959,44.029727778000051]},"properties":{"OBJECTID":120,"id":315497389,"latitude":44.029727777799998,"longitude":-91.484272222200005,"common_name":"Northern Cardinal"}},{"type":"Feature","id":121,"geometry":{"type":"Point","coordinates":[-91.201159833999952,43.819417263000048]},"properties":{"OBJECTID":121,"id":323143601,"latitude":43.819417263200002,"longitude":-91.201159834400002,"common_name":"Northern Cardinal"}},{"type":"Feature","id":122,"geometry":{"type":"Point","coordinates":[-90.093541423999966,43.615640494000047]},"properties":{"OBJECTID":122,"id":325751174,"latitude":43.615640493599997,"longitude":-90.093541423900007,"common_name":"Northern Cardinal"}},{"type":"Feature","id":123,"geometry":{"type":"Point","coordinates":[-90.478462099999945,42.734160000000031]},"properties":{"OBJECTID":123,"id":325962941,"latitude":42.734160000000003,"longitude":-90.478462100000002,"common_name":"Northern Cardinal"}},{"type":"Feature","id":124,"geometry":{"type":"Point","coordinates":[-90.478462099999945,42.734160000000031]},"properties":{"OBJECTID":124,"id":325962944,"latitude":42.734160000000003,"longitude":-90.478462100000002,"common_name":"Northern Cardinal"}},{"type":"Feature","id":125,"geometry":{"type":"Point","coordinates":[-90.410727519999966,42.757105635000073]},"properties":{"OBJECTID":125,"id":331628371,"latitude":42.7571056353,"longitude":-90.410727519600002,"common_name":"Northern Cardinal"}}]}